{"type":"FeatureCollection","features":[{"type": "Feature", "id": "lV5v4zFVWYI_sA8yKttxm7clt1U=", "properties": {"ref": "432", "@spider": "mcdonalds_rs", "addr:full": "Bulevar Mihajla Pupina 85a, 11070 Novi Beograd", "name": "Time Out", "website": "https://www.mcdonalds.rs/restoran/time-out/", "brand": "McDonald's"}, "geometry": {"type": "Point", "coordinates": [44.815834, 20.430988]}},
{"type": "Feature", "id": "PtprQqVmToP6GUaa8U51dJZ2L6o=", "properties": {"ref": "436", "@spider": "mcdonalds_rs", "addr:full": "Narodnih heroja 2, 11070 Novi Beograd", "name": "Fontana", "website": "https://www.mcdonalds.rs/restoran/fontana/", "brand": "McDonald's"}, "geometry": {"type": "Point", "coordinates": [44.826028, 20.407887]}},
{"type": "Feature", "id": "aWDEwMJLOReMaleP9lGeRgqMXb8=", "properties": {"ref": "2054", "@spider": "mcdonalds_rs", "addr:full": "Partizanske avijacije 28a, 11070 Novi Beograd", "name": "Be\u017eanijska kosa", "website": "https://www.mcdonalds.rs/restoran/bezanijska-kosa/", "brand": "McDonald's"}, "geometry": {"type": "Point", "coordinates": [44.817463, 20.383844]}},
{"type": "Feature", "id": "49OdPz0BPCcxrPpCFsBiLlGd1nI=", "properties": {"ref": "434", "@spider": "mcdonalds_rs", "addr:full": "Jurija Gagarina 153a, 11070 Novi Beograd", "name": "Piramida", "website": "https://www.mcdonalds.rs/restoran/piramida/", "brand": "McDonald's"}, "geometry": {"type": "Point", "coordinates": [44.802252, 20.38552]}},
{"type": "Feature", "id": "LiIMzeXLSZaN5-vLLHNvZ69ci1o=", "properties": {"ref": "433", "@spider": "mcdonalds_rs", "addr:full": "Kneza Vi\u0161eslava 45, 11090 Rakovica", "name": "Rakovica", "website": "https://www.mcdonalds.rs/restoran/rakovica/", "brand": "McDonald's"}, "geometry": {"type": "Point", "coordinates": [44.743747, 20.426055]}},
{"type": "Feature", "id": "t2vGP0jQEROxGqiT5NF69jGWoFc=", "properties": {"ref": "4205", "@spider": "mcdonalds_rs", "addr:full": "Zrenjaninski put bb, 11211 Beograd", "name": "Bor\u010da STOP SHOP", "website": "https://www.mcdonalds.rs/restoran/borca-stopshop/", "brand": "McDonald's"}, "geometry": {"type": "Point", "coordinates": [44.886899, 20.458527]}},
{"type": "Feature", "id": "M-Z1h5JJ8CuPEJeAJoyMW7ZImv8=", "properties": {"ref": "91", "@spider": "mcdonalds_rs", "addr:full": "Deligradska 2, 11000 Beograd", "name": "Slavija", "website": "https://www.mcdonalds.rs/restoran/slavija/", "brand": "McDonald's"}, "geometry": {"type": "Point", "coordinates": [44.80221, 20.465536]}},
{"type": "Feature", "id": "DSsxKPbLs5wjk4uUWBwKz9LQE9A=", "properties": {"ref": "438", "@spider": "mcdonalds_rs", "addr:full": "Terazije 27, 11000 Beograd", "name": "Bezistan", "website": "https://www.mcdonalds.rs/restoran/bezistan/", "brand": "McDonald's"}, "geometry": {"type": "Point", "coordinates": [44.812932, 20.461459]}},
{"type": "Feature", "id": "LM0N7snewtUU5O9TfC5cD5sY5rQ=", "properties": {"ref": "439", "@spider": "mcdonalds_rs", "addr:full": "Bulevar kralja Aleksandra 62, 11000 Beograd", "name": "Bulevar", "website": "https://www.mcdonalds.rs/restoran/bulevar/", "brand": "McDonald's"}, "geometry": {"type": "Point", "coordinates": [44.807217, 20.470976]}},
{"type": "Feature", "id": "t1YDOpX5O9MoFfiFXXxbI9ZHFBY=", "properties": {"ref": "431", "@spider": "mcdonalds_rs", "addr:full": "Brankov plato bb, 11000 Beograd", "name": "Zeleni Venac", "website": "https://www.mcdonalds.rs/restoran/zeleni-venac/", "brand": "McDonald's"}, "geometry": {"type": "Point", "coordinates": [44.814188, 20.456971]}},
{"type": "Feature", "id": "nnz1qQeC9fUkYhbTifeP7baA2TY=", "properties": {"ref": "437", "@spider": "mcdonalds_rs", "addr:full": "Po\u017ee\u0161ka 98a, 11030 Banovo brdo", "name": "Po\u017ee\u0161ka", "website": "https://www.mcdonalds.rs/restoran/pozeska/", "brand": "McDonald's"}, "geometry": {"type": "Point", "coordinates": [44.777534, 20.414135]}},
{"type": "Feature", "id": "-hXqrAHtEi_VrpWAU4Gvz35d-k8=", "properties": {"ref": "968", "@spider": "mcdonalds_rs", "addr:full": "Autoput Beograd \u2013 Zagreb bb, 11000 Beograd", "name": "Zmaj 1", "website": "https://www.mcdonalds.rs/restoran/zmaj-1/", "brand": "McDonald's"}, "geometry": {"type": "Point", "coordinates": [44.832021, 20.369219]}},
{"type": "Feature", "id": "oBfsJ3tZdi6sX6FgHQ3ziSX5Gxc=", "properties": {"ref": "539", "@spider": "mcdonalds_rs", "addr:full": "Jurija Gagarina 16, 11070 Novi Beograd", "name": "Delta City", "website": "https://www.mcdonalds.rs/restoran/delta-city/", "brand": "McDonald's"}, "geometry": {"type": "Point", "coordinates": [44.80517, 20.404241]}},
{"type": "Feature", "id": "fTsEaIpZJNrIHdXyN9bLt8hBihk=", "properties": {"ref": "430", "@spider": "mcdonalds_rs", "addr:full": "Bulevar Mihajla Pupina 4, 11070 Novi Beograd", "name": "U\u0161\u0107e", "website": "https://www.mcdonalds.rs/restoran/usce/", "brand": "McDonald's"}, "geometry": {"type": "Point", "coordinates": [44.815394, 20.436343]}},
{"type": "Feature", "id": "iurVzzbS4b4s_iV_EEGDFeiuCR8=", "properties": {"ref": "429", "@spider": "mcdonalds_rs", "addr:full": "Zaplanjska 32,11010 Vo\u017edovac", "name": "Stadion", "website": "https://www.mcdonalds.rs/restoran/stadion/", "brand": "McDonald's"}, "geometry": {"type": "Point", "coordinates": [44.775094, 20.489922]}},
{"type": "Feature", "id": "loEe5gA0LqiZEx0rBTq99jRZi9Q=", "properties": {"ref": "4864", "@spider": "mcdonalds_rs", "addr:full": "Vi\u0161nji\u010dka , 11000 Beograd", "name": "BIG FASHION", "website": "https://www.mcdonalds.rs/restoran/big-fashion/", "brand": "McDonald's"}, "geometry": {"type": "Point", "coordinates": [44.8167919, 20.5053981]}},
{"type": "Feature", "id": "OmkFlPF0A1BsKwhWF5PvOvixnGA=", "properties": {"ref": "28862", "@spider": "mcdonalds_rs", "addr:full": "Radni\u010dka ulica broj 9, 11030 \u010cukarica", "name": "Ada Mall", "website": "https://www.mcdonalds.rs/restoran/ada-mall/", "brand": "McDonald's"}, "geometry": {"type": "Point", "coordinates": [44.7875, 20.4183]}},
{"type": "Feature", "id": "TsXd8Olj6ScQZvnW_OKTdtkYtx0=", "properties": {"ref": "49521", "@spider": "mcdonalds_rs", "addr:full": "Kneza Mihaila 54, Beograd 11000", "name": "Raji\u0107eva Shopping centar", "website": "https://www.mcdonalds.rs/restoran/rajiceva/", "brand": "McDonald's"}, "geometry": {"type": "Point", "coordinates": [44.820139, 20.454274]}},
{"type": "Feature", "id": "o6UTFzmMDutAqaqRywca2sVtlgc=", "properties": {"ref": "51526", "@spider": "mcdonalds_rs", "addr:full": "Vojislava Ili\u0107a 141, Beograd 11000", "name": "Beo Shopping centar", "website": "https://www.mcdonalds.rs/restoran/beo-shopping-centar/", "brand": "McDonald's"}, "geometry": {"type": "Point", "coordinates": [44.786425, 20.501149]}},
{"type": "Feature", "id": "vQPy2T6SMUrUSanxcMwS1p66KHM=", "properties": {"ref": "441", "@spider": "mcdonalds_rs", "addr:full": "Bulevar Ja\u0161e Tomi\u0107a bb, 21000 Novi Sad", "name": "Park", "website": "https://www.mcdonalds.rs/restoran/park/", "brand": "McDonald's"}, "geometry": {"type": "Point", "coordinates": [45.265023, 19.831607]}},
{"type": "Feature", "id": "FyDfFEFLSqm9gudryaQlsU0qmDg=", "properties": {"ref": "440", "@spider": "mcdonalds_rs", "addr:full": "Trg Slobode 3, 21000 Novi Sad", "name": "Apolo", "website": "https://www.mcdonalds.rs/restoran/apolo/", "brand": "McDonald's"}, "geometry": {"type": "Point", "coordinates": [45.255199, 19.844278]}},
{"type": "Feature", "id": "er_B80d0MMQhrXjsqUJTfStgOtI=", "properties": {"ref": "790", "@spider": "mcdonalds_rs", "addr:full": "Sentandrejski put 11, 21000 Novi Sad", "name": "BIG Shopping Centar", "website": "https://www.mcdonalds.rs/restoran/big-shopping-centar/", "brand": "McDonald's"}, "geometry": {"type": "Point", "coordinates": [45.276648, 19.825782]}},
{"type": "Feature", "id": "JcA4dFJcP8FY6_oEyU3GfbtFO94=", "properties": {"ref": "13055", "@spider": "mcdonalds_rs", "addr:full": "Bulevar oslobo\u0111enja 119,21000 Novi Sad", "name": "Promenada", "website": "https://www.mcdonalds.rs/restoran/nepi-mall/", "brand": "McDonald's"}, "geometry": {"type": "Point", "coordinates": [45.244690222059006, 19.841751934516985]}},
{"type": "Feature", "id": "36odytSXGCVeuelMd1AQx8GdCdE=", "properties": {"ref": "3248", "@spider": "mcdonalds_rs", "addr:full": "Bulevar Medijana 21, 18106 Ni\u0161", "name": "Medijana STOP SHOP Ni\u0161", "website": "https://www.mcdonalds.rs/restoran/medijana/", "brand": "McDonald's"}, "geometry": {"type": "Point", "coordinates": [43.310611, 21.93569]}},
{"type": "Feature", "id": "YMjfp10KRLRSrge2UI38jCsChcY=", "properties": {"ref": "443", "@spider": "mcdonalds_rs", "addr:full": "Generala Milojka Le\u0161janina 2, 18000 Ni\u0161", "name": "Tvr\u0111ava", "website": "https://www.mcdonalds.rs/restoran/tvrdjava/", "brand": "McDonald's"}, "geometry": {"type": "Point", "coordinates": [43.321073, 21.895341]}},
{"type": "Feature", "id": "9EJD8cBfO6Tur3KsPXrcp-DRmDA=", "properties": {"ref": "3480", "@spider": "mcdonalds_rs", "addr:full": "BS Petrol Stara Pazova", "addr:city": "Novi Sad \u2013 Beograd bb", "addr:postcode": "Auto-put E75", "name": "Stara Pazova", "website": "https://www.mcdonalds.rs/restoran/stara-pazova/", "brand": "McDonald's"}, "geometry": {"type": "Point", "coordinates": [44.994374, 20.207857]}},
{"type": "Feature", "id": "NUkEs3jlIy_IKkAkxiVT9tLu-FU=", "properties": {"ref": "1323", "@spider": "mcdonalds_rs", "addr:full": "Milo\u0161a Obrenovi\u0107a 12, 26 000 Pan\u010devo", "name": "BIG Pan\u010devo", "website": "https://www.mcdonalds.rs/restoran/bigpancevo/", "brand": "McDonald's"}, "geometry": {"type": "Point", "coordinates": [44.866659, 20.660497]}},
{"type": "Feature", "id": "-H_SCIyBpq85vHLCbD-QwA_lLxs=", "properties": {"ref": "445", "@spider": "mcdonalds_rs", "addr:full": "Shoppping centar Plaza, 34000 Kragujevac", "name": "Plaza", "website": "https://www.mcdonalds.rs/restoran/plaza/", "brand": "McDonald's"}, "geometry": {"type": "Point", "coordinates": [44.008132, 20.896277]}},
{"type": "Feature", "id": "gjhYYBtO5e1yc05mthZEl-_HGM8=", "properties": {"ref": "444", "@spider": "mcdonalds_rs", "addr:full": "Autoput bb,", "addr:city": "Velika Plana", "addr:postcode": "11320", "name": "Velika Plana", "website": "https://www.mcdonalds.rs/restoran/velika-plana/", "brand": "McDonald's"}, "geometry": {"type": "Point", "coordinates": [44.343571, 21.079688]}},
{"type": "Feature", "id": "PiAF_lMjXo1qwIhQ95M9yI1uJjY=", "properties": {"ref": "442", "@spider": "mcdonalds_rs", "addr:full": "Trg Slobode 1, 24 000 Subotica", "name": "Gradska ku\u0107a", "website": "https://www.mcdonalds.rs/restoran/gradska-kuca/", "brand": "McDonald's"}, "geometry": {"type": "Point", "coordinates": [46.100216, 19.664857]}}]}