{"type":"FeatureCollection","features":[{"type": "Feature", "id": "j6C3CqSBuxgq-iKYcZQRr41Jr1c=", "properties": {"ref": "IC48069", "@spider": "mcdonalds_th", "addr:full": "No. 97 /11 Big C shopping mall . Supercenter initiative Room No. G floor GCR 101 Ratchadamri Road , Lumpini, Pathumwan, Bangkok 10330.", "name": "BIG C RAJDAMRI", "phone": "02-250-4687, 02-250-4688", "opening_hours": "Mo-Su:07:00-13:00", "brand": "McDonald's"}, "geometry": {"type": "Point", "coordinates": [100.541112, 13.747338]}},
{"type": "Feature", "id": "reUcIA8Tdwut7DsWXHcUCmz_zUs=", "properties": {"ref": "IC48071", "@spider": "mcdonalds_th", "addr:full": "No. 1 Building, Major Holly Woods Asst , Room S 1-001 , 002 , 1st Floor , Soi Ramkhamhaeng 37 ( Siricharoen ) Bangkapi , Bangkok 10240.", "name": "MAJOR HOLLYWOOD RAM", "phone": "02-718-8317, 02-718-8318", "opening_hours": "24/7", "brand": "McDonald's"}, "geometry": {"type": "Point", "coordinates": [100.614942, 13.756947]}},
{"type": "Feature", "id": "LCOyIuUuSUSWPT0OgX_2RShJ49w=", "properties": {"ref": "IC48072", "@spider": "mcdonalds_th", "addr:full": "313 CP Tower, Silom Road , Bangkok 10500 .", "name": "CP TOWER, SILOM", "phone": "02-235-2299, 02-235-8400 , 02-236-8159", "opening_hours": "24/7", "brand": "McDonald's"}, "geometry": {"type": "Point", "coordinates": [100.533398, 13.728119]}},
{"type": "Feature", "id": "qaUEGVJvPzSFa7MtqgLPtNbw08E=", "properties": {"ref": "IC48073", "@spider": "mcdonalds_th", "addr:full": "No. 259 Sukhumvit Road, Klong Toey, Bangkok 10110 .", "name": "ROBINSON SUKUMVIT", "phone": "02-251-5003, 02-251-5005", "opening_hours": "24/7", "brand": "McDonald's"}, "geometry": {"type": "Point", "coordinates": [100.559441, 13.738111]}},
{"type": "Feature", "id": "qA78lhn6m8KhRM4nwfIg9Va88L4=", "properties": {"ref": "IC48074", "@spider": "mcdonalds_th", "addr:full": "No. 2601 among the 16 Development Road , Suan Luang, Bangkok 10250.", "name": "MAX VALU SRINAKARIN (DRIVE-THRU)", "phone": "02-322-6901, 02-322-7010, 02-722-3459", "opening_hours": "24/7", "brand": "McDonald's"}, "geometry": {"type": "Point", "coordinates": [100.641462, 13.735868]}},
{"type": "Feature", "id": "zkwir4qDitjVDJZAYpxN0tFRIqI=", "properties": {"ref": "IC48075", "@spider": "mcdonalds_th", "addr:full": "No. 30/39-50 NGAMWONGWAN Rd , Muang, Nonthaburi 11000 .", "name": "THE MALL NGAMWONGWAN 1", "phone": "02-550-0611,  02-955-5879", "opening_hours": "Mo-Su:07:00-22:30", "brand": "McDonald's"}, "geometry": {"type": "Point", "coordinates": [100.542096, 13.855276]}},
{"type": "Feature", "id": "CHGUSbB0747DYwf_cU5J24l1BCI=", "properties": {"ref": "IC48077", "@spider": "mcdonalds_th", "addr:full": "No. 30/39-50 , 639 Moo 2 at front New Food Theme Park 6th NGAMWONGWAN Rd , Muang, Nonthaburi 10100 .", "name": "THE MALL NGAMWONGWAN 2", "phone": "02-550-1318", "opening_hours": "Mo-Su:10:30-21:00", "brand": "McDonald's"}, "geometry": {"type": "Point", "coordinates": [100.542096, 13.855276]}},
{"type": "Feature", "id": "x-gpKO4OwSFjrgS-X--T1evVFh4=", "properties": {"ref": "IC48078", "@spider": "mcdonalds_th", "addr:full": "No. 4, 4 /1, 4/2 , 4/4 , Central World , 6th Floor, Room No. A606/1-A606/2 Ratchadamri Road, Pathumwan , Bangkok 10330 .", "name": "CENTRAL WORLD 2", "phone": "02-255-6145, 02-255-6146", "opening_hours": "Mo-Su:10:00-22:00", "brand": "McDonald's"}, "geometry": {"type": "Point", "coordinates": [100.53998, 13.747203]}},
{"type": "Feature", "id": "OZ6vR877j0RjXFWcdYKAuzO3TKc=", "properties": {"ref": "IC48080", "@spider": "mcdonalds_th", "addr:full": "999 Sukhumvit Road, Samrong Nua, Muang , Samutprakarn . MON 10270", "name": "IMPERIAL SAMRONG", "phone": "02-384-1454 , 02-384-1455", "opening_hours": "Mo-Su:09:00-22:00", "brand": "McDonald's"}, "geometry": {"type": "Point", "coordinates": [100.596819, 13.650215]}},
{"type": "Feature", "id": "mzvvc0yHqSssqlpbwp_14Ck_EQ8=", "properties": {"ref": "IC48082", "@spider": "mcdonalds_th", "addr:full": "No. 1522 Charoen Krung Road , Bangrak , Bangkok 10500 .", "name": "ROBINSON BANGRAK", "phone": "02-233-6629, 02-267-3809", "opening_hours": "24/7", "brand": "McDonald's"}, "geometry": {"type": "Point", "coordinates": [100.515365, 13.719357]}},
{"type": "Feature", "id": "PUQ-qBlkCxHG2sagJRUejl1mlWc=", "properties": {"ref": "IC48083", "@spider": "mcdonalds_th", "addr:full": "444 MBK Center, Building 1 , Room 1 A and 1 B. 01-1 10-1 A. 13 B. 02 Phayathai Road , Pathumwan , Bangkok 10330 .", "name": "MAHBOONKRONG", "phone": "02-686-3516, 02-686-35167", "opening_hours": "Mo-Su:08:30-22:00", "brand": "McDonald's"}, "geometry": {"type": "Point", "coordinates": [100.530074, 13.744356]}},
{"type": "Feature", "id": "NNSafA7Sfq2j7TgY8hO_hrVc7gQ=", "properties": {"ref": "IC48084", "@spider": "mcdonalds_th", "addr:full": "Tokyu Department Store No. 444 , 1st Floor, Phayathai Road , Pathumwan , Bangkok 10330 .", "name": "TOKYU MAHBOONKRONG", "phone": "02-620-1092", "opening_hours": "Mo-Su:10:00-21:00", "brand": "McDonald's"}, "geometry": {"type": "Point", "coordinates": [100.530004, 13.746008]}},
{"type": "Feature", "id": "0rr4JEW1JdBVDeV1eEHqt557A6Y=", "properties": {"ref": "IC48085", "@spider": "mcdonalds_th", "addr:full": "No. 607 Building, Seacon Bang Room No. 109-110 , 1st Floor, Petchkasem Bang Wa Phasi Charoen Bangkok 10160 .", "name": "SEACON BANGKAE", "phone": "02-804-7031, 02-454-8600", "opening_hours": "Mo-Su:10:00-21:30", "brand": "McDonald's"}, "geometry": {"type": "Point", "coordinates": [100.43481, 13.711949]}},
{"type": "Feature", "id": "eMYN0kIfrpTfmIX1Jb-aSXErYT4=", "properties": {"ref": "IC48086", "@spider": "mcdonalds_th", "addr:full": "No. 587 , Bangna - Trad Road, Bangna , Bangkok 10260 .", "name": "CENTRAL PLAZA BANGNA", "phone": "02-361-0567", "opening_hours": "Mo-Su:10:30-21:00", "brand": "McDonald's"}, "geometry": {"type": "Point", "coordinates": [100.634519, 13.66959]}},
{"type": "Feature", "id": "U0wOALFX6zuVbVTi6mRrvswoHH4=", "properties": {"ref": "IC48087", "@spider": "mcdonalds_th", "addr:full": "Room No. 124-125T , 1st Floor , Central Plaza Chonburi No. 55/88-55/89 , 55 /91 Moo 1, Tambon Samet, Muang , Chonburi 20000 .", "name": "CENTRAL CHONBURI", "phone": "038-053-827, 038-053-828", "opening_hours": "Mo-Su:09:30-22:00", "brand": "McDonald's"}, "geometry": {"type": "Point", "coordinates": [100.969409, 13.336701]}},
{"type": "Feature", "id": "GTg_A6XsPLQij8tr8cTLXWQsp4s=", "properties": {"ref": "IC48088", "@spider": "mcdonalds_th", "addr:full": "No. 700/75 Moo 5 Tesco Lotus Amata Nakorn , Klong Tamru . Mueang Chonburi Province 20000", "name": "TESCO AMATA NAKORN", "phone": "038-457-366-7", "opening_hours": "Mo-Su:07:00-22:00", "brand": "McDonald's"}, "geometry": {"type": "Point", "coordinates": [101.004221, 13.42585]}},
{"type": "Feature", "id": "Mv_WmIU7WchWuoma-DBuTWdq014=", "properties": {"ref": "IC48089", "@spider": "mcdonalds_th", "addr:full": "No. 275 Moo 1 Petchkasem Rd -Nua, Wattana , Bangkok 10160 .", "name": "THE MALL BANGKAE 1", "phone": "02-803-8369, 02-454-9353", "opening_hours": "Mo-Su:10:00-22:00", "brand": "McDonald's"}, "geometry": {"type": "Point", "coordinates": [100.407254, 13.713718]}},
{"type": "Feature", "id": "DCDUyOGhReihp-MAfZs9sImW3dk=", "properties": {"ref": "IC48090", "@spider": "mcdonalds_th", "addr:full": "No. 275 Moo 1 , G and departmental Take Home Petchkasem Rd -Nua, Wattana , Bangkok 10160 .", "name": "THE MALL BANGKAE 2", "phone": "02-454-3660", "opening_hours": "Mo-Su:10:30-22:00", "brand": "McDonald's"}, "geometry": {"type": "Point", "coordinates": [100.40819, 13.712442]}},
{"type": "Feature", "id": "2Kd5i-NVC_X3oT3yn9k_QkQBkDQ=", "properties": {"ref": "IC48091", "@spider": "mcdonalds_th", "addr:full": "No. 3522 , Ladprao Road, Bangkapi , Bangkok 10240.", "name": "THE MALL BANGKAPI 1", "phone": "02-734-1567 , 02-734-1568", "opening_hours": "Mo-Su:08:30-22:00", "brand": "McDonald's"}, "geometry": {"type": "Point", "coordinates": [100.642544, 13.766444]}},
{"type": "Feature", "id": "39ks01OSNUGsrVlhWOhKFxxmfdw=", "properties": {"ref": "IC48092", "@spider": "mcdonalds_th", "addr:full": "No. 3522 Take Home the Section 1 Ladprao Road , Bangkapi, Bangkok 10240.", "name": "THE MALL BANGKAPI 2", "phone": "02-363-3196", "opening_hours": "Mo-Su:10:30-22:00", "brand": "McDonald's"}, "geometry": {"type": "Point", "coordinates": [100.642544, 13.766444]}},
{"type": "Feature", "id": "hqkVWqJBqYvncURaYuZBoULdW-4=", "properties": {"ref": "IC48093", "@spider": "mcdonalds_th", "addr:full": "Klao Road No. 35 and 37 . Bangyikhan 10700", "name": "PATA PINKLAO", "phone": "02-883-0076, 02-435-4081", "opening_hours": "24/7", "brand": "McDonald's"}, "geometry": {"type": "Point", "coordinates": [100.48395, 13.771378]}},
{"type": "Feature", "id": "gBudxS8fw5BVAcqXkwzjkGPadp4=", "properties": {"ref": "IC48094", "@spider": "mcdonalds_th", "addr:full": "No. 55 Building , Room 1090 B, 1st floor Seacon Square Srinakarin Rd Prawet, Bangkok 10260 .", "name": "SEACON SQUARE 1", "phone": "02-721-8677, 02-721-8678", "opening_hours": "Mo-Su:10:30-21:30", "brand": "McDonald's"}, "geometry": {"type": "Point", "coordinates": [100.648005, 13.694485]}},
{"type": "Feature", "id": "eaPsw_3npxwNIp5fzLVrklhCpQM=", "properties": {"ref": "IC48095", "@spider": "mcdonalds_th", "addr:full": "Home Phaholyothin Place Building at 412 Phaholyothin Road , Phayathai, Bangkok 10400 .", "name": "PHAHOLYOTHIN PLACE", "phone": "02-619-1027, 02-619-10278", "opening_hours": "24/7", "brand": "McDonald's"}, "geometry": {"type": "Point", "coordinates": [100.546091, 13.783157]}},
{"type": "Feature", "id": "kRUwntEThB9eNfweRvtWQNegLVE=", "properties": {"ref": "IC48096", "@spider": "mcdonalds_th", "addr:full": "No. 181/5 buildings, fuel stations , PTT Field Regiment 1 Vibhavadi Rangsit Road , Phayathai , Bangkok 10400 .", "name": "PTT VIPHAVADI RANGSIT RAB 1", "phone": "02-271-1438, 02-271-14389", "opening_hours": "24/7", "brand": "McDonald's"}, "geometry": {"type": "Point", "coordinates": [100.556078, 13.779498]}},
{"type": "Feature", "id": "exGi7RT23fA2EunDSh6V77XXP-U=", "properties": {"ref": "IC48097", "@spider": "mcdonalds_th", "addr:full": "No. 161 Moo 2 Soi Phaholyothin (Vibhavadi - Rangsit Campus ) , Pathumthani 12110 Tanyaburi .", "name": "FUTURE PARK RANGSIT", "phone": "02-958-0209, 02-958-0210", "opening_hours": "Mo-Su:10:30-21:30", "brand": "McDonald's"}, "geometry": {"type": "Point", "coordinates": [100.616611, 13.989436]}},
{"type": "Feature", "id": "puRhTuiKQTocd-i7-0lxQP_Szlg=", "properties": {"ref": "IC48098", "@spider": "mcdonalds_th", "addr:full": "No. 145/26 The Pavilions Shopping Centre, Chiang Mai Chang Klan Road , Tambon Chang Klan, Muang, Chiang Mai 50100 .", "name": "CHIANGMAI NIGHT BAZAAR", "phone": "053-818-511, 053-818-512", "opening_hours": "24/7", "brand": "McDonald's"}, "geometry": {"type": "Point", "coordinates": [99.000473, 18.783661]}},
{"type": "Feature", "id": "j6QMn_FqaZIjFZxgAQOWSSeHrxQ=", "properties": {"ref": "IC48099", "@spider": "mcdonalds_th", "addr:full": "No. 179 department stores Seng School Class 1-2 Sirindhorn Road Bangbhumru 10700 .", "name": "TANG HUA SENG", "phone": "02-881-9547, 02-881-9548", "opening_hours": "Mo-Su:08:00-22:00", "brand": "McDonald's"}, "geometry": {"type": "Point", "coordinates": [100.482888, 13.788175]}},
{"type": "Feature", "id": "hUGloPAWFWCY25QL2T3ILxoZztw=", "properties": {"ref": "IC48100", "@spider": "mcdonalds_th", "addr:full": "No. 1, Room No. 1001 C Lertpanya Rajvithee Road, Phayathai , Bangkok 10400 .", "name": "CENTER ONE", "phone": "02-644-7054, 02-644-705", "opening_hours": "24/7", "brand": "McDonald's"}, "geometry": {"type": "Point", "coordinates": [100.539441, 13.764251]}},
{"type": "Feature", "id": "IG8_MyUKZaT9GVjG-43t37FCCnA=", "properties": {"ref": "IC48101", "@spider": "mcdonalds_th", "addr:full": "No. 120/126 , Room No. 500 , 1st Floor, Indra Square Road, Phayathai Road, Ratchathewi , Bangkok .", "name": "INDRA SQUARE", "phone": "02-686-0500", "opening_hours": "Mo-Su:08:00-22:30", "brand": "McDonald's"}, "geometry": {"type": "Point", "coordinates": [100.54161, 13.753287]}},
{"type": "Feature", "id": "3jhOglgGZYMV1EaKkoDQKhG1Ink=", "properties": {"ref": "IC48102", "@spider": "mcdonalds_th", "addr:full": "VI , No. 315 Hospital 6th Cycle Birthday Anniversary Memorial Building , G Floor , Phayathai Road, Ratchathewi , Bangkok 10400 .", "name": "PRAMONGKUTKLAO HOSPITAL", "phone": "02-354-5031", "opening_hours": "Mo-Su:07:00-21:00", "brand": "McDonald's"}, "geometry": {"type": "Point", "coordinates": [100.534354, 13.767512]}},
{"type": "Feature", "id": "P2S7v3hlX9cj-UsiGcqdCEbzhnw=", "properties": {"ref": "IC48103", "@spider": "mcdonalds_th", "addr:full": "No. 2539 Mall of Imperial World Ladprao Room No. AF Ladprao Rd 81-83 -01 F. Wang Thong Lang Road , Bangkapi, Bangkok 10310 .", "name": "IMPERIAL LADPRAO", "phone": "02-934-9324", "opening_hours": "Mo-Su:09:00-22:00", "brand": "McDonald's"}, "geometry": {"type": "Point", "coordinates": [100.612638, 13.784615]}},
{"type": "Feature", "id": "pUv8XVrWgxEs3nMiweXOIJboYHo=", "properties": {"ref": "IC48104", "@spider": "mcdonalds_th", "addr:full": "No. 106 , Major Cineplex Cinema , G Floor , Room G01 Boromrachachonnanee Bangbhumru 10700 .", "name": "MAJOR CINEPLEX PINKLAO", "phone": "02-881-7961, 02-881-7962", "opening_hours": "24/7", "brand": "McDonald's"}, "geometry": {"type": "Point", "coordinates": [100.477892, 13.778646]}},
{"type": "Feature", "id": "DJjdlQ_Zps6Z9_f09VFDdHRlIhM=", "properties": {"ref": "IC48105", "@spider": "mcdonalds_th", "addr:full": "No. 2 Ploenchit Center Mall, Floor 1 Unit 1-01 Sukhumvit Road , Klong Toey, Bangkok 10110 .", "name": "PLOENCHIT CENTER", "phone": "02-656-8462, 02-656-8463", "opening_hours": "24/7", "brand": "McDonald's"}, "geometry": {"type": "Point", "coordinates": [100.55152, 13.742256]}},
{"type": "Feature", "id": "m_JbzIa8GLxrGFCeslqALMu9wXs=", "properties": {"ref": "IC48106", "@spider": "mcdonalds_th", "addr:full": "No. 100/ 1 Sukhumvit Soi 4 ( Nana Tai ), Sukhumvit Road , Klong Toey, Bangkok 10110 .", "name": "PTT NANA-TAI", "phone": "02-253-2737, 02-253-2738", "opening_hours": "Mo-Su:10:00-18:00", "brand": "McDonald's"}, "geometry": {"type": "Point", "coordinates": [100.564969, 13.73396]}},
{"type": "Feature", "id": "6GTX9NhG24TkX8VrohsbTix_yxQ=", "properties": {"ref": "IC48107", "@spider": "mcdonalds_th", "addr:full": "No. 18 SCB Building, Park Plaza West, G Floor and Basement 1 Ratchadapisek Road , Chatuchak, Bangkok 10900 .", "name": "SCB PARK", "phone": "02-937-5566, 02-937-5519", "opening_hours": "Mo-Su:07:00-21:30", "brand": "McDonald's"}, "geometry": {"type": "Point", "coordinates": [100.564685, 13.828058]}},
{"type": "Feature", "id": "_d2thfuqr7RbzjwO0v2waBi7Mr0=", "properties": {"ref": "IC48108", "@spider": "mcdonalds_th", "addr:full": "No. 11 and 13, Ong Sim Foreign Talad Yai, Muang Phuket 83000.", "name": "PHUKET", "phone": "076-256-338", "opening_hours": "24/7", "brand": "McDonald's"}, "geometry": {"type": "Point", "coordinates": [98.394413, 7.877373]}},
{"type": "Feature", "id": "Ikzzdy5z2LKnYON6S25h37VmDH0=", "properties": {"ref": "IC48109", "@spider": "mcdonalds_th", "addr:full": "No. 100/ 71 Sathorn Nakorn Tower, 1st Floor, North Sathorn Road, Bangkok 10500 .", "name": "SATHONNAKORN", "phone": "02-636-7492, 02-636-7493", "opening_hours": "24/7", "brand": "McDonald's"}, "geometry": {"type": "Point", "coordinates": [100.529984, 13.723267]}},
{"type": "Feature", "id": "PY3ZLK9X3Uq8TYucZmR0MFpOMJ0=", "properties": {"ref": "IC48110", "@spider": "mcdonalds_th", "addr:full": "No. 33/3 , mezzanine, building a new hospital , Sukhumvit Soi 3 ( Nana Nua ) Klongtoey Nua, Wattana , Bangkok 10110 .", "name": "BUMRUNGRAD", "phone": "02-667-1321 , 02-655-6185", "opening_hours": "Mo-Su:06:30-13:00", "brand": "McDonald's"}, "geometry": {"type": "Point", "coordinates": [100.552433, 13.746889]}},
{"type": "Feature", "id": "paz1XvjG7coz0K4uAch0T6vPDJY=", "properties": {"ref": "IC48111", "@spider": "mcdonalds_th", "addr:full": "No. 554 Sukhumvit Nernphra Mueang Rayong , Rayong 21000 .", "name": "PASSIONE SHOPPING DESTINATION RAYONG", "phone": "038-808-864 , 038-808-865", "opening_hours": "Mo-Su:09:30-22:00", "brand": "McDonald's"}, "geometry": {"type": "Point", "coordinates": [101.249056, 12.683379]}},
{"type": "Feature", "id": "RYxlXaL5bbXOKmZcizzyncwTPXI=", "properties": {"ref": "IC48112", "@spider": "mcdonalds_th", "addr:full": "No. 412/4 Samsen Road , Dusit, Bangkok 10300 .", "name": "ST.GABRIEL", "phone": "02-668-7694, 02-668-7698", "opening_hours": "Mo-Su:06:00-22:00", "brand": "McDonald's"}, "geometry": {"type": "Point", "coordinates": [100.506771, 13.776057]}},
{"type": "Feature", "id": "DR6vfWuLvpR6bOZbCZgqDbHUdPg=", "properties": {"ref": "IC48113", "@spider": "mcdonalds_th", "addr:full": "No. 96 Taweewong Road, Patong , Kathu, Phuket 83120 .", "name": "PATONG BEACH, PHUKET", "phone": "076-341-049", "opening_hours": "24/7", "brand": "McDonald's"}, "geometry": {"type": "Point", "coordinates": [98.293991, 7.891619]}},
{"type": "Feature", "id": "xSKlt2xMFa5JIg55vlxcLeNYwxQ=", "properties": {"ref": "IC48114", "@spider": "mcdonalds_th", "addr:full": "No. 79/109-110 Central Plaza Ratchada - Rama 3, 2nd Floor , Room 224, 225 Satupradid . Chongnonsi 10120 .", "name": "CENTRAL RAMA 3", "phone": "02-673-6408 , 02-673-6409", "opening_hours": "Mo-Su:11:00-21:30", "brand": "McDonald's"}, "geometry": {"type": "Point", "coordinates": [100.537874, 13.698299]}},
{"type": "Feature", "id": "NEYJw4BTaalw5enZBuIT9pKmL8A=", "properties": {"ref": "IC48115", "@spider": "mcdonalds_th", "addr:full": "No. 3079/25 projects Piyarom Park Building , Sukhumvit Rd , Bangkok 10260 .", "name": "PIYAROM PARK", "phone": "02-730-5067, 02-730-5068", "opening_hours": "24/7", "brand": "McDonald's"}, "geometry": {"type": "Point", "coordinates": [100.610626, 13.686265]}},
{"type": "Feature", "id": "lWPxwIxsx0DLE7EJeswJRGiSxHw=", "properties": {"ref": "IC48116", "@spider": "mcdonalds_th", "addr:full": "No. 1221 /39 Majorcineplex duplex (Sukhumvit 61 ) , Sukhumvit Road, Klongtoey Nua , Bangkok 10110 watts .", "name": "MAJOR CINEPLEX SUKHUMVIT 61 (EKAMAI)", "phone": "02-714-2862 , 02-714-2863", "opening_hours": "24/7", "brand": "McDonald's"}, "geometry": {"type": "Point", "coordinates": [100.583605, 13.721404]}},
{"type": "Feature", "id": "l-aeiL34Hsexo5cugBFUpCsDdxE=", "properties": {"ref": "IC48117", "@spider": "mcdonalds_th", "addr:full": "No. 99/ 3 Moo 8 Phaholyothin Zeer Rangsit shopping center Kukot LAMLUKKA 12150 .", "name": "ZEER RANGSIT (DRIVE-THRU)", "phone": "02-998-9192 , 02-531-5277", "opening_hours": "24/7", "brand": "McDonald's"}, "geometry": {"type": "Point", "coordinates": [100.62102, 13.961165]}},
{"type": "Feature", "id": "8eVPYql5XPugkYHccLGI7vMzmik=", "properties": {"ref": "IC48118", "@spider": "mcdonalds_th", "addr:full": "No. 77/1 Ratchadamnoen Klang Road , Bangkok 10200 Bowonniwet .", "name": "RATCHADAMNOEN", "phone": "02-629-4044 , 02-629-4045", "opening_hours": "24/7", "brand": "McDonald's"}, "geometry": {"type": "Point", "coordinates": [100.501638, 13.757199]}},
{"type": "Feature", "id": "juD23yOh_DnViPvt5f1yQMueLWY=", "properties": {"ref": "IC48119", "@spider": "mcdonalds_th", "addr:full": "No. 6 /11 Moo 14 Bangna - Trad , Bang Kaew Bang Phli , Samut Prakan 10540.", "name": "ESSO BANGNA KM.6.5 (DRIVE-THRU)", "phone": "02-751-6616, 02-751-6617", "opening_hours": "24/7", "brand": "McDonald's"}, "geometry": {"type": "Point", "coordinates": [100.666247, 13.659353]}},
{"type": "Feature", "id": "UkC01aBXqx4-d3c-OBHmSUXBR3Y=", "properties": {"ref": "IC48120", "@spider": "mcdonalds_th", "addr:full": "No. 1697, Central Plaza Ladprao , Unit No. G 40-46 , G Floor , Phaholyothin Road, Chatuchak , Bangkok 10900 .", "name": "CENTRAL LADPRAO", "phone": "02-937-0618, 02-937-0619", "opening_hours": "Mo-Su:09:00-23:00", "brand": "McDonald's"}, "geometry": {"type": "Point", "coordinates": [100.560543, 13.815706]}},
{"type": "Feature", "id": "AECboGfOEW85kHkxo4dr7UaFk9U=", "properties": {"ref": "IC48121", "@spider": "mcdonalds_th", "addr:full": "No. 1839 Major Cineplex (Chatuchak ) 1st Floor , Phaholyothin Road , Chatuchak, Bangkok 10900 .", "name": "MAJOR CINEPLEX RATCHAYOTHIN", "phone": "02-511-5521, 02-511-5423", "opening_hours": "24/7", "brand": "McDonald's"}, "geometry": {"type": "Point", "coordinates": [100.568451, 13.828735]}},
{"type": "Feature", "id": "Yslo7Vi43QkAzggUByrESz_fk-g=", "properties": {"ref": "IC48122", "@spider": "mcdonalds_th", "addr:full": "No. 90 Sukhumvit Road, Pacific Park Sriracha, Chonburi 20110 .", "name": "PACIFIC PARK SRIRACHA", "phone": "038-771-143, 038-771-153", "opening_hours": "Mo-Su:11:00-21:00", "brand": "McDonald's"}, "geometry": {"type": "Point", "coordinates": [100.930645, 13.167498]}},
{"type": "Feature", "id": "MiaY0b-ItTwsFLtugJKMxkHYUls=", "properties": {"ref": "IC48123", "@spider": "mcdonalds_th", "addr:full": "No. 99 , 1st Floor, The Mall Rd , Thonburi Thonburi , Bangkok 10600 .", "name": "THE  MALL THAPHRA 1", "phone": "02-477-9306 , 02-876-4613", "opening_hours": "Mo-Su:09:00-22:00", "brand": "McDonald's"}, "geometry": {"type": "Point", "coordinates": [100.47997, 13.713579]}},
{"type": "Feature", "id": "PgGyWVVgT7zaQZrDpYUUoNe8VNo=", "properties": {"ref": "IC48124", "@spider": "mcdonalds_th", "addr:full": "No. 99 , B Floor, The Mall Rd , Thonburi Thonburi , Bangkok 10600 .", "name": "THE  MALL THAPHRA 2", "phone": "02-477-7084", "opening_hours": "Mo-Su:11:00-21:00", "brand": "McDonald's"}, "geometry": {"type": "Point", "coordinates": [100.478894, 13.713246]}},
{"type": "Feature", "id": "ESmhsyslfu3RZIblErKOyusCkNI=", "properties": {"ref": "IC48125", "@spider": "mcdonalds_th", "addr:full": "No. 9 among the six distribution centers Lotus. supercenter Srinakarin Srinakarin Bangmuangmai Muang Samut Prakan MON 10270", "name": "TESCO SRINAKARIN", "phone": "02-759-8415 , 02-759-8416", "opening_hours": "Mo-Su:09:00-23:00", "brand": "McDonald's"}, "geometry": {"type": "Point", "coordinates": [100.62084, 13.621109]}},
{"type": "Feature", "id": "TePY8cAR5pgA45Kr348xVpB2Yi8=", "properties": {"ref": "IC48126", "@spider": "mcdonalds_th", "addr:full": "No. 5, 1st Floor, Fortune Tower , Ratchadapisek Road, Din Daeng , Bangkok 10400 .", "name": "IT MALL FORTUNE TOWN", "phone": "02-641-0805, 02-641-0806", "opening_hours": "Mo-Su:07:00-22:00", "brand": "McDonald's"}, "geometry": {"type": "Point", "coordinates": [100.565669, 13.759886]}},
{"type": "Feature", "id": "QeQXCJlBnfxDMHWrenQJiCMCJGw=", "properties": {"ref": "IC48127", "@spider": "mcdonalds_th", "addr:full": "No. 45/63 motorway Bangkok - Chonburi (new line) , Moo 7 , Tambon Khao Din Bang Pakong, Chachoengsao 24130 .", "name": "PTT MOTORWAY OUTBOUND", "phone": "038-577-905", "opening_hours": "24/7", "brand": "McDonald's"}, "geometry": {"type": "Point", "coordinates": [101.009594, 13.539328]}},
{"type": "Feature", "id": "KW3Ndo_U7QriqGdZfF8fmaXMjng=", "properties": {"ref": "IC48128", "@spider": "mcdonalds_th", "addr:full": "No. 29 Lee Garden Hotel Democrat Rd , Hat Yai , Songkhla 90110 .", "name": "LEE GARDENS PLAZA HADYAI", "phone": "074-352-374", "opening_hours": "Mo-Su:07:00-23:00", "brand": "McDonald's"}, "geometry": {"type": "Point", "coordinates": [100.47151, 7.005556]}},
{"type": "Feature", "id": "F3rX_c0wYpNFK-UAvf0EhQXqA18=", "properties": {"ref": "IC48129", "@spider": "mcdonalds_th", "addr:full": "3300 Lotus Super Center Building, Rama 4, Rama 4 Road, Klong Toey, Bangkok 10110 .", "name": "TESCO RAMA 4", "phone": "02-672-8576, 02-672-8577", "opening_hours": "Mo-Su:08:00-22:00", "brand": "McDonald's"}, "geometry": {"type": "Point", "coordinates": [100.568789, 13.718114]}},
{"type": "Feature", "id": "XfYSZxH62XjCHEMbD00QbfA4F_o=", "properties": {"ref": "IC48130", "@spider": "mcdonalds_th", "addr:full": "No. 300 Moo 1 Lotus Super Center Chaengwattana Rd , Laksi , Bangkok 10210 .", "name": "TESCO CHANGWATTANA", "phone": "02-990-7548, 02-990-7550", "opening_hours": "Mo-Su:09:00-23:00", "brand": "McDonald's"}, "geometry": {"type": "Point", "coordinates": [100.556021, 13.895327]}},
{"type": "Feature", "id": "sOLU0eXwc4yhOm6jAN10nBwAk0E=", "properties": {"ref": "IC48131", "@spider": "mcdonalds_th", "addr:full": "No. 1710 Lotus Super Center Sukhumvit 50 , Sukhumvit Rd Klongtoey, Bangkok 10250.", "name": "TESCO SUKHUMVIT 50", "phone": "02-741-4413, 02-741-4414", "opening_hours": "24/7", "brand": "McDonald's"}, "geometry": {"type": "Point", "coordinates": [100.600606, 13.704859]}},
{"type": "Feature", "id": "mx3f7w6IQcwVpw-L4Ys1f_i6iwA=", "properties": {"ref": "IC48132", "@spider": "mcdonalds_th", "addr:full": "No. 559 Moo 3, Lotus Supercenter Branch Building , Phaholyothin Rd , Laksi, Bang Khen , Bangkok 10220 .", "name": "TESCO LAKSI", "phone": "02-955-7474, 02-955-7475", "opening_hours": "Mo-Su:09:00-22:30", "brand": "McDonald's"}, "geometry": {"type": "Point", "coordinates": [100.599999, 13.879213]}},
{"type": "Feature", "id": "h-rCAlFVjvvkCOkTQAyBRMM-QWk=", "properties": {"ref": "IC48133", "@spider": "mcdonalds_th", "addr:full": "No. 2929 Big C Supercenter, Rama 4, Rama 4 Road, Klong Toey, Bangkok 10110 .", "name": "BIG C EXTRA RAMA 4", "phone": "02-661-5863, 02-661-5864", "opening_hours": "Mo-Su:09:00-23:00", "brand": "McDonald's"}, "geometry": {"type": "Point", "coordinates": [100.568306, 13.718999]}},
{"type": "Feature", "id": "qIUciQOIJPUINZHdfrD6Od27zrg=", "properties": {"ref": "IC48134", "@spider": "mcdonalds_th", "addr:full": "No. 85/106-112 Moo 1 , Tambon Khao Din Bang Pakong, Chachoengsao 24130 .", "name": "PTT MOTORWAY INBOUND", "phone": "038-578-236", "opening_hours": "24/7", "brand": "McDonald's"}, "geometry": {"type": "Point", "coordinates": [101.008266, 13.539465]}},
{"type": "Feature", "id": "769Yci6lYZQFjvmqaTg1zI-cwOI=", "properties": {"ref": "IC48135", "@spider": "mcdonalds_th", "addr:full": "No. 1242/2 , 1st Floor, The Mall Nakhon Nai Muang , Nakhon Ratchasima 30000 .", "name": "THE MALL KORAT", "phone": "044-288-100, 044-288-101", "opening_hours": "Mo-Su:10:30-21:30", "brand": "McDonald's"}, "geometry": {"type": "Point", "coordinates": [102.075884, 14.98071]}},
{"type": "Feature", "id": "M2k7x5yjPRbA1voXD6Bmac7VvbI=", "properties": {"ref": "IC48137", "@spider": "mcdonalds_th", "addr:full": "No. 2825/20 Esso gas stations , Rama 4, Rama 4 Road, Klong Toey, Bangkok 10110 .", "name": "ESSO RAMA 4 (DRIVE-THRU)", "phone": "02-663-0358, 02-663-0359", "opening_hours": "24/7", "brand": "McDonald's"}, "geometry": {"type": "Point", "coordinates": [100.565712, 13.720065]}},
{"type": "Feature", "id": "a6fdSAb9eP4FwYy_G8o0ZpG2G5Q=", "properties": {"ref": "IC48138", "@spider": "mcdonalds_th", "addr:full": "No. 202 /1 Moo 2 (Long Beach Shopping Center ) , Bophut, Koh Samui , Surat Thani 84320 .", "name": "CHAWENG BEACH, KOH SAMUI", "phone": "077-230-346", "opening_hours": "24/7", "brand": "McDonald's"}, "geometry": {"type": "Point", "coordinates": [100.055832, 9.513005]}},
{"type": "Feature", "id": "e7o49qJ2mkbKQoqvuZHGbmI1H0g=", "properties": {"ref": "IC48139", "@spider": "mcdonalds_th", "addr:full": "No. 643/7 shopping , Carrefour . Sukhapibal3 , Ramkhamhaeng, Hua Mak , Bangkapi, Bangkok 10240.", "name": "BIG C EXTRA SUKHAPHIBAN 3", "phone": "02-735-0510, 02-370-1142", "opening_hours": "Mo-Su:09:00-22:00", "brand": "McDonald's"}, "geometry": {"type": "Point", "coordinates": [100.659093, 13.768652]}},
{"type": "Feature", "id": "Scf1kwGE53KuoMqJHsjxL9b_9dI=", "properties": {"ref": "IC48140", "@spider": "mcdonalds_th", "addr:full": "No. 69/ 9, Central Road , Muang, Khon Kaen 40000 .", "name": "FAIRY PLAZA KHONKAEN", "phone": "043-227-026", "opening_hours": "Mo-Su:10:00-21:30", "brand": "McDonald's"}, "geometry": {"type": "Point", "coordinates": [102.834585, 16.422908]}},
{"type": "Feature", "id": "yaOVtP2pMmEN2JmkD0pwbJAS6Zs=", "properties": {"ref": "IC48141", "@spider": "mcdonalds_th", "addr:full": "No. 425 Moo 5 Carrefour shopping center . Srinakarin T.Samrongnuea Road , Muang, Bangkok 10270 .", "name": "BIG C EXTRA SRINAKARIN", "phone": "02-710-5033, 02-710-5034", "opening_hours": "Mo-Su:09:00-23:00", "brand": "McDonald's"}, "geometry": {"type": "Point", "coordinates": [100.640884, 13.649094]}},
{"type": "Feature", "id": "yK-gfqTSCLz8K9-FEfgp7O9fmQo=", "properties": {"ref": "IC48142", "@spider": "mcdonalds_th", "addr:full": "No. 387/7 Moo 6 ( Mini Siam Pattaya ), Sukhumvit Road, Naklua, Banglamung, Chonburi 20150 .", "name": "MINI SIAM (DRIVE-THRU)", "phone": "038-727-558", "opening_hours": "24/7", "brand": "McDonald's"}, "geometry": {"type": "Point", "coordinates": [100.907953, 12.955206]}},
{"type": "Feature", "id": "R8TW8CfWmerEqjJUK-d-Qcgsl9I=", "properties": {"ref": "IC48143", "@spider": "mcdonalds_th", "addr:full": "No. 172 Tesco Lotus Rama 3, Sukhumvit Rd . Chongnonsi 10120 .", "name": "TESCO RAMA 3", "phone": "02-681-0971", "opening_hours": "Mo-Su:08:00-23:00", "brand": "McDonald's"}, "geometry": {"type": "Point", "coordinates": [100.541242, 13.69636]}},
{"type": "Feature", "id": "7xyOxJaHdZDhCdy1KlKf0URTEq4=", "properties": {"ref": "IC48144", "@spider": "mcdonalds_th", "addr:full": "No. 236/7-8 Moo 10 Beach Rd , Nong Prue , Banglamung, Chonburi 20260 .", "name": "LIDO PATTAYA", "phone": "038-710-739 , 038-711-273", "opening_hours": "24/7", "brand": "McDonald's"}, "geometry": {"type": "Point", "coordinates": [100.875596, 12.9274]}},
{"type": "Feature", "id": "78dwHK3SQOazZFUfhqbP8GFQSIs=", "properties": {"ref": "IC48145", "@spider": "mcdonalds_th", "addr:full": "No. 829 Tesco Lotus. Sue branch Prachawad 2 , Bang Sue, Bangkok 10800 .", "name": "TESCO PRACHACHUEN", "phone": "02-910-6046", "opening_hours": "Mo-Su:09:00-23:00", "brand": "McDonald's"}, "geometry": {"type": "Point", "coordinates": [100.534388, 13.805895]}},
{"type": "Feature", "id": "mOAJF805eBf3niD23gwYDry6dMM=", "properties": {"ref": "IC48146", "@spider": "mcdonalds_th", "addr:full": "69/ 1 Moo 3 gas stations jet 62, T. Ayutthaya , Bang Pa- in, Ayutthaya 13160 Wa .", "name": "PTT AYUDHAYA (DRIVE-THRU)", "phone": "035-236-589", "opening_hours": "24/7", "brand": "McDonald's"}, "geometry": {"type": "Point", "coordinates": [100.612238, 14.266119]}},
{"type": "Feature", "id": "TZ5L57NPILEmx4sihZD3giKvhEo=", "properties": {"ref": "IC48147", "@spider": "mcdonalds_th", "addr:full": "No. 112 Moo 5 Carrefour shopping center . Marketing Office Chaengwattana Road, Pak Kret Pak Kret, Nonthaburi 11120 .", "name": "BIG C EXTRA CHANGWATTANA", "phone": "02-582-3406", "opening_hours": "Mo-Su:09:00-22:00", "brand": "McDonald's"}, "geometry": {"type": "Point", "coordinates": [100.514667, 13.906115]}},
{"type": "Feature", "id": "vChSAuan4lGOBzQYNtZYQ421vwk=", "properties": {"ref": "IC48148", "@spider": "mcdonalds_th", "addr:full": "No. 99 Impact Exhibition Center Popular Road , T. Ban , Pak Kret, Nonthaburi 11120 .", "name": "IMPACT MUANGTHONG THANI", "phone": "02-980-7707 , 02-504-5165", "opening_hours": "Mo-Su:10:00-22:00", "brand": "McDonald's"}, "geometry": {"type": "Point", "coordinates": [100.548077, 13.912782]}},
{"type": "Feature", "id": "uFUBnc6bsj9o38RucwcG20WC3fs=", "properties": {"ref": "IC48149", "@spider": "mcdonalds_th", "addr:full": "No. 99 of The IMPACT Challenger area shop 2 (B), Food Atrium POPULAR Rd Hunt T. New Pak Kret, Nonthaburi .", "name": "CHALLENGER", "phone": "02-503-3981, 02-980-5537", "opening_hours": "Mo-Su:10:00-18:00", "brand": "McDonald's"}, "geometry": {"type": "Point", "coordinates": [100.549031, 13.91325]}},
{"type": "Feature", "id": "ZICfELmqOteqtsEZHSCrfWnGcPY=", "properties": {"ref": "IC48150", "@spider": "mcdonalds_th", "addr:full": "128/ 49 Moo 3 , T. Maret, Koh Samui , Surat Thani 84310 .", "name": "LAMAI BEACH , KOH SAMUI", "phone": "077-232-363", "opening_hours": "24/7", "brand": "McDonald's"}, "geometry": {"type": "Point", "coordinates": [100.045149, 9.462701]}},
{"type": "Feature", "id": "SBhIqnbAW-_5bGMKxgWqV-8Jhy4=", "properties": {"ref": "IC48151", "@spider": "mcdonalds_th", "addr:full": "No. 104 Moo 5 Rama 9 Radsada A. Muang , Phuket 83000.", "name": "TESCO PHUKET", "phone": "076-255-101", "opening_hours": "Mo-Su:08:00-22:00", "brand": "McDonald's"}, "geometry": {"type": "Point", "coordinates": [98.302231, 7.993957]}},
{"type": "Feature", "id": "JYWr5LHxUFcWJ5lOYmBTT20xoQM=", "properties": {"ref": "IC48152", "@spider": "mcdonalds_th", "addr:full": "No. 3109 Lotus Super Center Bangkapi , Ladprao Road, Bangkapi , Bangkok 10240.", "name": "TESCO BANGKAPI", "phone": "02-704-7063", "opening_hours": "Mo-Su:09:00-23:00", "brand": "McDonald's"}, "geometry": {"type": "Point", "coordinates": [100.644368, 13.767012]}},
{"type": "Feature", "id": "3nB1ji0t-6M6kl2ywsEUJhZGbyA=", "properties": {"ref": "IC48153", "@spider": "mcdonalds_th", "addr:full": "9/ 9 Moo 5 Big C shopping mall . Supercenter Taladkwan MuangNonthaburi . Nonthaburi 11000 .", "name": "BIG C TIWANON", "phone": "02-968-6281, 02-968-6282", "opening_hours": "Mo-Su:09:00-23:00", "brand": "McDonald's"}, "geometry": {"type": "Point", "coordinates": [100.510876, 13.845039]}},
{"type": "Feature", "id": "dcVV9Q3zxZBlVeUZRbUERuXig50=", "properties": {"ref": "IC48154", "@spider": "mcdonalds_th", "addr:full": "No. 160 , Central Plaza Rama 2, Rama 2 Rd , Bangkok 10150.", "name": "CENTRAL RAMA 2", "phone": "02-872-4389", "opening_hours": "Mo-Su:11:00-21:30", "brand": "McDonald's"}, "geometry": {"type": "Point", "coordinates": [100.437559, 13.66272]}},
{"type": "Feature", "id": "jjzMe1-A2TGzEUEuF-61P0Sokig=", "properties": {"ref": "IC48155", "@spider": "mcdonalds_th", "addr:full": "328 Moo 2 Baan Sai Thailand , Ao Nang, Muang , Krabi 81000 .", "name": "KRABI", "phone": "075-638-015, 075-638-016", "opening_hours": "24/7", "brand": "McDonald's"}, "geometry": {"type": "Point", "coordinates": [98.825581, 8.032913]}},
{"type": "Feature", "id": "TF_601l41joQFqg7IMH_JTqPl8A=", "properties": {"ref": "IC48156", "@spider": "mcdonalds_th", "addr:full": "991 Siam Paragon Building , Room G- 01 , Ground Floor , Rama 1 Road, Pathumwan, Bangkok.", "name": "SIAM PARAGON 1", "phone": "02-610-9305, 02-610-9306", "opening_hours": "Mo-Su:09:00-23:00", "brand": "McDonald's"}, "geometry": {"type": "Point", "coordinates": [100.535275, 13.745844]}},
{"type": "Feature", "id": "dAHDXTuUNkcVbTTE5Wkq2RgoUoU=", "properties": {"ref": "IC48157", "@spider": "mcdonalds_th", "addr:full": "No. 991 building, Ground floor , Siam Paragon , Room G-08 B Rama 1 Road, Pathumwan, Bangkok.", "name": "SIAM PARAGON 2", "phone": "02-610-9280, 02-610-9281", "opening_hours": "Mo-Su:09:00-23:00", "brand": "McDonald's"}, "geometry": {"type": "Point", "coordinates": [100.535034, 13.745947]}},
{"type": "Feature", "id": "f_nc9iU7jos1u94-Zg5qNtYnLvY=", "properties": {"ref": "IC48158", "@spider": "mcdonalds_th", "addr:full": "99 SM Mall Esplanade Ratchada G Fl 08 , M 08 , Ratchadapisek Road , Din Daeng, Bangkok.", "name": "ESPLANADE RATCHADA", "phone": "02-660-9155, 02-660-9156", "opening_hours": "24/7", "brand": "McDonald's"}, "geometry": {"type": "Point", "coordinates": [100.569767, 13.766592]}},
{"type": "Feature", "id": "nYjwO8NpjvGuNytceaRhw4tyge0=", "properties": {"ref": "IC48159", "@spider": "mcdonalds_th", "addr:full": "No. 6/4 Petchkasem Road , Hua Hin , Prachuap Khiri Khan 77110 .", "name": "BAYANA MALL HUA-HIN", "phone": "032-521-242, 032-521-243", "opening_hours": "24/7", "brand": "McDonald's"}, "geometry": {"type": "Point", "coordinates": [99.964814, 12.547348]}},
{"type": "Feature", "id": "CztrqXpAG8Qrm8IlInBBZp_6Zw4=", "properties": {"ref": "IC48160", "@spider": "mcdonalds_th", "addr:full": "399 /9 The Mall, The Avenue Pattaya , Room C 107 - C 108 Class 1 , Tambon Nong Prue , Banglamung, Chonburi 20260 .", "name": "THE AVENUE PATTAYA", "phone": "038-723-923, 038-723-924", "opening_hours": "24/7", "brand": "McDonald's"}, "geometry": {"type": "Point", "coordinates": [100.880826, 12.930033]}},
{"type": "Feature", "id": "5NtW5HiA7vwIjv976MQKSBSn-hM=", "properties": {"ref": "IC48162", "@spider": "mcdonalds_th", "addr:full": "234/2 , Room B- 101 , 1st Floor , Ratchadapisek Road , Chatuchak, Bangkok .", "name": "THE AVENUE RATCHAYOTHIN (DRIVE-THRU)", "phone": "02-930-1684, 02-930-1683", "opening_hours": "24/7", "brand": "McDonald's"}, "geometry": {"type": "Point", "coordinates": [100.566447, 13.828211]}},
{"type": "Feature", "id": "yqaD0eYCe1p7BuhonrNa0sNwoOs=", "properties": {"ref": "IC48163", "@spider": "mcdonalds_th", "addr:full": "108 Soi Sukhumvit 64 , Bangkok 10260 Rd 10 intersection .", "name": "PTT BANGNA INBOUND (DRIVE-THRU)", "phone": "02-311-1691, 02-311-1692", "opening_hours": "Mo-Su:06:00-23:00", "brand": "McDonald's"}, "geometry": {"type": "Point", "coordinates": [100.603199, 13.685584]}},
{"type": "Feature", "id": "X5ioT7WB5Y-nDZoxkGeQBSbN4LI=", "properties": {"ref": "IC48164", "@spider": "mcdonalds_th", "addr:full": "No. 5/1 , Bangla Road , Patong , Kathu, Phuket 83150.", "name": "TWILIGHT OF BANGLA, PHUKET", "phone": "076-341-524,  076-341-814", "opening_hours": "24/7", "brand": "McDonald's"}, "geometry": {"type": "Point", "coordinates": [98.296738, 7.89569]}},
{"type": "Feature", "id": "bcXL26J4VrrEQ-se_8s0o349Gfg=", "properties": {"ref": "IC48165", "@spider": "mcdonalds_th", "addr:full": "No. 39, 39/1 Patak Road , Patong , Kathu, Phuket 83120 .", "name": "LA FLORA, PATONG PHUKET", "phone": "076-345-893, 076-345-883", "opening_hours": "24/7", "brand": "McDonald's"}, "geometry": {"type": "Point", "coordinates": [98.295858, 7.896465]}},
{"type": "Feature", "id": "BM5-5D7flhuwpyhJDNhT0s1aImM=", "properties": {"ref": "IC48166", "@spider": "mcdonalds_th", "addr:full": "No. 318 /9 The Mall, The Paseo , Room E-101 , 1st Floor, E Lat Krabang, Bangkok Soi Lat Krabang, Bangkok Khlong Lat Krabang, Bangkok Road Bangkok 10520 .", "name": "PASEO LADKRABANG (DRIVE-THRU)", "phone": "02-346-4205, 02-346-4206", "opening_hours": "24/7", "brand": "McDonald's"}, "geometry": {"type": "Point", "coordinates": [100.727497, 13.721825]}},
{"type": "Feature", "id": "xooaoXdBTmfqIEikJhpTakLoAK8=", "properties": {"ref": "IC48167", "@spider": "mcdonalds_th", "addr:full": "No. 323/1-3 Room No. A11-1 , 1st Floor , Sukhumvit 55 ( Thonglor), Sukhumvit Soi 15 , Wattana, Bangkok 10110 .", "name": "J-AVENUE THONGLOR", "phone": "02-712-6157, 02-712-6158", "opening_hours": "24/7", "brand": "McDonald's"}, "geometry": {"type": "Point", "coordinates": [100.581596, 13.735266]}},
{"type": "Feature", "id": "JPWD6tT6SsRyf65r1OG78Lorb4E=", "properties": {"ref": "IC48168", "@spider": "mcdonalds_th", "addr:full": "No. 98/196 , Moo 13 , Room GCR110 Rd. E-mail Province 12120", "name": "BIG C NAVANAKORN", "phone": "02-520-3212, 02-520-3213", "opening_hours": "Mo-Su:11:00-22:00", "brand": "McDonald's"}, "geometry": {"type": "Point", "coordinates": [100.6179, 14.122585]}},
{"type": "Feature", "id": "hpzjeAK_GgnM7VIU8yZV7bAxRP0=", "properties": {"ref": "IC48170", "@spider": "mcdonalds_th", "addr:full": "No. 194/2-3 Moo 2, Tambon Bo Phut, Koh Samui . Province 84320", "name": "CHAWENG GARDEN, KOH SAMUI", "phone": "077-601-360, 077-601-361", "opening_hours": "24/7", "brand": "McDonald's"}, "geometry": {"type": "Point", "coordinates": [100.06316, 9.531936]}},
{"type": "Feature", "id": "qpa10sdrNv51EvqBuGhb-Lvuy0c=", "properties": {"ref": "IC48171", "@spider": "mcdonalds_th", "addr:full": "No. 1329/10 Tesco Lotus Express Town in Town Soi Ladprao 94 ( Panjamit) Road, Wang Thong Lang . District, Wang Thong Lang , Bangkok 10230", "name": "TESCO TOWN IN TOWN", "phone": "02-514-2336, 02-514-2337", "opening_hours": "24/7", "brand": "McDonald's"}, "geometry": {"type": "Point", "coordinates": [100.610927, 13.774385]}},
{"type": "Feature", "id": "icHj_BR93cmNSoKIokKmLmp97is=", "properties": {"ref": "IC48172", "@spider": "mcdonalds_th", "addr:full": "No. 201 / B, 1st Squadron , Yes Bangplee Building , Room B- 204 L BANGSAOTHONG Rd.", "name": "YES BANGPHLI", "phone": "02-705-0592, 02-705-0593", "opening_hours": "Mo-Su:10:00-23:00", "brand": "McDonald's"}, "geometry": {"type": "Point", "coordinates": [100.794121, 13.585386]}},
{"type": "Feature", "id": "xaJeLtCU6gIelslik1U1hFKRWyE=", "properties": {"ref": "IC48173", "@spider": "mcdonalds_th", "addr:full": "No. 225/56 Moo 9 , Tambon Nong Prue , Banglamung, Chonburi 20150 .", "name": "PATTAYA DRAGON", "phone": "038-414-005, 038-414-007", "opening_hours": "24/7", "brand": "McDonald's"}, "geometry": {"type": "Point", "coordinates": [100.887794, 12.942915]}},
{"type": "Feature", "id": "ISV_RDrmIIQEUHlMnTNGTvj98PY=", "properties": {"ref": "IC48174", "@spider": "mcdonalds_th", "addr:full": "No. 78/23 , Chaengwattana Road , Huay Kwang , Bangkok 10220 .", "name": "MAX VALU LAKSI (DRIVE-THRU)", "phone": "02-521-6105, 02-521-6106", "opening_hours": "24/7", "brand": "McDonald's"}, "geometry": {"type": "Point", "coordinates": [100.590094, 13.879977]}},
{"type": "Feature", "id": "8NDETC_CaQId8vZU9nAgrC88S7Q=", "properties": {"ref": "IC48175", "@spider": "mcdonalds_th", "addr:full": "Terminal 1 at 222 Don Mueang Airport , 3rd floor ( the International) Airport Vibhavadi Rangsit Road, Don Muang, Bangkok 10210 .", "name": "DONMUEANG AIRPORT 1", "phone": "02-504-3275,02-504-3276", "opening_hours": "Mo-Su:04:00-22:00", "brand": "McDonald's"}, "geometry": {"type": "Point", "coordinates": [100.603196, 13.920639]}},
{"type": "Feature", "id": "SkaD_eozUZKF0iLUYls3Pl2QzUE=", "properties": {"ref": "IC48176", "@spider": "mcdonalds_th", "addr:full": "Terminal 1 at 222 Don Mueang Airport , 3rd (Coast Domestic) Vibhavadi Rangsit Road , Don Muang Airport , Bangkok 10210 .", "name": "DONMUEANG AIRPORT 2 RELOCATED", "phone": "02-504-3291, 02-504-3293", "opening_hours": "Mo-Su:05:00-22:00", "brand": "McDonald's"}, "geometry": {"type": "Point", "coordinates": [100.602407, 13.919209]}},
{"type": "Feature", "id": "BOsGRsJbnPD1sKDJNIhHuUO7a6E=", "properties": {"ref": "IC48177", "@spider": "mcdonalds_th", "addr:full": "222 Terminal 2 (Domestic Landside), Vibhavadi Road, Sanambin, Donmueang, Bangkok 10210", "name": "DONMUEANG AIRPORT LANDSIDE", "phone": "02-504-3781, 02-504-3782", "opening_hours": "Mo-Su:04:00-21:30", "brand": "McDonald's"}, "geometry": {"type": "Point", "coordinates": [100.603561, 13.914196]}},
{"type": "Feature", "id": "RUOEr_jmZtUDtmlSHCM1ZOiu03o=", "properties": {"ref": "IC48178", "@spider": "mcdonalds_th", "addr:full": "No. 58/31 Moo 19 Kanchanaphisek Rd. Salathammasop Thawi Wattana, Bangkok 10170 .", "name": "PTT TALINGCHAN (DRIVE-THRU)", "phone": "02-448-3636, 02-448-3670", "opening_hours": "24/7", "brand": "McDonald's"}, "geometry": {"type": "Point", "coordinates": [100.407504, 13.77367]}},
{"type": "Feature", "id": "CeV9HnZ7VfVtzpqps0YilXpikLk=", "properties": {"ref": "IC48179", "@spider": "mcdonalds_th", "addr:full": "No. 700/50 Moo 10 , Klong Kum , Bangkok 10230 .", "name": "MAX VALU NAWAMIN (DRIVE-THRU)", "phone": "02-509-0497, 02-509-0498", "opening_hours": "24/7", "brand": "McDonald's"}, "geometry": {"type": "Point", "coordinates": [100.654557, 13.818886]}},
{"type": "Feature", "id": "7tKgCTIUBcVz8bCWNkgBPto25ME=", "properties": {"ref": "IC48180", "@spider": "mcdonalds_th", "addr:full": "5/ 22 Moo 2, Tambon Muang Pathumthani Bungyeetho .", "name": "M-PARK RANGSIT KLONG 3 (DRIVE-THRU)", "phone": "02-533-1103, 02-533-1771", "opening_hours": "24/7", "brand": "McDonald's"}, "geometry": {"type": "Point", "coordinates": [100.665177, 13.99583]}},
{"type": "Feature", "id": "6va_3Sf9WiYuSM8HeGCVmkqNe4o=", "properties": {"ref": "IC48181", "@spider": "mcdonalds_th", "addr:full": "No. 30/21 Moo 4 Navaminthra City Mall Avenue , Room 101 , 1st Floor well Jorakaebua Bangkok 10230 .", "name": "NAWAMIN CITY AVENUE (DRIVE-THRU)", "phone": "02-553-3075, 02-553-3076", "opening_hours": "24/7", "brand": "McDonald's"}, "geometry": {"type": "Point", "coordinates": [100.611022, 13.833535]}},
{"type": "Feature", "id": "r97-6iqG4Ebrf-sb8kVt7hgC2PM=", "properties": {"ref": "IC48182", "@spider": "mcdonalds_th", "addr:full": "No. 98/ 3 Moo 4 Carrefour sanitation 5 Rd Sai Mai , Bangkok 10220 .", "name": "BIG C EXTRA SUKHAPHIBAN 5 (DRIVE-THRU)", "phone": "02-153-1595, 02-153-1596", "opening_hours": "Mo-Su:07:00-23:00", "brand": "McDonald's"}, "geometry": {"type": "Point", "coordinates": [100.656104, 13.88886]}},
{"type": "Feature", "id": "2HPU1vywmqtILrOOeWRHuZkjTaw=", "properties": {"ref": "IC48183", "@spider": "mcdonalds_th", "addr:full": "193 Jungceylon Shopping Cente Building , Room No. 2106/1 , 2106 /2, G -Thit 200 Pee Road , Patong , Kathu, Phuket 83150.", "name": "JUNGCEYLON 1, PATONG PHUKET", "phone": "076-366-176,  076-366-177", "opening_hours": "24/7", "brand": "McDonald's"}, "geometry": {"type": "Point", "coordinates": [98.29982, 7.891316]}},
{"type": "Feature", "id": "ZqlZ6jeapJOvKwc4RHnnnMMKy4E=", "properties": {"ref": "IC48184", "@spider": "mcdonalds_th", "addr:full": "No. 197 building, Jungceylon Shopping Center , Room 3131 , G -Thit 200 Pee Road , Patong , Kathu, Phuket 83150.", "name": "JUNGCEYLON 2 (SAI 3), PATONG PHUKET", "phone": "076-366-180, 076-366-181", "opening_hours": "24/7", "brand": "McDonald's"}, "geometry": {"type": "Point", "coordinates": [98.29976, 7.891325]}},
{"type": "Feature", "id": "2bjcGi4M3w3sRaTYz8qpqpB1UnA=", "properties": {"ref": "IC48185", "@spider": "mcdonalds_th", "addr:full": "No. 18/1 Moo 7 Khao Lak Plaza Room at the parish bustling 42,1,2,3 Phang Nga 82190 .", "name": "KHAOLAK PLAZA, PANG-NGA", "phone": "076-485-505, 076-485-506", "opening_hours": "Mo-Su:10:00-22:00", "brand": "McDonald's"}, "geometry": {"type": "Point", "coordinates": [98.25092, 8.643142]}},
{"type": "Feature", "id": "OEe1vcikfIGfEWqj71_bFk0Hl34=", "properties": {"ref": "IC48186", "@spider": "mcdonalds_th", "addr:full": "No. 7/259 Central Plaza Pinklao. Borommaratchachonnani Arun Bangkok 10700", "name": "CENTRAL PINKLAO", "phone": "02-434-1793, 02-434-1794", "opening_hours": "Mo-Su:11:00-22:00", "brand": "McDonald's"}, "geometry": {"type": "Point", "coordinates": [100.476193, 13.778318]}},
{"type": "Feature", "id": "p70xZKjhrHAGlEx3bgmHWKzRGLQ=", "properties": {"ref": "IC48187", "@spider": "mcdonalds_th", "addr:full": "No. 2 Mahidol Road and No. 252-252/1 Wualai Central Plaza Chiang Mai Airport G-180/1-2 Floor , Room No. G Haiya Muang. 50100", "name": "CENTRAL AIRPORT CHIANGMAI", "phone": "053-279-630,  053-279-631", "opening_hours": "Mo-Su:11:00-21:30", "brand": "McDonald's"}, "geometry": {"type": "Point", "coordinates": [98.975625, 18.768362]}},
{"type": "Feature", "id": "QzbdBod8tHHjCHRq4sRShLdOxUE=", "properties": {"ref": "IC48188", "@spider": "mcdonalds_th", "addr:full": "No. 60 International Airport domestic terminal . Area No. D2012-2014 , Moo 3 , Tambon Suthep , Muang, Chiang Mai 50200 .", "name": "CHIANGMAI AIRPORT", "phone": "053-272-433, 053-272-434", "opening_hours": "Mo-Su:05:30-22:00", "brand": "McDonald's"}, "geometry": {"type": "Point", "coordinates": [98.968265, 18.768374]}},
{"type": "Feature", "id": "cWoPmp-VxlNY2W2SBVzgNRQgJUU=", "properties": {"ref": "IC48189", "@spider": "mcdonalds_th", "addr:full": "No. 3/83 Moo 7 Klong 4 Carrefour shopping T.Ladsavay Pathumthani 12150.", "name": "BIG C EXTRA LUMLUKKA KLONG 4 (DRIVE-THRU)", "phone": "02-563-3205, 02-563-3206", "opening_hours": "24/7", "brand": "McDonald's"}, "geometry": {"type": "Point", "coordinates": [100.664763, 14.004532]}},
{"type": "Feature", "id": "2eNP0_s2UOt43K92X3sjt0eMk30=", "properties": {"ref": "IC48190", "@spider": "mcdonalds_th", "addr:full": "No. 37/139 Moo 8 , Room LG-10 , G Bangkrasor Info. Province 11000", "name": "ESPLANADE RATTANATHIBETH", "phone": "02-591-3901, 02-591-3902", "opening_hours": "24/7", "brand": "McDonald's"}, "geometry": {"type": "Point", "coordinates": [100.508401, 13.861393]}},
{"type": "Feature", "id": "0KwH8B5rDF3lgq0GQX82PmxgDJs=", "properties": {"ref": "IC48191", "@spider": "mcdonalds_th", "addr:full": "No. 88 UD Town Mall, 1st Floor, Room No. A big gold district, Udon Thani . Province 41000", "name": "UD TOWN, UDORN THANI (DRIVE-THRU)", "phone": "042-240-057 , 042-240-058", "opening_hours": "24/7", "brand": "McDonald's"}, "geometry": {"type": "Point", "coordinates": [102.804163, 17.406232]}},
{"type": "Feature", "id": "6M-WcbpD_h7dJIwo0a3q3AOrEb8=", "properties": {"ref": "IC48192", "@spider": "mcdonalds_th", "addr:full": "Room No. G 26-29, G 71-74, OP-G22 , G 99 Srichan Road , Muang, Khon Kaen 40000 .", "name": "CENTRAL KHONKAEN", "phone": "043-288-016, 043-288-017", "opening_hours": "Mo-Su:10:30-21:00", "brand": "McDonald's"}, "geometry": {"type": "Point", "coordinates": [102.82532, 16.432606]}},
{"type": "Feature", "id": "2nNvjF7BQYNwb7rdO-OBKGhfGwo=", "properties": {"ref": "IC48193", "@spider": "mcdonalds_th", "addr:full": "17/ 1 Kotchasarn Chang Klan , Muang, Chiang Mai 50100 .", "name": "IMM THAPAE CHIANGMAI", "phone": "053-208-583, 053-208-584", "opening_hours": "24/7", "brand": "McDonald's"}, "geometry": {"type": "Point", "coordinates": [98.993037, 18.787956]}},
{"type": "Feature", "id": "7fG9Oy-uDj9lVjfEx1s_qL9bkfA=", "properties": {"ref": "IC48194", "@spider": "mcdonalds_th", "addr:full": "101,147,148,149,150 Floor , Room No. 1 , No. 99 Moo 2, Tambon Bang Talat, Amphoe Pak Kret , Nonthaburi 11120 .", "name": "CENTRAL CHANGWATTANA", "phone": "02-193-8234, 02-193-8235", "opening_hours": "Mo-Su:08:00-21:30", "brand": "McDonald's"}, "geometry": {"type": "Point", "coordinates": [100.527451, 13.904066]}},
{"type": "Feature", "id": "04CHc93ySsubEXykNlaKLg8LhUs=", "properties": {"ref": "IC48195", "@spider": "mcdonalds_th", "addr:full": "No. 392/ 60 Moo 9, Tambon Nong Prue , Banglamung, Chonburi 20260 .", "name": "PATTAYA KLANG (DRIVE-THRU)", "phone": "038-412-937, 038-412-938", "opening_hours": "24/7", "brand": "McDonald's"}, "geometry": {"type": "Point", "coordinates": [100.898415, 12.925654]}},
{"type": "Feature", "id": "KfUa6Qk0QncpPn67bkSK6hmqg9Q=", "properties": {"ref": "IC48196", "@spider": "mcdonalds_th", "addr:full": "No. 68 /1, Kanchana BangKhae Rd , Bangkok 10160 .", "name": "KANCHANAPISEK - KALLAPAPRUEK (DRIVE-THRU)", "phone": "02-454-2057, 02-454-2058", "opening_hours": "24/7", "brand": "McDonald's"}, "geometry": {"type": "Point", "coordinates": [100.408065, 13.695467]}},
{"type": "Feature", "id": "arLrQz3IXLkaT_VEzRue_KalV88=", "properties": {"ref": "IC48197", "@spider": "mcdonalds_th", "addr:full": "No. 100/ 1 Moo 10, Tambon Bang Krang Info. Province 11000", "name": "RAJCHAPRUEK RATTANATHIBET (DRIVE-THRU)", "phone": "02-422-5721, 02-422-5722", "opening_hours": "24/7", "brand": "McDonald's"}, "geometry": {"type": "Point", "coordinates": [100.448924, 13.853849]}},
{"type": "Feature", "id": "xV0UskyAFU132UjZ2hBov5HvrXA=", "properties": {"ref": "IC48198", "@spider": "mcdonalds_th", "addr:full": "No. 39 The Circle Building , Room F10 Ratchaphruek Ratchaphruek Road, Bang Ramat, Taling Chan , Bangkok 10170 .", "name": "THE CIRCLE RAJCHAPRUEK (DRIVE-THRU)", "phone": "02-865-6560, 02-865-6561", "opening_hours": "24/7", "brand": "McDonald's"}, "geometry": {"type": "Point", "coordinates": [100.443932, 13.767267]}},
{"type": "Feature", "id": "OJ1MI1fQAYLVEhjFnzdq8F_d73A=", "properties": {"ref": "IC48199", "@spider": "mcdonalds_th", "addr:full": "No. 474 Tesco Lotus supermarket branches Thalang Road, Cherng Talay, Thalang, Phuket 83110 .", "name": "TESCO CHOENGTALAY PHUKET", "phone": "076-324-248, 076-324-249", "opening_hours": "Mo-Su:08:00-23:00", "brand": "McDonald's"}, "geometry": {"type": "Point", "coordinates": [98.301737, 7.986159]}},
{"type": "Feature", "id": "p5uSf-vCx7n8xGP0Ctbq3-u4xq4=", "properties": {"ref": "IC48200", "@spider": "mcdonalds_th", "addr:full": "No. 333/99 buildings . Central Festival Pattaya Beach , Unit No. FP015, FP016, FP017, 0103R, 0103R-T , G Moo 9, Tambon Nong Prue, Banglamung . Province 20260", "name": "CENTRAL FESTIVAL PATTAYA 1", "phone": "038-043-146, 038-043-147", "opening_hours": "Mo-Su:09:00-13:00", "brand": "McDonald's"}, "geometry": {"type": "Point", "coordinates": [100.884142, 12.938879]}},
{"type": "Feature", "id": "Q__Z9opDuC7xnGBWgieDE3X3XDY=", "properties": {"ref": "IC48201", "@spider": "mcdonalds_th", "addr:full": "No. 333/99 buildings . Central Festival Pattaya Beach , Unit No. 050R, 051R, 052R, 050R-T, 051R-T, 052R-T , G Moo 9, Tambon Nong Prue, Banglamung . Province 20260", "name": "CENTRAL FESTIVAL PATTAYA 2", "phone": "038-043-243, 038-043-244", "opening_hours": "Mo-Su:11:00-23:00", "brand": "McDonald's"}, "geometry": {"type": "Point", "coordinates": [100.884271, 12.938042]}},
{"type": "Feature", "id": "lQEdaLIcb-71EB7S6bFdAtxZPjc=", "properties": {"ref": "IC48202", "@spider": "mcdonalds_th", "addr:full": "No. 1024 Supreme Rd Shopping Center , Room L 1-15 and L 1-16 Samsen Road, Dusit, Bangkok 10300 .", "name": "SUPREME SAMSEN", "phone": "02-241-9215, 02-241-9216", "opening_hours": "Mo-Su:07:00-22:00", "brand": "McDonald's"}, "geometry": {"type": "Point", "coordinates": [100.515171, 13.789978]}},
{"type": "Feature", "id": "F4hgM1TWBT3d4L_Kx90SFQWWf4k=", "properties": {"ref": "IC48203", "@spider": "mcdonalds_th", "addr:full": "74-75 , 1st Floor, Room No. 144-145 Moo 5 Tambon Chalong, A. Muang , Phuket 83000.", "name": "CENTRAL FESTIVAL PHUKET", "phone": "076-307-089,  076-307-090", "opening_hours": "Mo-Su:10:30-22:00", "brand": "McDonald's"}, "geometry": {"type": "Point", "coordinates": [98.367564, 7.890243]}},
{"type": "Feature", "id": "IgfBxcBmIC7u_6xOVeYpBQY_gmw=", "properties": {"ref": "IC48204", "@spider": "mcdonalds_th", "addr:full": "No. 299/42 Moo 18 , Tambon Pak Chong , Nakhon Ratchasima 30130 .", "name": "THE MARKET VILLAGE KAOYAI (DRIVE-THRU)", "phone": "044-316-774, 044-316-775", "opening_hours": "24/7", "brand": "McDonald's"}, "geometry": {"type": "Point", "coordinates": [101.391439, 14.660765]}},
{"type": "Feature", "id": "_HnzPri9QLU_xcCnIm6T9AESJ0o=", "properties": {"ref": "IC48205", "@spider": "mcdonalds_th", "addr:full": "No. 1 Building, Room No. A117 Amorini floor 1 and 2, Siam Park Kannayo 10230 .", "name": "AMORINI, SIAM PARK (DRIVE-THRU)", "phone": "02-540-1801 , 02-540-1802", "opening_hours": "24/7", "brand": "McDonald's"}, "geometry": {"type": "Point", "coordinates": [100.687542, 13.814155]}},
{"type": "Feature", "id": "0cC5qad94Mp7MqOtsjjSBkD88e8=", "properties": {"ref": "IC48206", "@spider": "mcdonalds_th", "addr:full": "No. 210 Moo 6 Tambon Fa Ham , Muang, Chiang Mai 50000 .", "name": "MEECHOK CHIANGMAI (DRIVE-THRU)", "phone": "053-230-348, 053-230-349", "opening_hours": "24/7", "brand": "McDonald's"}, "geometry": {"type": "Point", "coordinates": [99.011612, 18.823731]}},
{"type": "Feature", "id": "ftXpDk2Z-GExdOkaOUgh0tzZjQA=", "properties": {"ref": "IC48207", "@spider": "mcdonalds_th", "addr:full": "PTT service station, 54004 Bangkok - Rama 2 (km 35 ) 5/ 14 Moo 3 Kachao . Click! Province 74000", "name": "PTT RAMA 2 KM 35 (DRIVE-THRU)", "phone": "034-887-253, 034-887-254", "opening_hours": "24/7", "brand": "McDonald's"}, "geometry": {"type": "Point", "coordinates": [100.20994, 13.532543]}},
{"type": "Feature", "id": "2x4WgqzTBj3ibO7qQNJZ3EX_3f0=", "properties": {"ref": "IC48208", "@spider": "mcdonalds_th", "addr:full": "No. 220 of The Platinum Fashion Mall, Room No. B-10 Basement and 1st Floor, Room No. 1-70 Petchburi Road, Bangkok 10400 .", "name": "PLATINUM NOVOTEL - RELOCATED", "phone": "02-160-7150, 02-160-7151", "opening_hours": "24/7", "brand": "McDonald's"}, "geometry": {"type": "Point", "coordinates": [100.540438, 13.74989]}},
{"type": "Feature", "id": "J5pXEWOlAZC0t_BxZ49x56vhGHk=", "properties": {"ref": "IC48209", "@spider": "mcdonalds_th", "addr:full": "No. 99/9 Central Plaza Chiang Room No. 136-136T, 137 , 1st Floor, Moo 13 , Tambon Wiang , Muang , Chiang Rai 57000 .", "name": "CENTRAL CHIANGRAI", "phone": "053-179-816, 053-179-817", "opening_hours": "Mo-Su:10:00-21:00", "brand": "McDonald's"}, "geometry": {"type": "Point", "coordinates": [99.834309, 19.888302]}},
{"type": "Feature", "id": "HAiJQOBVhJUKPUIN6zmj8Do1N0w=", "properties": {"ref": "IC48210", "@spider": "mcdonalds_th", "addr:full": "Suvarnabhumi Airport 2.10JK numbers and area 2.10D Concourse A , 2nd Floor 999 Moo 1, Tambon Nong Prue, Bang Phli , Samut Prakan 10540.", "name": "SUVARNABHUMI AIRPORT- DOMESTIC", "phone": "02-134-6400, 02-134-6401", "opening_hours": "Mo-Su:05:00-22:00", "brand": "McDonald's"}, "geometry": {"type": "Point", "coordinates": [100.753555, 13.690923]}},
{"type": "Feature", "id": "dDhHAfx-fixigXAm-VKPnBO9O_w=", "properties": {"ref": "IC48211", "@spider": "mcdonalds_th", "addr:full": "No. 439 Moo 2, Phaholyothin Rd Patumthani 16500 .", "name": "MAJOR RANGSIT", "phone": "02-567-2698, 02-567-2699", "opening_hours": "Mo-Su:07:00-22:00", "brand": "McDonald's"}, "geometry": {"type": "Point", "coordinates": [100.61645, 13.986886]}},
{"type": "Feature", "id": "5YBAauULZ0RjKjlMVOngGXfciEE=", "properties": {"ref": "IC48212", "@spider": "mcdonalds_th", "addr:full": "999/ 4, 1st Floor , Room H F01H05000-F01H09000 Rama 9 Road, Suan Luang, Bangkok 10240.", "name": "THE NINE RAMA 9", "phone": "02-716-7846, 02-716-7847", "opening_hours": "24/7", "brand": "McDonald's"}, "geometry": {"type": "Point", "coordinates": [100.625807, 13.741115]}},
{"type": "Feature", "id": "ELYpHv31_eLu_GxFogAqYx2ZOj4=", "properties": {"ref": "IC48213", "@spider": "mcdonalds_th", "addr:full": "No. 55/2 Moo 7, Tambon Kanjanakumnurd Sankhavanija Samnakkham Sadao , Songkhla 90320 .", "name": "SADAO DANNOK", "phone": "074-557-605, 074-557-606", "opening_hours": "24/7", "brand": "McDonald's"}, "geometry": {"type": "Point", "coordinates": [100.418612, 6.52241]}},
{"type": "Feature", "id": "P381DxPsGrcdyojxp0An4Jiffqs=", "properties": {"ref": "IC48214", "@spider": "mcdonalds_th", "addr:full": "No. 1 of the original 1st Khaosan Road Taladyod 10200 .", "name": "KAOSAN ROAD 2", "phone": "02-281-9951, 02-281-9952", "opening_hours": "24/7", "brand": "McDonald's"}, "geometry": {"type": "Point", "coordinates": [100.496618, 13.759168]}},
{"type": "Feature", "id": "_TKlUi084efP_xlBxpf0i2wlC9k=", "properties": {"ref": "IC48215", "@spider": "mcdonalds_th", "addr:full": "No. 265 on Khao San Rd , Bangkok 10200 .", "name": "KAOSAN ROAD 1", "phone": "02-629-4040, 02-629-4922", "opening_hours": "24/7", "brand": "McDonald's"}, "geometry": {"type": "Point", "coordinates": [100.498198, 13.758592]}},
{"type": "Feature", "id": "HKFOoTEDxZmTmmQygk_c3IYXOlc=", "properties": {"ref": "IC48216", "@spider": "mcdonalds_th", "addr:full": "No. 22, Bangkok Hospital Medical Center . Space at 2-04 on the 2nd floor , Soi 7 Road, Bangkapi, Huay Kwang, Bangkok 10310 .", "name": "BANGKOK HOSPITAL", "phone": "02-718-1250, 02-718-1251", "opening_hours": "Mo-Su:06:00-22:00", "brand": "McDonald's"}, "geometry": {"type": "Point", "coordinates": [100.583675, 13.748241]}},
{"type": "Feature", "id": "yAR97x6IhPRa0K-w5qSglTeasb0=", "properties": {"ref": "IC48217", "@spider": "mcdonalds_th", "addr:full": "No. 59 /11 Moo 4, Tha palace Nakhon Chai Si district, Nakhon Pathom 73120 .", "name": "NAKORNCHAISRI, NAKORNPATHOM (DRIVE-THRU)", "phone": "034-339-175, 034-339-176", "opening_hours": "24/7", "brand": "McDonald's"}, "geometry": {"type": "Point", "coordinates": [100.179219, 13.7739]}},
{"type": "Feature", "id": "2a1fc8q3roIT3oC7RwrM_xWpGco=", "properties": {"ref": "IC48218", "@spider": "mcdonalds_th", "addr:full": "No. 119 /1 Csl 2nd Floor , Rama 2 Rd , Bangkok 10150.", "name": "M-PARK RAMA 2 (DRIVE-THRU)", "phone": "02-415-6283, 02-415-6284", "opening_hours": "24/7", "brand": "McDonald's"}, "geometry": {"type": "Point", "coordinates": [100.441555, 13.663351]}},
{"type": "Feature", "id": "Zu-dPbZxOpnOMjkfXh2mghKXxeI=", "properties": {"ref": "IC48219", "@spider": "mcdonalds_th", "addr:full": "No. 9/99 , Central Plaza Phitsanulok Room No. 162-165 , 1st Floor, Moo 5 , Muang , Phitsanulok 65000 Plaichumpol .", "name": "CENTRAL PHITSANULOK", "phone": "055-338-560, 055-338-561", "opening_hours": "Mo-Su:10:00-22:00", "brand": "McDonald's"}, "geometry": {"type": "Point", "coordinates": [100.23472, 16.840897]}},
{"type": "Feature", "id": "6FFCUi5d6RS2ZbPGDLhu2dDj9MU=", "properties": {"ref": "IC48220", "@spider": "mcdonalds_th", "addr:full": "Building Central Plaza Grand Rama 9 , Room 726 7th at 9/ 9 Rama 9 Road, Huay Kwang, Bangkok 10310 .", "name": "CENTRAL RAMA 9", "phone": "02-160-2415, 02-160-2416", "opening_hours": "Mo-Su:10:00-22:00", "brand": "McDonald's"}, "geometry": {"type": "Point", "coordinates": [100.566315, 13.758382]}},
{"type": "Feature", "id": "c9XzSWNKg2Y8ler_75sWbtDz4cM=", "properties": {"ref": "IC48221", "@spider": "mcdonalds_th", "addr:full": "189 /1, Road Prasertmanukij Kum Kum, Bangkok 10240.", "name": "PTT KASETNAWAMIN (DRIVE-THRU)", "phone": "02-508-1463, 02-508-1464", "opening_hours": "24/7", "brand": "McDonald's"}, "geometry": {"type": "Point", "coordinates": [100.630509, 13.822929]}},
{"type": "Feature", "id": "Ra_amJqYyYc8tw5Z883LepbNhF8=", "properties": {"ref": "IC48222", "@spider": "mcdonalds_th", "addr:full": "Shibuya Building 19 , No. 919 Petchburi Road , Phayathai Road, Bangkok 10400 .", "name": "SHIBUYA PRATUNAM", "phone": "02-169-7603, 02-169-7604", "opening_hours": "24/7", "brand": "McDonald's"}, "geometry": {"type": "Point", "coordinates": [100.540443, 13.75027]}},
{"type": "Feature", "id": "KCwz69x7ppOKRZu5hD7XfCgly4o=", "properties": {"ref": "IC48223", "@spider": "mcdonalds_th", "addr:full": "No. 99/123 ports TOSHINO Center , Building C , Moo 4, Tambon Na Muang Samut Sakhon , Samut Sakhon 74000 .", "name": "PORTO CHINO (DRIVE-THRU)", "phone": "034-110-303, 034-110-305", "opening_hours": "24/7", "brand": "McDonald's"}, "geometry": {"type": "Point", "coordinates": [100.302536, 13.576915]}},
{"type": "Feature", "id": "SL-ruxRpj09EOK2X_XTNrpn3tzo=", "properties": {"ref": "IC48224", "@spider": "mcdonalds_th", "addr:full": "No. 2354/9 Soi Ladprao Wang Thong Lang , Bangkok 10310 Pubpla .", "name": "LADPRAO 116 (DRIVE-THRU)", "phone": "02-530-4658, 02-530-4649", "opening_hours": "24/7", "brand": "McDonald's"}, "geometry": {"type": "Point", "coordinates": [100.620528, 13.779462]}},
{"type": "Feature", "id": "Wp_i-W1k6ycruCmF4fZQDnBzSrU=", "properties": {"ref": "IC48225", "@spider": "mcdonalds_th", "addr:full": "No. 277/3 Central Plaza Udonthani Room No. 116-116T 1st Floor Prachaksinlapakhom sharp Maakaeng MON 41000 .", "name": "CENTRAL UDORNTHANI", "phone": "042-921-348, 042-921-349, 042-921-350", "opening_hours": "Mo-Su:07:00-22:00", "brand": "McDonald's"}, "geometry": {"type": "Point", "coordinates": [102.803444, 17.404335]}},
{"type": "Feature", "id": "TSvK-8e4cheIIt3DlBLuWPqf9sE=", "properties": {"ref": "IC48226", "@spider": "mcdonalds_th", "addr:full": "899 Road Development Khukhwang Tambon Nai Muang Nakhon. Nakhon Si Thammarat 80000", "name": "IBIZ NAKORNSRITHAMMARAT (DRIVE-THRU)", "phone": "075-341-380, 075-341-381", "opening_hours": "24/7", "brand": "McDonald's"}, "geometry": {"type": "Point", "coordinates": [99.970393, 8.436524]}},
{"type": "Feature", "id": "s0vNzf1SNaeXdxqTZ9aMhECigrU=", "properties": {"ref": "IC48227", "@spider": "mcdonalds_th", "addr:full": "No. 39 rooms 1204.2204 1 and 2 Moo 6 Bangna - Trad , Bang Kaew Bang Phli , Samut Prakan 10540.", "name": "MEGA BANGNA 1", "phone": "02-105-1664, 02-105-1665", "opening_hours": "Mo-Su:10:00-22:00", "brand": "McDonald's"}, "geometry": {"type": "Point", "coordinates": [100.679955, 13.644194]}},
{"type": "Feature", "id": "6pAw_SPc81vHj4mgqf6glsjNgdE=", "properties": {"ref": "IC48228", "@spider": "mcdonalds_th", "addr:full": "No. 39 , 2nd Floor, Room 2348 , Moo 6 Bangna - Trad , Bang Kaew Bang Phli , Samut Prakan 10540.", "name": "MEGA BANGNA 2", "phone": "02-105-1662", "opening_hours": "Mo-Su:10:00-22:00", "brand": "McDonald's"}, "geometry": {"type": "Point", "coordinates": [100.680234, 13.644402]}},
{"type": "Feature", "id": "LoOmMPGOXXRp8-rjsCr1FLndGPA=", "properties": {"ref": "IC48229", "@spider": "mcdonalds_th", "addr:full": "No. 888 rooms A101 and A201 , Sukhumvit Road, Bangna , Bangkok 10260 .", "name": "THE COAST BANGNA", "phone": "02-136-0904, 02-136-0905", "opening_hours": "Mo-Su:10:00-21:00", "brand": "McDonald's"}, "geometry": {"type": "Point", "coordinates": [100.605666, 13.672497]}},
{"type": "Feature", "id": "eurOuCi-rdXelND4Q0QgfjYQEeI=", "properties": {"ref": "IC48230", "@spider": "mcdonalds_th", "addr:full": "900 Mega Plaza ( Wang Burapha ), Room A101-103, A201-204 and some areas on B1 Mahachai Road Wangburapapirom 10200 .", "name": "MEGA WANGBURAPA", "phone": "02-108-3516, 02-108-3518", "opening_hours": "Mo-Su:08:00-22:00", "brand": "McDonald's"}, "geometry": {"type": "Point", "coordinates": [100.502605, 13.745305]}},
{"type": "Feature", "id": "KCE9LeMLfrVg8I9AAEO1Gwvtnkw=", "properties": {"ref": "IC48231", "@spider": "mcdonalds_th", "addr:full": "No. 216 Sri Phu number of cars , Hat Yai , Songkhla 90110 .", "name": "DIANA HADYAI", "phone": "074-220-136, 074-220-137", "opening_hours": "24/7", "brand": "McDonald's"}, "geometry": {"type": "Point", "coordinates": [100.47798, 6.998201]}},
{"type": "Feature", "id": "jaIdUHDmYzbdWv87KGrW8GgdgYI=", "properties": {"ref": "IC48232", "@spider": "mcdonalds_th", "addr:full": "No. 36/713 Moo 6 Tambon Bang Bang Bua Thong, Nonthaburi , Bangkok 11110 .", "name": "KANCHANAPISEK BANGYAI (DRIVE-THRU)", "phone": "02-571-5226, 02-571-5227", "opening_hours": "24/7", "brand": "McDonald's"}, "geometry": {"type": "Point", "coordinates": [100.408162, 13.906077]}},
{"type": "Feature", "id": "xkVyJxD05rkwb1K_9PnMkkYMoOg=", "properties": {"ref": "IC48233", "@spider": "mcdonalds_th", "addr:full": "No. 8 , Chiang Mai - Lampang , Wat Gate , Muang, Chiang Mai 50000 .", "name": "STAR AVENUE SUPER HIGHWAY CHIANGMAI (DRIVE-THRU)", "phone": "053-240-965, 053-240-966", "opening_hours": "24/7", "brand": "McDonald's"}, "geometry": {"type": "Point", "coordinates": [99.019524, 18.799819]}},
{"type": "Feature", "id": "yZuxWonuw5XcYbqaOfI23LCS85c=", "properties": {"ref": "IC48234", "@spider": "mcdonalds_th", "addr:full": "333/ 3 Moo 2 Tambon Lam Sai Wang Noi , Ayutthaya 13170.", "name": "PHAHOLYOTHIN WANGNOI AYUDHAYA (DRIVE-THRU)", "phone": "035-740-766, 035-740-767", "opening_hours": "24/7", "brand": "McDonald's"}, "geometry": {"type": "Point", "coordinates": [100.643048, 14.193462]}},
{"type": "Feature", "id": "krXv2LURSaMESHB4qdm83MrkNrY=", "properties": {"ref": "IC48235", "@spider": "mcdonalds_th", "addr:full": "No. 88 Building , Central Plaza Suratthani Room No. 142,142 T Tier 1 Moo 10, Tambon Talat , Muang Surat Thani. Suratthani 84000", "name": "CENTRAL SURATTHANI", "phone": "077-489-720, 077-489-721", "opening_hours": "Mo-Su:09:00-22:00", "brand": "McDonald's"}, "geometry": {"type": "Point", "coordinates": [99.302588, 9.107811]}},
{"type": "Feature", "id": "JhdbCBM55OQR3tntno1Gk08qNDA=", "properties": {"ref": "IC48236", "@spider": "mcdonalds_th", "addr:full": "87 grand 5 storey buildings 1 and 2 A10-12 Lerdsin Soi 1, Sukhumvit Road, Klongtoey Nua , Wattana, Bangkok 10110 .", "name": "GRAND FIVE NANA", "phone": "02-254-0321, 02-254-0322", "opening_hours": "24/7", "brand": "McDonald's"}, "geometry": {"type": "Point", "coordinates": [100.565286, 13.733366]}},
{"type": "Feature", "id": "AxYOAThvfT8WU6RUCrP1Y4gLr60=", "properties": {"ref": "IC48237", "@spider": "mcdonalds_th", "addr:full": "No. 234/1 Hua Hin . Market Village , Room C101, C102 , 1st Floor , Petchkasem Road, Hua Hin , Prachuap Khiri Khan 77110 .", "name": "HUA-HIN MARKET VILLAGE", "phone": "032-526-470, 032-526-471", "opening_hours": "Mo-Su:09:00-22:00", "brand": "McDonald's"}, "geometry": {"type": "Point", "coordinates": [99.960544, 12.557967]}},
{"type": "Feature", "id": "oxUn3E5AGT2WYIJBEUA4VEw_H1A=", "properties": {"ref": "IC48238", "@spider": "mcdonalds_th", "addr:full": "Building at 319 Central Plaza Chiang Mai Room No. 120-120T 1st Floor Buccaneers - Lampang - Ngao district, Lampang Road , Bangkok 52100 flower garden .", "name": "CENTRAL LAMPANG", "phone": "054-811-882, 054-811-883", "opening_hours": "Mo-Su:10:00-22:00", "brand": "McDonald's"}, "geometry": {"type": "Point", "coordinates": [99.49399, 18.281763]}},
{"type": "Feature", "id": "tBy3zSuTVvb4vYOay0fKR0ZbIls=", "properties": {"ref": "IC48239", "@spider": "mcdonalds_th", "addr:full": "No. 941/2 Road Chayangkun Road in the city of Ubon . MON 34000", "name": "UBON SQUARE (DRIVE-THRU)", "phone": "045-316-545, 045-316-546", "opening_hours": "24/7", "brand": "McDonald's"}, "geometry": {"type": "Point", "coordinates": [104.842394, 15.270565]}},
{"type": "Feature", "id": "QbfCj0jT_Mv_6dtcBgiusks1srA=", "properties": {"ref": "IC48240", "@spider": "mcdonalds_th", "addr:full": "No. 6/11 Moo 2, Sukhumvit Road, Khlong Talat Pak Kret, Nonthaburi 11120 .", "name": "CHIC REPUBLIC RAJCHAPRUEK (DRIVE-THRU)", "phone": "02-149-6661, 02-149-6662", "opening_hours": "24/7", "brand": "McDonald's"}, "geometry": {"type": "Point", "coordinates": [100.452019, 13.918304]}},
{"type": "Feature", "id": "2ou1IVuMQ3SWYUIb7EgKhgWgVnU=", "properties": {"ref": "IC48241", "@spider": "mcdonalds_th", "addr:full": "No. 7/2 The Paseo Plaza Building 3, Room A1-01 Sanitary Ramkhamhaeng Road, Bangkok 10240 SaphanSung .", "name": "PASEO SUKHAPHIBAN 3 (DRIVE-THRU)", "phone": "02-373-1351, 02-373-1352", "opening_hours": "24/7", "brand": "McDonald's"}, "geometry": {"type": "Point", "coordinates": [100.666587, 13.773737]}},
{"type": "Feature", "id": "6FSN7-MaFtG5ELu-ggHUyYKGHFg=", "properties": {"ref": "IC48242", "@spider": "mcdonalds_th", "addr:full": "No. 9/134 , 1st Floor, Room No. 112 Moo 5 , Klong . Luang , Pathumthani 12120", "name": "BU MALL - IMAGINE VILLAGE", "phone": "02-115-3474, 02-115-3475", "opening_hours": "Mo-Su:07:00-21:00", "brand": "McDonald's"}, "geometry": {"type": "Point", "coordinates": [100.61584, 14.04004]}},
{"type": "Feature", "id": "FbRimepeKaj6HV0c6tjbd6kIdxY=", "properties": {"ref": "IC48243", "@spider": "mcdonalds_th", "addr:full": "311 Central Plaza Ubon Ratchathani, Room No. 121 1st floor, Moo 7, Chaeramae, Amphoe Mueng, Ubon Ratchathani Ubon Ratchathani Province 34000", "name": "CENTRAL UBONRAJTHANI", "phone": "045-422-427, 045-422-428", "opening_hours": "Mo-Su:10:30-21:00", "brand": "McDonald's"}, "geometry": {"type": "Point", "coordinates": [104.8318, 15.258145]}},
{"type": "Feature", "id": "I5RZeS-s-Y_zqDBTncQeJiu3VMc=", "properties": {"ref": "IC48244", "@spider": "mcdonalds_th", "addr:full": "No. 53 Moo 5 , Klong Luang , Pathumthani 12120 .", "name": "PHAHOLYOTHIN RANGSIT (DRIVE-THRU DUAL LANE)", "phone": "02-516-3051, 02-516-3052", "opening_hours": "24/7", "brand": "McDonald's"}, "geometry": {"type": "Point", "coordinates": [100.615862, 14.042036]}},
{"type": "Feature", "id": "bISrxXBAmPNI7KxcPQnye-oyWN0=", "properties": {"ref": "IC48245", "@spider": "mcdonalds_th", "addr:full": "No. 1869 /1 Petchkasem Lucksong 10160 .", "name": "VICTORIA GARDEN - PETCHKASEM 69 (DRIVE-THRU)", "phone": "02-444-0094, 02-444-0095", "opening_hours": "24/7", "brand": "McDonald's"}, "geometry": {"type": "Point", "coordinates": [100.376083, 13.707961]}},
{"type": "Feature", "id": "jGLWaivCVYAoKMKqTnenKiFXDKU=", "properties": {"ref": "IC48246", "@spider": "mcdonalds_th", "addr:full": "111 B. Market Park Moo 6 Nonthaburi 11140 saothonghin .", "name": "BB BANGYAI MARKET (DRIVE-THRU)", "phone": "02-595-0494, 02-595-0495", "opening_hours": "24/7", "brand": "McDonald's"}, "geometry": {"type": "Point", "coordinates": [100.409224, 13.876517]}},
{"type": "Feature", "id": "bvODtzOZtuGWuZEV9SenoAXtezg=", "properties": {"ref": "IC48247", "@spider": "mcdonalds_th", "addr:full": "No. 12/ 5, Sangchuto Ban Tai Muang, Kanchanaburi 71000 .", "name": "M-PARK KANCHANABURI (DRIVE-THRU)", "phone": "034-513-894, 034-513-895", "opening_hours": "24/7", "brand": "McDonald's"}, "geometry": {"type": "Point", "coordinates": [99.547468, 14.004142]}},
{"type": "Feature", "id": "XAUxdDZ3jX1ilVxbhAum1wegkPY=", "properties": {"ref": "IC48248", "@spider": "mcdonalds_th", "addr:full": "No. 3888/10 , Moo 3 Rangsit - Pathum Thani , Muang, Klong Luang , Pathumthani 12000 .", "name": "PTT BANGPOON OUTBOUND (DRIVE-THRU)", "phone": "02-567-0471, 02-567-0472", "opening_hours": "24/7", "brand": "McDonald's"}, "geometry": {"type": "Point", "coordinates": [100.587671, 13.986181]}},
{"type": "Feature", "id": "ZSZpsnne0hqry5Bydbije5n1Dlc=", "properties": {"ref": "IC48249", "@spider": "mcdonalds_th", "addr:full": "No. 59/1 Moo 5 Tambon Khok Muang Ratchaburi , Ratchaburi 70000 .", "name": "RAJBURI PETCHKASEM (DRIVE-THRU)", "phone": "032-737-277, 032-737-278", "opening_hours": "24/7", "brand": "McDonald's"}, "geometry": {"type": "Point", "coordinates": [99.830298, 13.575802]}},
{"type": "Feature", "id": "QokeqjEwsVNMcLFyRAt5hvbuc0M=", "properties": {"ref": "IC48250", "@spider": "mcdonalds_th", "addr:full": "No. 289 Mahidol Road, T. Chang Klan , Muang, Chiang Mai 50100 .", "name": "STAR MAHIDOL CHIANGMAI (DRIVE-THRU)", "phone": "053-279-252, 053-279-253", "opening_hours": "24/7", "brand": "McDonald's"}, "geometry": {"type": "Point", "coordinates": [98.991559, 18.764935]}},
{"type": "Feature", "id": "iOWQ8cs__7yh2sWeHKbBFP7s3SM=", "properties": {"ref": "IC48251", "@spider": "mcdonalds_th", "addr:full": "Central Festival Hat , Room G- 05 , Ground Floor , No. 1518,1518 / 1,1518 / 2 . Kanchana Supatravanij Road , Hatyai Songkhla 90110 .", "name": "CENTRAL HADYAI", "phone": "074-339-852, 074-339-853", "opening_hours": "Mo-Su:11:00-22:00", "brand": "McDonald's"}, "geometry": {"type": "Point", "coordinates": [100.480678, 6.981977]}},
{"type": "Feature", "id": "LK3JRElOJmGs9_jUmDvLc8XJNRQ=", "properties": {"ref": "IC48252", "@spider": "mcdonalds_th", "addr:full": "No. 59/15 , 1st Floor , Moo 10 , Pratamnak Road , Tambon Nong Prue , Banglamung, Chonburi 20150 .", "name": "VC PATTAYA", "phone": "038-410-914, 038-410-915", "opening_hours": "24/7", "brand": "McDonald's"}, "geometry": {"type": "Point", "coordinates": [100.873429, 12.924447]}},
{"type": "Feature", "id": "YRLK2Xy-5i-KZSH3LjK0i00vGiQ=", "properties": {"ref": "IC48253", "@spider": "mcdonalds_th", "addr:full": "No. 19/11 Moo 7 Tambon Yang Tan, Nakhon Sawan , Thailand 60170 .", "name": "PTT NAKHONSAWAN (DRIVE-THRU)", "phone": "056-247-230, 056-247-231", "opening_hours": "24/7", "brand": "McDonald's"}, "geometry": {"type": "Point", "coordinates": [100.124304, 15.576192]}},
{"type": "Feature", "id": "5f3ZpW5iHzcurFfBtHq7OnVwsCY=", "properties": {"ref": "IC48254", "@spider": "mcdonalds_th", "addr:full": "No. 114/894 Moo 5 , Tambon Bang Khu Wat Muang , Pathumthani 12000 .", "name": "PTT 345 OUTBOUND (DRIVE-THRU)", "phone": "02-592-7884, 02-592-7885", "opening_hours": "Mo-Su:05:00-23:00", "brand": "McDonald's"}, "geometry": {"type": "Point", "coordinates": [100.487418, 13.955213]}},
{"type": "Feature", "id": "sK1V6zlRebSK3_vS0FLeqOfUi5U=", "properties": {"ref": "IC48255", "@spider": "mcdonalds_th", "addr:full": "No. 111/14 Moo 10 Tambon Par-dad, Muang Chiangmai, Chaingmai province", "name": "HANGDONG CHIANGMAI (DRIVE-THRU)", "phone": "053-270-751,  053-270-752", "opening_hours": "24/7", "brand": "McDonald's"}, "geometry": {"type": "Point", "coordinates": [98.97223, 18.757987]}},
{"type": "Feature", "id": "n4eaMrOsaiBmW9eMAiyiCTieze8=", "properties": {"ref": "IC48256", "@spider": "mcdonalds_th", "addr:full": "No. 207/3 Ratchadapisek Rd., Dingdang Sub-district, Dindang District Bangkok", "name": "GLAS HAUS RATCHADA 17 (DRIVE-THRU)", "opening_hours": "24/7", "brand": "McDonald's"}, "geometry": {"type": "Point", "coordinates": [100.573728, 13.786174]}},
{"type": "Feature", "id": "g1avPCJv8bRjhEi3NUpoVIgzYWA=", "properties": {"ref": "IC48257", "@spider": "mcdonalds_th", "addr:full": "No. 1010/243 Moo 10, Tambon Nakornsawan Tok, Muang Nakornsawan, Nakornsawan Province", "name": "M-PARK NAKHONSAWAN (DRIVE-THRU)", "opening_hours": "24/7", "brand": "McDonald's"}, "geometry": {"type": "Point", "coordinates": [100.115666, 15.703259]}},
{"type": "Feature", "id": "tliN8ijJM_Z5pRx_UA7zj1MbWWE=", "properties": {"ref": "IC48258", "@spider": "mcdonalds_th", "addr:full": "110 1st Fl.  Parking Building Faculty of Medicine Chiangmai University Intawarorot Rd. Tambon Sriphoom Amphoe Mueangchiangmai Chiangmai Province", "name": "SUANDOK HOSPITAL CHIANGMAI", "phone": "053-289-271, 053-289-272", "opening_hours": "24/7", "brand": "McDonald's"}, "geometry": {"type": "Point", "coordinates": [98.974235, 18.789672]}},
{"type": "Feature", "id": "Qez6D4vdU5BYyXzEMucfZEQD8-8=", "properties": {"ref": "IC48259", "@spider": "mcdonalds_th", "addr:full": "99/19,99/20 Moo2 Tambon Bangtoei Amphoe Sampran Nakornpathom Province 73210", "name": "CENTRAL SALAYA", "phone": "02-429-6993, 02-429-6994", "opening_hours": "Mo-Su:08:00-21:30", "brand": "McDonald's"}, "geometry": {"type": "Point", "coordinates": [100.27651, 13.786923]}},
{"type": "Feature", "id": "ZM0RFKJCfV7Edi0urOfZ_GEfpvs=", "properties": {"ref": "IC48260", "@spider": "mcdonalds_th", "addr:full": "90 Moo5 Kanchanapisek Rd. tambon Bangkhu Wiang Amphoe Bang Kruai Nonthaburi Province 11130", "name": "TESCO BANGYAI", "phone": "02-459-2267, 02-459-2268", "opening_hours": "Mo-Su:08:00-22:00", "brand": "McDonald's"}, "geometry": {"type": "Point", "coordinates": [100.409814, 13.823869]}},
{"type": "Feature", "id": "iR2TRWadWjZNXLmV72ia9sfdKo4=", "properties": {"ref": "IC48261", "@spider": "mcdonalds_th", "addr:full": "359/1 Samakhee Rd. Tambon Thasai Amphoe Mueang nonthaburi Nonthaburi Province", "name": "NICHADA", "phone": "02-585-8138, 02-585-8139", "opening_hours": "Mo-Su:07:00-22:00", "brand": "McDonald's"}, "geometry": {"type": "Point", "coordinates": [100.5223764, 13.884988]}},
{"type": "Feature", "id": "5zjc7Mjve7k7bKVPiW7Cltin5Pc=", "properties": {"ref": "IC48262", "@spider": "mcdonalds_th", "addr:full": "33 Moo1 Tambon Klongkhiong Amphoe Pakkled Nonthaburi Province", "name": "PTT 345 INBOUND (DRIVE-THRU)", "phone": "02-149-0862, 02-149-0863", "opening_hours": "24/7", "brand": "McDonald's"}, "geometry": {"type": "Point", "coordinates": [100.473806, 13.953489]}},
{"type": "Feature", "id": "IG04l41FfstM5LfeD6Sl_af26q4=", "properties": {"ref": "IC48263", "@spider": "mcdonalds_th", "addr:full": "272/4 Moo2 Tambon Lampraya Amphoe Mueang Nakornprathom Nakornprathom Province", "name": "BANGCHAK NAKORNPATHOM INBOUND (DRIVE-THRU)", "phone": "034-273 066, 034-273 067", "opening_hours": "24/7", "brand": "McDonald's"}, "geometry": {"type": "Point", "coordinates": [100.022885, 13.804047]}},
{"type": "Feature", "id": "iXKD_ggUDB8HTU0yLlqj-htPRCU=", "properties": {"ref": "IC48264", "@spider": "mcdonalds_th", "addr:full": "789 Moo2 1st Fl. Tambon Taibanmai Amphoe Mueang Samutprakarn Province", "name": "ROBINSON SAMUTPRAKARN", "phone": "02-174-2770", "opening_hours": "Mo-Su:09:00-22:30", "brand": "McDonald's"}, "geometry": {"type": "Point", "coordinates": [100.594742, 13.642976]}},
{"type": "Feature", "id": "ZLvXXtMAHfBn8C0hRDbnZFuFfy4=", "properties": {"ref": "IC48265", "@spider": "mcdonalds_th", "addr:full": "212/1 Kallaprapruk Rd. Bangwha pasricharoen Bangkok", "name": "METRO WEST TOWN", "phone": "02-496-1868, 02-496-1869", "opening_hours": "24/7", "brand": "McDonald's"}, "geometry": {"type": "Point", "coordinates": [100.451196, 13.708626]}},
{"type": "Feature", "id": "Sais7SP13MTiDzGovbJGoVOO-5Y=", "properties": {"ref": "IC48266", "@spider": "mcdonalds_th", "addr:full": "141 Moo3 Tambon Banwan Amphoe Hangdong Chiangmai Privince", "name": "KAD FARANG CHIANGMAI (DRIVE-THRU)", "phone": "053-441-921, 053-441-922", "opening_hours": "Mo-Su:06:00-22:00", "brand": "McDonald's"}, "geometry": {"type": "Point", "coordinates": [98.93125, 18.700971]}},
{"type": "Feature", "id": "7ophfwW302T4RRFZihHETAOVvmI=", "properties": {"ref": "IC48267", "@spider": "mcdonalds_th", "addr:full": "858 Moo1 Tambonbangpoomai Amphoemueangsamutprakarn Samutprakarn 10280", "name": "MIAMI BANGPOO (DRIVE-THRU)", "phone": "02-323-0880, 02-323-0881", "opening_hours": "Mo-Su:07:00-23:00", "brand": "McDonald's"}, "geometry": {"type": "Point", "coordinates": [100.61994, 13.5412]}},
{"type": "Feature", "id": "De_noWeO2u2ze1OZ9vVjIBkeXDM=", "properties": {"ref": "IC48268", "@spider": "mcdonalds_th", "addr:full": "555/1 petchkasem Rd. Tambon Cha-am Amphoe Cha-am petchburi 76120", "name": "BANGCHAK CHA-AM (DRIVE-THRU)", "phone": "032-430-287, 032-430-288", "opening_hours": "Mo-Su:07:00-22:00", "brand": "McDonald's"}, "geometry": {"type": "Point", "coordinates": [99.939403, 12.821094]}},
{"type": "Feature", "id": "BuXNMFbukKpMcHb9kb32A69vSXA=", "properties": {"ref": "IC48269", "@spider": "mcdonalds_th", "addr:full": "59 praditmanutham Khwaeng Ladprao Khet Ladprao Bangkok 10230", "name": "TESCO RAMINDRA (DRIVE-THRU) - RELOCATED", "phone": "02-538-6690, 02-538-6691", "opening_hours": "24/7", "brand": "McDonald's"}, "geometry": {"type": "Point", "coordinates": [100.614464, 13.801221]}},
{"type": "Feature", "id": "IKCulisxVSdvzMlvfwdcFgqjE20=", "properties": {"ref": "IC48270", "@spider": "mcdonalds_th", "addr:full": "12/2 Moo3 Tambon Bangsaothong Amphoe Wangnoi Ayuttghaya 13170", "name": "PTT WANGNOI AYUDHAYA INBOUND (DRIVE-THRU)", "phone": "035-272-435, 035-272-436", "opening_hours": "24/7", "brand": "McDonald's"}, "geometry": {"type": "Point", "coordinates": [100.643426, 14.193844]}},
{"type": "Feature", "id": "gi02QtLm6Ppxfi17Hssf4OnA_b0=", "properties": {"ref": "IC48271", "@spider": "mcdonalds_th", "addr:full": "8/11 Kanchanapisek Rd. Khwaeng Salathamsop Khet Thaweewattana 10170", "name": "PASEO PARK (DRIVE-THRU)", "phone": "02-111-3809, 02-111-3810", "opening_hours": "24/7", "brand": "McDonald's"}, "geometry": {"type": "Point", "coordinates": [100.407714, 13.77407]}},
{"type": "Feature", "id": "RqSa-MNMtEEWVCCXdNMVgJP0Ckc=", "properties": {"ref": "IC48272", "@spider": "mcdonalds_th", "addr:full": "1142 Kanchanawanitch Rd. Tambon Hatyai Amphoe Hadyai Songkhla Province", "name": "TESCO HADYAI (DRIVE-THRU)", "phone": "074-241-811, 074-241-812", "opening_hours": "24/7", "brand": "McDonald's"}, "geometry": {"type": "Point", "coordinates": [100.491431, 7.00661]}},
{"type": "Feature", "id": "VDR3UbEfAlzzGieQmrVGDPP2TT0=", "properties": {"ref": "IC48273", "@spider": "mcdonalds_th", "addr:full": "97/1 Malaiman Rd. Tambon Thaphiliang Amphoe Mueangsuphanburi Suphanburi Province 72000", "name": "PTT SUPHANBURI (DRIVE-THRU)", "phone": "035-450-160, 035-450-161", "opening_hours": "24/7", "brand": "McDonald's"}, "geometry": {"type": "Point", "coordinates": [100.111453, 14.476018]}},
{"type": "Feature", "id": "WhA992WAweRX0TvWPFtrMsu1k5g=", "properties": {"ref": "IC48274", "@spider": "mcdonalds_th", "addr:full": "R101 1st Fl. Market Village Suwannabhumi 99/29 moo1 Tambol Rachathewa Amphoe Bangphli Samutprakarn Province 10540", "name": "MARKET VILLAGE SVB", "phone": "02-316-6708, 02-316-6709", "opening_hours": "Mo-Su:08:00-23:00", "brand": "McDonald's"}, "geometry": {"type": "Point", "coordinates": [100.711641, 13.632271]}},
{"type": "Feature", "id": "9phyecXluRZrieuKSq8v2yRRL7I=", "properties": {"ref": "IC48275", "@spider": "mcdonalds_th", "addr:full": "248 Moo12 Tambol Aomnoi Amphoekrathumban Samutsakorn Province", "name": "TULIP SQUARE (DRIVE-THRU)", "phone": "02-420-1883, 02-420-1884", "opening_hours": "24/7", "brand": "McDonald's"}, "geometry": {"type": "Point", "coordinates": [100.322233, 13.7048]}},
{"type": "Feature", "id": "euJisyaMcFzJTfyoo_1Wn5HJFg8=", "properties": {"ref": "IC48276", "@spider": "mcdonalds_th", "addr:full": "689 Sukhumvit Rd. Kweang Klongtonnui Khet Wattana Bangkok 10110", "name": "EMQUARTIER", "phone": "02-261-0413, 02-261-0414", "opening_hours": "Mo-Su:10:00-22:00", "brand": "McDonald's"}, "geometry": {"type": "Point", "coordinates": [100.569406, 13.731127]}},
{"type": "Feature", "id": "xFRRWr3LIKtU0xXPds3LC_3wLa4=", "properties": {"ref": "IC48277", "@spider": "mcdonalds_th", "addr:full": "889 Rama1 Rd. Kwang Wangmai Khet Pathumwan Bangkok 10330", "name": "HOLIDAY INN EXPRESS", "phone": "02-214-3519", "opening_hours": "Mo-Su:07:00-14:00", "brand": "McDonald's"}, "geometry": {"type": "Point", "coordinates": [100.527788, 13.746978]}},
{"type": "Feature", "id": "d21Cl6AEy5zu_u4CCsNexv-FxiA=", "properties": {"ref": "IC48278", "@spider": "mcdonalds_th", "addr:full": "9/7 Bannaiwang Rd. Tambon Pakprek Amphoe Thungsong Nakornsrithammarat Province 80110", "name": "PTT THUNGSONG (DRIVE-THRU)", "phone": "075-412-549, 075-412-550", "opening_hours": "Mo-Su:07:00-22:30", "brand": "McDonald's"}, "geometry": {"type": "Point", "coordinates": [99.695924, 8.154954]}},
{"type": "Feature", "id": "_dwwexwYJx1N6CXsn42zvaNhgBU=", "properties": {"ref": "IC48279", "@spider": "mcdonalds_th", "addr:full": "567/84 Moo 10 Tambon Mueangkao Amphoe Mueangkhonkean  Khonkean Province 40000", "name": "WUFOO KHONKAEN (DRIVE-THRU)", "phone": "043-468-549, 043-468-550", "opening_hours": "24/7", "brand": "McDonald's"}, "geometry": {"type": "Point", "coordinates": [102.816084, 16.408924]}},
{"type": "Feature", "id": "zqClTbVkAUNV2yrdGNztjw7kuyc=", "properties": {"ref": "IC48280", "@spider": "mcdonalds_th", "addr:full": "161 Rama9 Rd. Kweang Huaykwang Khet Huaykwang Bangkok 10310", "name": "U PLACE GRAND RAMA 9", "phone": "02-394-2291, 02-394-2292", "opening_hours": "Mo-Su:07:00-21:00", "brand": "McDonald's"}, "geometry": {"type": "Point", "coordinates": [100.56724, 13.756472]}},
{"type": "Feature", "id": "3I-XWbXgZ9_itBYCYbkLDhTe6Kk=", "properties": {"ref": "IC48281", "@spider": "mcdonalds_th", "addr:full": "183/2-4 Moo10 Tambon Nhongprue AmphoeBanglamung Chonburi Province 20150", "name": "PATTAYA POST OFFICE", "phone": "038-415-073, 038-415-074", "opening_hours": "24/7", "brand": "McDonald's"}, "geometry": {"type": "Point", "coordinates": [100.878386, 12.930429]}},
{"type": "Feature", "id": "Up3_7sjQzxLcU97btRB1BBUlHKY=", "properties": {"ref": "IC48282", "@spider": "mcdonalds_th", "addr:full": "539 Moo6 Tambon Makhamkhoo amphoe Nikompattana Rayong 21108", "name": "ESSO RAYONG (DRIVE-THRU)", "phone": "038-917-983,  038-917-984", "opening_hours": "24/7", "brand": "McDonald's"}, "geometry": {"type": "Point", "coordinates": [101.128332, 12.831765]}},
{"type": "Feature", "id": "JMhRrrjaZ0lHEqyuFXcLrJzcfb8=", "properties": {"ref": "IC48283", "@spider": "mcdonalds_th", "addr:full": "111/10 Moo1 Tambon Wangmanao Amphoe Pakthor Ratchaburi 70140", "name": "PTT WANGMANAO (DRIVE-THRU)", "phone": "032-281-872,  032-281-873", "opening_hours": "24/7", "brand": "McDonald's"}, "geometry": {"type": "Point", "coordinates": [99.837738, 13.341979]}},
{"type": "Feature", "id": "V98cxbae5Ay-x73YRKBagiIFc2k=", "properties": {"ref": "IC48284", "@spider": "mcdonalds_th", "addr:full": "88/6 Moo3 Tambon Phudad Amphoe Banpho Chachoengsao", "name": "ESSO BANPHO 1 OUTBOUND (DRIVE-THRU)", "phone": "038-577-107, 038-577-176", "opening_hours": "24/7", "brand": "McDonald's"}, "geometry": {"type": "Point", "coordinates": [101.012873, 13.59201]}},
{"type": "Feature", "id": "UmuM9hmcr5Yi2DLvWskoqy-TK6I=", "properties": {"ref": "IC48285", "@spider": "mcdonalds_th", "addr:full": "54 Ladprao Rd. Kweang jmopol khet Jatujak Bangkok 10900", "name": "UNION MALL", "phone": "02-512-2652, 02-512-2653", "opening_hours": "Mo-Su:11:00-22:00", "brand": "McDonald's"}, "geometry": {"type": "Point", "coordinates": [100.561768, 13.813674]}},
{"type": "Feature", "id": "EaX8RKseW5SZOMFqoBgT0g-56N8=", "properties": {"ref": "IC48286", "@spider": "mcdonalds_th", "addr:full": "76/1-7 Nakornsawan Rd. Tambon Talad Amphoe Mueang Mahasakarm Mahasakarm 44000", "name": "SERM THAI COMPLEX MAHASARAKAM (DRIVE-THRU)", "phone": "043-970-600, 043-970-601", "opening_hours": "24/7", "brand": "McDonald's"}, "geometry": {"type": "Point", "coordinates": [103.276934, 16.201719]}},
{"type": "Feature", "id": "vCVbEvVGeEmqMSyjz20hzTqgHls=", "properties": {"ref": "IC48287", "@spider": "mcdonalds_th", "addr:full": "218/8 Sukhumvit Rd. Tambon Thangkwien Amphoe Klang Rayong 21110", "name": "KLANG RAYONG (DRIVE-THRU)", "phone": "038-677-316, 038-677-317", "opening_hours": "24/7", "brand": "McDonald's"}, "geometry": {"type": "Point", "coordinates": [101.66502, 12.7866]}},
{"type": "Feature", "id": "98GDdIynEa1OaeX777svlUmdip8=", "properties": {"ref": "IC48288", "@spider": "mcdonalds_th", "addr:full": "34 Moo9 Tambon Bangphliyai Amphoe Bangphli Samutprakarn 10540", "name": "BIG C BANGPHLI (DRIVE-THRU)", "phone": "02-312-1041, 02-312-1042", "opening_hours": "24/7", "brand": "McDonald's"}, "geometry": {"type": "Point", "coordinates": [100.707671, 13.603373]}},
{"type": "Feature", "id": "CcKY4PIor5iHVOsVFqs1BZkDx-E=", "properties": {"ref": "IC48289", "@spider": "mcdonalds_th", "addr:full": "5 Ratchada rd, Chomtong  Amphoe Jatujak  Bangkok 10900", "name": "SUANLUM NIGHT BAZAAR RATCHADA", "phone": "06-1402-1927", "opening_hours": "Mo-Su:12:00-21:00", "brand": "McDonald's"}, "geometry": {"type": "Point", "coordinates": [100.574406, 13.80313]}},
{"type": "Feature", "id": "3_xD-x4THG7-ApmDY8tGqqLz-F4=", "properties": {"ref": "IC48290", "@spider": "mcdonalds_th", "addr:full": "444/8 Moo 15, Isan, Muang Buriram, Buriram 31000", "name": "BURIRAM'S CASTLE (DRIVE-THRU)", "phone": "044-600-820, 044-600-821", "opening_hours": "Mo-Su:10:00-22:00", "brand": "McDonald's"}, "geometry": {"type": "Point", "coordinates": [103.090534, 14.966141]}},
{"type": "Feature", "id": "Bt7TLOtwVgDp4CZ_c1-OOR9_gNk=", "properties": {"ref": "IC48291", "@spider": "mcdonalds_th", "addr:full": "2 Moo 1, Tasala, Muang Lopburi, Lopburi 15000", "name": "BIG C LOPBURI", "phone": "036-784-401, 036-784-421", "opening_hours": "Mo-Su:09:00-21:30", "brand": "McDonald's"}, "geometry": {"type": "Point", "coordinates": [100.671937, 14.793505]}},
{"type": "Feature", "id": "XsCpwK2Mbb2jUF7LK-hnniAtFPM=", "properties": {"ref": "IC48292", "@spider": "mcdonalds_th", "addr:full": "35/22 Moo 1, Bangkaew, Nakornchaisri, Nakornpathom 73120", "name": "PTT NAKORNCHAISRI (DRIVE-THRU)", "phone": "034-600-820, 034-600-821", "opening_hours": "24/7", "brand": "McDonald's"}, "geometry": {"type": "Point", "coordinates": [100.165329, 13.80192]}},
{"type": "Feature", "id": "mjYB5NuT3RnmUurAfRL3Fa5kJWQ=", "properties": {"ref": "IC48293", "@spider": "mcdonalds_th", "addr:full": "199/1 Moo 1, Nongnamdaeng, Pakchong, Nakornratchasima 30130", "name": "BANGCHAK PAKCHONG (DRIVE-THRU)", "phone": "044-935-652, 044-935-65", "opening_hours": "24/7", "brand": "McDonald's"}, "geometry": {"type": "Point", "coordinates": [101.357604, 14.651367]}},
{"type": "Feature", "id": "7z0C9Pfz6U019hzGtynZKOW3AJU=", "properties": {"ref": "IC48294", "@spider": "mcdonalds_th", "addr:full": "1242/2 Mittrapap Road, Naimuang, Muang Nakorn Ratchasima, Nakorn Ratchasima 30000", "name": "THE MALL KORAT 2", "phone": "044-393-448", "opening_hours": "Mo-Su:10:00-22:00", "brand": "McDonald's"}, "geometry": {"type": "Point", "coordinates": [102.076114, 14.980149]}},
{"type": "Feature", "id": "unNipVcjiZjoKBQioJFL18PFG-g=", "properties": {"ref": "IC48295", "@spider": "mcdonalds_th", "addr:full": "94 Moo 18 Bangpueng, Muang Prapradaeng, Samutprakarn 10130", "name": "BIG C SUKSAWAT", "phone": "02-463-3031, 02-463-3032", "opening_hours": "Mo-Su:09:00-23:00", "brand": "McDonald's"}, "geometry": {"type": "Point", "coordinates": [100.522425, 13.654046]}},
{"type": "Feature", "id": "7Sx5pIrh1vY1XpkQE7FiuX2uFpY=", "properties": {"ref": "IC48296", "@spider": "mcdonalds_th", "addr:full": "56 Moo 1 Bangkrabue, Samkok, Pathumthani 12160", "name": "PTT WESTERN RINGROAD 3-KOK (DRIVE-THRU)", "phone": "02-023-7075, 02-023-7076", "opening_hours": "24/7", "brand": "McDonald's"}, "geometry": {"type": "Point", "coordinates": [100.531427, 14.108696]}}]}