{"type":"FeatureCollection","features":[{"type": "Feature", "id": "CV-f_l2RZ2Pzm8c1IrpYPqX6G2k=", "properties": {"ref": "2884", "@spider": "mcdonalds_at", "addr:full": "Pottendorferstra\u00dfe 45", "addr:city": "Wr.", "addr:postcode": "2700", "name": "McDonald's", "phone": "02622/26401", "brand": "McDonald's"}, "geometry": {"type": "Point", "coordinates": [16.251837, 47.829018]}},
{"type": "Feature", "id": "5GMukd1Hm-Hqti77Gm9HnbGS54c=", "properties": {"ref": "2872", "@spider": "mcdonalds_at", "addr:full": "Shopping City S\u00fcd - Parkplatz / Westring", "addr:city": "V\u00f6sendorf", "addr:postcode": "2334", "name": "McDonald's", "phone": "01/699 44 42", "brand": "McDonald's"}, "geometry": {"type": "Point", "coordinates": [16.316097, 48.112587]}},
{"type": "Feature", "id": "xRFMBqqhsHWwNamHT5ANKM1CfzA=", "properties": {"ref": "2876", "@spider": "mcdonalds_at", "addr:full": "Franz-Reisch-Stra\u00dfe 7", "addr:city": "Kitzb\u00fchel", "addr:postcode": "6370", "name": "McDonald's", "phone": "05356/714 30", "brand": "McDonald's"}, "geometry": {"type": "Point", "coordinates": [12.3898, 47.4459]}},
{"type": "Feature", "id": "lv0GnxJ28ws0AFdAR6DQQrPiaYQ=", "properties": {"ref": "2878", "@spider": "mcdonalds_at", "addr:full": "Alpenstra\u00dfe 112", "addr:city": "Salzburg", "addr:postcode": "5020", "name": "McDonald's", "phone": "+43 0662 625536", "brand": "McDonald's"}, "geometry": {"type": "Point", "coordinates": [13.068038, 47.774761]}},
{"type": "Feature", "id": "OuqXt-53olGsze0n5GKqNjmELp0=", "properties": {"ref": "2882", "@spider": "mcdonalds_at", "addr:full": "Hernalser G\u00fcrtel 82 A - 87, Stadtbahnb\u00f6gen", "addr:city": "Wien", "addr:postcode": "1090", "name": "McDonald's", "phone": "01/408 29 00", "brand": "McDonald's"}, "geometry": {"type": "Point", "coordinates": [16.341574, 48.216301]}},
{"type": "Feature", "id": "A2HTINXv8SvxejTU6j8HBIguKt0=", "properties": {"ref": "2870", "@spider": "mcdonalds_at", "addr:full": "Europabr\u00fccke-Parkplatz 1", "addr:city": "Sch\u00f6nberg", "addr:postcode": "6141", "name": "McDonald's", "phone": "05225/625 75", "brand": "McDonald's"}, "geometry": {"type": "Point", "coordinates": [11.39716, 47.196598]}},
{"type": "Feature", "id": "irzi9VHh2nk_YBVGU2LCLAst35I=", "properties": {"ref": "2880", "@spider": "mcdonalds_at", "addr:full": "Singerstra\u00dfe 4", "addr:city": "Wien", "addr:postcode": "1010", "name": "McDonald's", "phone": "01/513 92 79", "brand": "McDonald's"}, "geometry": {"type": "Point", "coordinates": [16.372374, 48.207664]}},
{"type": "Feature", "id": "BttB-W9vk4TKdfCe_03NK0rAtZk=", "properties": {"ref": "2874", "@spider": "mcdonalds_at", "addr:full": "Hadikgasse 254", "addr:city": "Wien", "addr:postcode": "1140", "name": "McDonald's", "phone": "01/914 335 0", "brand": "McDonald's"}, "geometry": {"type": "Point", "coordinates": [16.275846, 48.192936]}},
{"type": "Feature", "id": "B3Jh00s8N8aFq8gf6SgeuG4EME0=", "properties": {"ref": "2868", "@spider": "mcdonalds_at", "addr:full": "Wagramer Stra\u00dfe 54", "addr:city": "Wien", "addr:postcode": "1220", "name": "McDonald's", "phone": "01 / 203 93 55 11", "brand": "McDonald's"}, "geometry": {"type": "Point", "coordinates": [16.431065, 48.239582]}},
{"type": "Feature", "id": "EZvc0LVOeMkOtJyWWn10Z4MbGgk=", "properties": {"ref": "2856", "@spider": "mcdonalds_at", "addr:full": "Simmeringer Hauptstra\u00dfe 113", "addr:city": "Wien", "addr:postcode": "1110", "name": "McDonald's", "phone": "0664 / 887 180 40", "brand": "McDonald's"}, "geometry": {"type": "Point", "coordinates": [16.417097, 48.173862]}},
{"type": "Feature", "id": "lIA902WNeJfckwPsCk71vI-I1TQ=", "properties": {"ref": "2852", "@spider": "mcdonalds_at", "addr:full": "Wilhelmstra\u00dfe 64", "addr:city": "Wien", "addr:postcode": "1120", "name": "McDonald's", "phone": "01/815 76 95", "brand": "McDonald's"}, "geometry": {"type": "Point", "coordinates": [16.331057, 48.174854]}},
{"type": "Feature", "id": "voqbNdJupyZklxvZAIGIwXIOfmU=", "properties": {"ref": "2858", "@spider": "mcdonalds_at", "addr:full": "Rotenturmstra\u00dfe 29", "addr:city": "Wien", "addr:postcode": "1010", "name": "McDonald's", "phone": "01/533 20 72", "brand": "McDonald's"}, "geometry": {"type": "Point", "coordinates": [16.375935, 48.211796]}},
{"type": "Feature", "id": "Z93Qu_-_s4-RQIwhpD55bvNsgDA=", "properties": {"ref": "2854", "@spider": "mcdonalds_at", "addr:full": "Johannesgasse 3", "addr:city": "Wien", "addr:postcode": "1010", "name": "McDonald's", "phone": "01/513 17 22", "brand": "McDonald's"}, "geometry": {"type": "Point", "coordinates": [16.372101, 48.2052]}},
{"type": "Feature", "id": "22e3Ay-FS8IpzlZUvCxttfjvKyY=", "properties": {"ref": "2864", "@spider": "mcdonalds_at", "addr:full": "Getreidegasse 26", "addr:city": "Salzburg", "addr:postcode": "5020", "name": "McDonald's", "phone": "0662/84 09 23 11", "brand": "McDonald's"}, "geometry": {"type": "Point", "coordinates": [13.041978, 47.800102]}},
{"type": "Feature", "id": "ENazWRtt7tWRlO4pxnNp19HZSwM=", "properties": {"ref": "2866", "@spider": "mcdonalds_at", "addr:full": "Jakominiplatz 18", "addr:city": "Graz", "addr:postcode": "8010", "name": "McDonald's", "phone": "0664 / 969 16 83", "brand": "McDonald's"}, "geometry": {"type": "Point", "coordinates": [15.441539, 47.066689]}},
{"type": "Feature", "id": "qO3AGxOFVplUc2WUeZZtU6u83mE=", "properties": {"ref": "2860", "@spider": "mcdonalds_at", "addr:full": "Landstra\u00dfe 71 -75", "addr:city": "Linz", "addr:postcode": "4020", "name": "McDonald's", "phone": "0732/65 32 98", "brand": "McDonald's"}, "geometry": {"type": "Point", "coordinates": [14.291737, 48.298306]}},
{"type": "Feature", "id": "ueAHAFcSkEoABNmoRwT4u8Qyfx8=", "properties": {"ref": "25971", "@spider": "mcdonalds_at", "addr:full": "Jedletzbergerstra\u00dfe 7", "addr:city": "Wien", "addr:postcode": "1110", "name": "McDonald's", "brand": "McDonald's"}, "geometry": {"type": "Point", "coordinates": [16.4583548, 48.171073]}},
{"type": "Feature", "id": "PkPIn7y1iqsE_UA_p1HoyV5a0Y0=", "properties": {"ref": "20507", "@spider": "mcdonalds_at", "addr:full": "Goldenberg 36", "addr:city": "Eferding", "addr:postcode": "4070", "name": "McDonald's", "brand": "McDonald's"}, "geometry": {"type": "Point", "coordinates": [14.03862, 48.293318]}},
{"type": "Feature", "id": "T17f6rLBlcZSZXavHJdOG_PyOkM=", "properties": {"ref": "22969", "@spider": "mcdonalds_at", "addr:full": "A2 Raststation F\u00f6hrenberg", "addr:city": "Bad", "addr:postcode": "2721", "name": "McDonald's", "phone": "02622 42773", "brand": "McDonald's"}, "geometry": {"type": "Point", "coordinates": [16.18314134, 47.8489964]}},
{"type": "Feature", "id": "BhtWsP9vC-NM4MoBRI_p35LGDxE=", "properties": {"ref": "20292", "@spider": "mcdonalds_at", "addr:full": "Hauptstra\u00dfe 1", "addr:city": "Zams", "addr:postcode": "6511", "name": "McDonald's", "phone": "+43 5442 64306", "brand": "McDonald's"}, "geometry": {"type": "Point", "coordinates": [10.582094, 47.15264]}},
{"type": "Feature", "id": "3Ydq-bvX_bCpoiDjlCCiQFnAKD4=", "properties": {"ref": "15725", "@spider": "mcdonalds_at", "addr:full": "Mariahilferstra\u00dfe 22 - 24", "addr:city": "Wien", "addr:postcode": "1070", "name": "McDonald's", "phone": "01/523 14 45", "brand": "McDonald's"}, "geometry": {"type": "Point", "coordinates": [16.357262, 48.200768]}},
{"type": "Feature", "id": "Uj_AWH8tJLkAsmWTCQ5XJBhmX-M=", "properties": {"ref": "20006", "@spider": "mcdonalds_at", "addr:full": "St.P\u00f6ltner Stra\u00dfe 43", "addr:city": "Neulengbach", "addr:postcode": "3040", "name": "McDonald's", "phone": "027 72/53 59 0", "brand": "McDonald's"}, "geometry": {"type": "Point", "coordinates": [15.89033, 48.19438]}},
{"type": "Feature", "id": "rLpCqA7kzLWQA-HrHM5EHTSiXOs=", "properties": {"ref": "18880", "@spider": "mcdonalds_at", "addr:full": "Seestadtstra\u00dfe 4", "addr:city": "Wien", "addr:postcode": "1220", "name": "McDonald's", "phone": "01 / 280 22 63 7233", "brand": "McDonald's"}, "geometry": {"type": "Point", "coordinates": [16.504753, 48.216122]}},
{"type": "Feature", "id": "brfjrM7EQ8EOtGLZSrJMekH13Ls=", "properties": {"ref": "16865", "@spider": "mcdonalds_at", "addr:full": "Wiener Stra\u00dfe 96-102 (im B\u00fchl-Center)", "addr:city": "Krems", "addr:postcode": "3500", "name": "McDonald's", "phone": "02732 85081", "brand": "McDonald's"}, "geometry": {"type": "Point", "coordinates": [15.6193238, 48.4161051]}},
{"type": "Feature", "id": "mnJDh0j0ucpXNMIRkWWMP45upwY=", "properties": {"ref": "16867", "@spider": "mcdonalds_at", "addr:full": "Bergland Center 5", "addr:city": "Bergland", "addr:postcode": "3254", "name": "McDonald's", "phone": "07412 54900", "brand": "McDonald's"}, "geometry": {"type": "Point", "coordinates": [15.106465, 48.161134]}},
{"type": "Feature", "id": "VVyb2zE6Ih2kT3vTok2b6s-cWh8=", "properties": {"ref": "12999", "@spider": "mcdonalds_at", "addr:full": "S\u00e4gerstra\u00dfe 102", "addr:city": "Lustenau", "addr:postcode": "6890", "name": "McDonald's", "phone": "05577/63330", "brand": "McDonald's"}, "geometry": {"type": "Point", "coordinates": [9.672174, 47.41866]}},
{"type": "Feature", "id": "RuxKnR10xHSMTNlGao_DcgyRw5M=", "properties": {"ref": "13813", "@spider": "mcdonalds_at", "addr:full": "McDonald\u00b4s Stra\u00dfe 1", "addr:city": "St.", "addr:postcode": "8642", "name": "McDonald's", "phone": "0660 / 46 10 131", "brand": "McDonald's"}, "geometry": {"type": "Point", "coordinates": [15.346244, 47.4688297]}},
{"type": "Feature", "id": "nfFSBypbMrfPB6Qdz3klN-lHtA0=", "properties": {"ref": "12944", "@spider": "mcdonalds_at", "addr:full": "Salzburger Stra\u00dfe 62", "addr:city": "Stra\u00dfwalchen", "addr:postcode": "5204", "name": "McDonald's", "phone": "06215/20418", "brand": "McDonald's"}, "geometry": {"type": "Point", "coordinates": [13.24993, 47.97147]}},
{"type": "Feature", "id": "WAdICr010JoIB87tXrjICnaWET8=", "properties": {"ref": "8844", "@spider": "mcdonalds_at", "addr:full": "Ausstellungsstra\u00dfe 44a", "addr:city": "Wien", "addr:postcode": "1020", "name": "McDonald's", "phone": "0664 88662762", "brand": "McDonald's"}, "geometry": {"type": "Point", "coordinates": [16.4058113, 48.21741]}},
{"type": "Feature", "id": "dBSphnG5wDSFP88T-EfVnRHWpo4=", "properties": {"ref": "11200", "@spider": "mcdonalds_at", "addr:full": "Mariazeller Stra\u00dfe 93", "addr:city": "St.", "addr:postcode": "3100", "name": "McDonald's", "phone": "02742 / 7866111", "brand": "McDonald's"}, "geometry": {"type": "Point", "coordinates": [15.61789, 48.18903]}},
{"type": "Feature", "id": "lrCRK-Uf6tJ7HW1lTabZGzllq4U=", "properties": {"ref": "9837", "@spider": "mcdonalds_at", "addr:full": "Wiener Bundesstra\u00dfe 151", "addr:city": "Traun", "addr:postcode": "4050", "name": "McDonald's", "phone": "07229/640 61", "brand": "McDonald's"}, "geometry": {"type": "Point", "coordinates": [14.2340442, 48.2345099]}},
{"type": "Feature", "id": "jElSIJUjdv6eVXdq3ecwJY1e5iQ=", "properties": {"ref": "11591", "@spider": "mcdonalds_at", "addr:full": "Eco Plus Park 2. Stra\u00dfe 1", "addr:city": "Bruck", "addr:postcode": "2460", "name": "McDonald's", "phone": "0664 / 88662775", "brand": "McDonald's"}, "geometry": {"type": "Point", "coordinates": [16.804977, 48.03376]}},
{"type": "Feature", "id": "adyL2D1X0-grtFiexDKen_nEBh4=", "properties": {"ref": "8820", "@spider": "mcdonalds_at", "addr:full": "Villacher Str. 113", "addr:city": "Spittal", "addr:postcode": "9800", "name": "McDonald's", "phone": "+43 4762 44166", "brand": "McDonald's"}, "geometry": {"type": "Point", "coordinates": [13.5228405, 46.7866346]}},
{"type": "Feature", "id": "T69UdG9jwhkP7G0VZnVMOnv77QA=", "properties": {"ref": "8729", "@spider": "mcdonalds_at", "addr:full": "Autobahn A10, Raststation Golling", "addr:city": "Golling", "addr:postcode": "5440", "name": "McDonald's", "phone": "06244/20503", "brand": "McDonald's"}, "geometry": {"type": "Point", "coordinates": [13.156625, 47.583269]}},
{"type": "Feature", "id": "heo_WDkx6nhUC-zeAs-6r3CczUA=", "properties": {"ref": "8815", "@spider": "mcdonalds_at", "addr:full": "Wiener Stra\u00dfe 4", "addr:city": "Frauenhofen/Horn", "addr:postcode": "3580", "name": "McDonald's", "phone": "02982/30304", "brand": "McDonald's"}, "geometry": {"type": "Point", "coordinates": [15.634125, 48.665384]}},
{"type": "Feature", "id": "6-Ahqk5ImIQFJJ6ZfbCzc5TxrDo=", "properties": {"ref": "8141", "@spider": "mcdonalds_at", "addr:full": "A2 Richtung Graz", "addr:city": "Bad", "addr:postcode": "2721", "name": "McDonald's", "phone": "02639/22401", "brand": "McDonald's"}, "geometry": {"type": "Point", "coordinates": [16.1814371, 47.8332048]}},
{"type": "Feature", "id": "zUkXVbERrSq5dtAqLbpIbh7NawY=", "properties": {"ref": "8599", "@spider": "mcdonalds_at", "addr:full": "S\u00fcdtirolerplatz, EG Top 151", "addr:city": "Wien", "addr:postcode": "1100", "name": "McDonald's", "phone": "01/600 56 28", "brand": "McDonald's"}, "geometry": {"type": "Point", "coordinates": [16.3764509, 48.1852203]}},
{"type": "Feature", "id": "h9Wq3U5UESUGXGEKgaWx-dYpLXI=", "properties": {"ref": "3227", "@spider": "mcdonalds_at", "addr:full": "Zehnerg\u00fcrtel 12-24 (EKZ Fischapark)", "addr:city": "Wiener", "addr:postcode": "2700", "name": "McDonald's", "phone": "02622/26840", "brand": "McDonald's"}, "geometry": {"type": "Point", "coordinates": [16.217016, 47.819378]}},
{"type": "Feature", "id": "ij_EdePeuZp-A9IqcKQ_E8lGYeA=", "properties": {"ref": "3220", "@spider": "mcdonalds_at", "addr:full": "Favoritenstrasse 89", "addr:city": "Wien", "addr:postcode": "1100", "name": "McDonald's", "phone": "01/6077071", "brand": "McDonald's"}, "geometry": {"type": "Point", "coordinates": [16.376097, 48.179886]}},
{"type": "Feature", "id": "oqrBLPEmrqfwsV-VeEy5vcuvQ8M=", "properties": {"ref": "3223", "@spider": "mcdonalds_at", "addr:full": "Hadikgasse 62", "addr:city": "Wien", "addr:postcode": "1140", "name": "McDonald's", "phone": "01 892 07 19", "brand": "McDonald's"}, "geometry": {"type": "Point", "coordinates": [16.303738, 48.188416]}},
{"type": "Feature", "id": "9LP3Ln1wIu1NEDxncTItd0luDWg=", "properties": {"ref": "3225", "@spider": "mcdonalds_at", "addr:full": "A1 - Autobahnstation Bergheim-Kasern", "addr:city": "Bergheim", "addr:postcode": "5101", "name": "McDonald's", "phone": "0662/661021", "brand": "McDonald's"}, "geometry": {"type": "Point", "coordinates": [13.06504, 47.830917]}},
{"type": "Feature", "id": "hKhBCwdts5LWuQXpX30BPjlqPsc=", "properties": {"ref": "3213", "@spider": "mcdonalds_at", "addr:full": "Rautenweg 2", "addr:city": "Wien", "addr:postcode": "1220", "name": "McDonald's", "phone": "01/2562199", "brand": "McDonald's"}, "geometry": {"type": "Point", "coordinates": [16.455765, 48.264122]}},
{"type": "Feature", "id": "dW-8SU7nwg0JCHH76lnunqnLwSc=", "properties": {"ref": "3214", "@spider": "mcdonalds_at", "addr:full": "Brucker Bundesstra\u00dfe 6", "addr:city": "Schwechat", "addr:postcode": "2320", "name": "McDonald's", "phone": "01/707 87 45", "brand": "McDonald's"}, "geometry": {"type": "Point", "coordinates": [16.492992, 48.135448]}},
{"type": "Feature", "id": "Uavg-E1NbFI5X30dRVvBuuFq49A=", "properties": {"ref": "3219", "@spider": "mcdonalds_at", "addr:full": "Anton Hermann Stra\u00dfe 1", "addr:city": "Feldkirchen", "addr:postcode": "8073", "name": "McDonald's", "phone": "06649683700", "brand": "McDonald's"}, "geometry": {"type": "Point", "coordinates": [15.439795, 47.008327]}},
{"type": "Feature", "id": "t9a_MSob9bALPM2qC1u_qOk8dyM=", "properties": {"ref": "3217", "@spider": "mcdonalds_at", "addr:full": "EKZ Passage 22/Bundesstra\u00dfe 24", "addr:city": "Rankweil", "addr:postcode": "6830", "name": "McDonald's", "phone": "05522/82622", "brand": "McDonald's"}, "geometry": {"type": "Point", "coordinates": [9.616135, 47.273491]}},
{"type": "Feature", "id": "HL5kQq8XDJtd55Y6nkJ0EUAGQCg=", "properties": {"ref": "3210", "@spider": "mcdonalds_at", "addr:full": "S\u00fcdtirolerplatz, Shop 2.125 / Shop 1.132", "addr:city": "Wien", "addr:postcode": "1040", "name": "McDonald's", "phone": "01 5032288", "brand": "McDonald's"}, "geometry": {"type": "Point", "coordinates": [16.375025, 48.186115]}},
{"type": "Feature", "id": "Au2y4Lj9-lX1ZkN4DNXMMdLW7GE=", "properties": {"ref": "3207", "@spider": "mcdonalds_at", "addr:full": "EKZ Gerasdorf G3, G3 Platz 1", "addr:city": "Gerasdorf", "addr:postcode": "2201", "name": "McDonald's", "phone": "0664 / 8866 2774", "brand": "McDonald's"}, "geometry": {"type": "Point", "coordinates": [16.461468, 48.343727]}},
{"type": "Feature", "id": "9V3kT3753DwRU44jjQjaF12Zpf4=", "properties": {"ref": "3209", "@spider": "mcdonalds_at", "addr:full": "Albert-Schweitzer Gasse 6", "addr:city": "Wien", "addr:postcode": "1140", "name": "McDonald's", "phone": "01/979 18 33", "brand": "McDonald's"}, "geometry": {"type": "Point", "coordinates": [16.221163, 48.207066]}},
{"type": "Feature", "id": "QQK7KTpo7mKdFEVgDkffyUAeDbM=", "properties": {"ref": "3205", "@spider": "mcdonalds_at", "addr:full": "Landstra\u00dfer Hauptstra\u00dfe 1B, EZ Wien Mitte", "addr:city": "Wien", "addr:postcode": "1030", "name": "McDonald's", "phone": "01 / 710 17 25", "brand": "McDonald's"}, "geometry": {"type": "Point", "coordinates": [16.384773, 48.206345]}},
{"type": "Feature", "id": "F9fao17vsVvkorqUl_kG1fpFxvM=", "properties": {"ref": "3197", "@spider": "mcdonalds_at", "addr:full": "Gewerbestra\u00dfe 7", "addr:city": "Mondsee", "addr:postcode": "5310", "name": "McDonald's", "phone": "06232/203680", "brand": "McDonald's"}, "geometry": {"type": "Point", "coordinates": [13.332223, 47.859203]}},
{"type": "Feature", "id": "Ifdq6xrZF9zqEqcNvrqYx5DUAQs=", "properties": {"ref": "3198", "@spider": "mcdonalds_at", "addr:full": "Gewerbestra\u00dfe 4", "addr:city": "Parndorf", "addr:postcode": "7111", "name": "McDonald's", "phone": "02166/22642", "brand": "McDonald's"}, "geometry": {"type": "Point", "coordinates": [16.84989, 47.979939]}},
{"type": "Feature", "id": "agJyY3HtY_94A7WGqmQsw8Y3564=", "properties": {"ref": "3203", "@spider": "mcdonalds_at", "addr:full": "Radingdorf 11", "addr:city": "Unterweitersdorf", "addr:postcode": "4210", "name": "McDonald's", "phone": "07236 20 651", "brand": "McDonald's"}, "geometry": {"type": "Point", "coordinates": [14.480291, 48.359712]}},
{"type": "Feature", "id": "YRisw_CnlypDgopS1ZS3kIG3i9E=", "properties": {"ref": "3200", "@spider": "mcdonalds_at", "addr:full": "SCS Food Plaza - Eingang 9", "addr:city": "V\u00f6sendorf", "addr:postcode": "2334", "name": "McDonald's", "phone": "01/699 83 83 11", "brand": "McDonald's"}, "geometry": {"type": "Point", "coordinates": [16.318531, 48.108704]}},
{"type": "Feature", "id": "rQhzAkDojwsb42OOoHId61ia1lw=", "properties": {"ref": "3191", "@spider": "mcdonalds_at", "addr:full": "Taborstra\u00dfe 39", "addr:city": "Wien", "addr:postcode": "1020", "name": "McDonald's", "phone": "01/212 62 59", "brand": "McDonald's"}, "geometry": {"type": "Point", "coordinates": [16.380783, 48.219345]}},
{"type": "Feature", "id": "GkhaNsvD76f435vwoqsS2YiZ1-M=", "properties": {"ref": "3193", "@spider": "mcdonalds_at", "addr:full": "Wiener Gasse 10", "addr:city": "Klagenfurt", "addr:postcode": "9020", "name": "McDonald's", "phone": "0676 898 388 803", "brand": "McDonald's"}, "geometry": {"type": "Point", "coordinates": [14.308836, 46.626633]}},
{"type": "Feature", "id": "To2esg-6yYbfICSlNDiiF8Bl1TI=", "properties": {"ref": "3195", "@spider": "mcdonalds_at", "addr:full": "Objekt 115", "addr:city": "Schwechat/Wien", "addr:postcode": "1300", "name": "McDonald's", "phone": "0664 / 887 180 43", "brand": "McDonald's"}, "geometry": {"type": "Point", "coordinates": [16.562231, 48.119686]}},
{"type": "Feature", "id": "0WLNDGLQvSt1zkqLWiCZRW2hr6o=", "properties": {"ref": "3184", "@spider": "mcdonalds_at", "addr:full": "Dr. Karl-Renner Stra\u00dfe 58", "addr:city": "Enns", "addr:postcode": "4470", "name": "McDonald's", "phone": "07223 81630", "brand": "McDonald's"}, "geometry": {"type": "Point", "coordinates": [14.459326, 48.216324]}},
{"type": "Feature", "id": "tAGBDa40rxaLYfoAPP7F7Ef_nYw=", "properties": {"ref": "3183", "@spider": "mcdonalds_at", "addr:full": "Europastra\u00dfe 2", "addr:city": "Gleisdorf", "addr:postcode": "8200", "name": "McDonald's", "phone": "0664 8466789", "brand": "McDonald's"}, "geometry": {"type": "Point", "coordinates": [15.703378, 47.108345]}},
{"type": "Feature", "id": "lGfYlofPaT3s33xsHLyFo6ugLHg=", "properties": {"ref": "3189", "@spider": "mcdonalds_at", "addr:full": "Volksfeststra\u00dfe 4", "addr:city": "Rohrbach", "addr:postcode": "4150", "name": "McDonald's", "phone": "07289 209260", "brand": "McDonald's"}, "geometry": {"type": "Point", "coordinates": [13.980963, 48.566971]}},
{"type": "Feature", "id": "MQjsBeGudY9FrdxfWg3jgJWvLtU=", "properties": {"ref": "3187", "@spider": "mcdonalds_at", "addr:full": "Amraserseestrasse 56b", "addr:city": "Innsbruck", "addr:postcode": "6020", "name": "McDonald's", "phone": "0512/34 85 92", "brand": "McDonald's"}, "geometry": {"type": "Point", "coordinates": [11.428589, 47.262863]}},
{"type": "Feature", "id": "98KwSZdTo1h2uH74D4aXC21TOuA=", "properties": {"ref": "3181", "@spider": "mcdonalds_at", "addr:full": "Mariahilfer G\u00fcrtel, Europaplatz 2 OB 1.26", "addr:city": "Wien", "addr:postcode": "1150", "name": "McDonald's", "phone": "01/962 1597 11", "brand": "McDonald's"}, "geometry": {"type": "Point", "coordinates": [16.338154, 48.196194]}},
{"type": "Feature", "id": "GHByre9BvWE1CVXyGR4uaVmHADo=", "properties": {"ref": "3178", "@spider": "mcdonalds_at", "addr:full": "S\u00fcdtiroler Platz 5", "addr:city": "Innsbruck/Bahnhof", "addr:postcode": "6020", "name": "McDonald's", "phone": "0512/560 210", "brand": "McDonald's"}, "geometry": {"type": "Point", "coordinates": [11.400387, 47.263535]}},
{"type": "Feature", "id": "IN-dSYc-zrakc4p6BA1_tSsLEhw=", "properties": {"ref": "3174", "@spider": "mcdonalds_at", "addr:full": "Hornerstra\u00dfe 101a", "addr:city": "Stockerau", "addr:postcode": "2000", "name": "McDonald's", "phone": "02266 / 619 11", "brand": "McDonald's"}, "geometry": {"type": "Point", "coordinates": [16.179567, 48.388966]}},
{"type": "Feature", "id": "06h2clan6vy7vpag7ouoV13IlLU=", "properties": {"ref": "3176", "@spider": "mcdonalds_at", "addr:full": "Bl\u00fctenstra\u00dfe 13-23", "addr:city": "Linz/Lentia", "addr:postcode": "4040", "name": "McDonald's", "phone": "0664 / 886 627 91", "brand": "McDonald's"}, "geometry": {"type": "Point", "coordinates": [14.283233, 48.314205]}},
{"type": "Feature", "id": "OpBiP9anQyYAQ_2Wfa1pPWNeGVA=", "properties": {"ref": "3172", "@spider": "mcdonalds_at", "addr:full": "Museumstra\u00dfe 38", "addr:city": "Innsbruck", "addr:postcode": "6020", "name": "McDonald's", "phone": "0512 / 563 233", "brand": "McDonald's"}, "geometry": {"type": "Point", "coordinates": [11.403652, 47.266159]}},
{"type": "Feature", "id": "vz6y5AXTYCt1_fZ5giYO3v0ADNA=", "properties": {"ref": "3168", "@spider": "mcdonalds_at", "addr:full": "Rivergate / Handelskai 92", "addr:city": "Wien", "addr:postcode": "1200", "name": "McDonald's", "phone": "0664 / 88432241", "brand": "McDonald's"}, "geometry": {"type": "Point", "coordinates": [16.384235, 48.242016]}},
{"type": "Feature", "id": "oF-ZnILZXEsrpEHsQHnM539RU20=", "properties": {"ref": "3170", "@spider": "mcdonalds_at", "addr:full": "Bahnhofplatz 1/Top 8+9", "addr:city": "St.", "addr:postcode": "3100", "name": "McDonald's", "phone": "02742 / 356 434-0", "brand": "McDonald's"}, "geometry": {"type": "Point", "coordinates": [15.62586, 48.207863]}},
{"type": "Feature", "id": "RGFt1OXMGcnjpbsuVYnAD9RGYQo=", "properties": {"ref": "3164", "@spider": "mcdonalds_at", "addr:full": "IGP 19 S\u00fcd", "addr:city": "V\u00f6lkermarkt", "addr:postcode": "9100", "name": "McDonald's", "phone": "0676 898 388 816", "brand": "McDonald's"}, "geometry": {"type": "Point", "coordinates": [14.676511287689, 46.682435664766]}},
{"type": "Feature", "id": "w2Rsy70G8656moOg3DM-V-NxiEQ=", "properties": {"ref": "3166", "@spider": "mcdonalds_at", "addr:full": "Raststation A5 S\u00fcd", "addr:city": "Hochleithen", "addr:postcode": "2123", "name": "McDonald's", "phone": "02245/89 100", "brand": "McDonald's"}, "geometry": {"type": "Point", "coordinates": [16.548662, 48.425789]}},
{"type": "Feature", "id": "juOsH5TnPIZmicllb7dKa4q1WJA=", "properties": {"ref": "3162", "@spider": "mcdonalds_at", "addr:full": "Untermarktstra\u00dfe 45", "addr:city": "Telfs", "addr:postcode": "6410", "name": "McDonald's", "phone": "05262 / 63 231", "brand": "McDonald's"}, "geometry": {"type": "Point", "coordinates": [11.075742, 47.307365]}},
{"type": "Feature", "id": "k9ygKF_OAPtKMIFmJ1azN5g49k0=", "properties": {"ref": "3158", "@spider": "mcdonalds_at", "addr:full": "Pilgrambr\u00fccke 1", "addr:city": "Wien", "addr:postcode": "1050", "name": "McDonald's", "phone": "0664 88645964", "brand": "McDonald's"}, "geometry": {"type": "Point", "coordinates": [16.354597, 48.192844]}},
{"type": "Feature", "id": "z_cPcGuUuzTginnYvYepvo2bYww=", "properties": {"ref": "3160", "@spider": "mcdonalds_at", "addr:full": "Bahnhofplatz 3-6", "addr:city": "Linz", "addr:postcode": "4020", "name": "McDonald's", "phone": "0664 / 88662792", "brand": "McDonald's"}, "geometry": {"type": "Point", "coordinates": [14.29119, 48.290535]}},
{"type": "Feature", "id": "U3SpveMZTR9WBqVnxZ7IljW_tUk=", "properties": {"ref": "3152", "@spider": "mcdonalds_at", "addr:full": "Arenaplatz 5", "addr:city": "Mattersburg", "addr:postcode": "7210", "name": "McDonald's", "phone": "02626 / 620 84 21", "brand": "McDonald's"}, "geometry": {"type": "Point", "coordinates": [16.419722, 47.747456]}},
{"type": "Feature", "id": "gIKFl-kml__gU7h7g4we68Vchb0=", "properties": {"ref": "3154", "@spider": "mcdonalds_at", "addr:full": "Ennsling 160", "addr:city": "Haus", "addr:postcode": "8967", "name": "McDonald's", "phone": "03686 / 28 505", "brand": "McDonald's"}, "geometry": {"type": "Point", "coordinates": [13.779279, 47.411583]}},
{"type": "Feature", "id": "-nCvX76tO1RI0Q3OfD_qAar65hI=", "properties": {"ref": "3144", "@spider": "mcdonalds_at", "addr:full": "S\u00fcdtiroler Platz 13, Forum 1", "addr:city": "Salzburg", "addr:postcode": "5020", "name": "McDonald's", "phone": "0662/4511540", "brand": "McDonald's"}, "geometry": {"type": "Point", "coordinates": [13.044674, 47.813885]}},
{"type": "Feature", "id": "8KeCpTyNsWa7nybrUYt73tkh8ys=", "properties": {"ref": "3148", "@spider": "mcdonalds_at", "addr:full": "Haidcenter Top 70/Ikeaplatz 4", "addr:city": "Haid", "addr:postcode": "4053", "name": "McDonald's", "phone": "0722/979309", "brand": "McDonald's"}, "geometry": {"type": "Point", "coordinates": [14.247057, 48.195583]}},
{"type": "Feature", "id": "kX5W9qVSfH7tzbLebf7doXPkrmk=", "properties": {"ref": "3150", "@spider": "mcdonalds_at", "addr:full": "Asamerstra\u00dfe 1", "addr:city": "Vorchdorf", "addr:postcode": "4655", "name": "McDonald's", "phone": "7614/200 40", "brand": "McDonald's"}, "geometry": {"type": "Point", "coordinates": [13.923459, 48.010811]}},
{"type": "Feature", "id": "az3jf8Yw_NgZ0bf_2UQKDZoEWN0=", "properties": {"ref": "3142", "@spider": "mcdonalds_at", "addr:full": "Prof. Ferry Porsche Stra\u00dfe 4", "addr:city": "Zell", "addr:postcode": "5700", "name": "McDonald's", "phone": "06542/72401", "brand": "McDonald's"}, "geometry": {"type": "Point", "coordinates": [12.79426, 47.294678]}},
{"type": "Feature", "id": "24QMLtph-0pLBRa_-LKVavvh-wY=", "properties": {"ref": "3136", "@spider": "mcdonalds_at", "addr:full": "Murpark, Ostbahnstra\u00dfe 3", "addr:city": "Graz", "addr:postcode": "8041", "name": "McDonald's", "phone": "0664 / 969 16 81", "brand": "McDonald's"}, "geometry": {"type": "Point", "coordinates": [15.4652, 47.040699]}},
{"type": "Feature", "id": "-Lj_rE1e-pUT3vnHg6FUJc2IPc0=", "properties": {"ref": "3134", "@spider": "mcdonalds_at", "addr:full": "Atrio Villach, K\u00e4rntner Stra\u00dfe 34", "addr:city": "Villach", "addr:postcode": "9500", "name": "McDonald's", "phone": "04242/225 55 60", "brand": "McDonald's"}, "geometry": {"type": "Point", "coordinates": [13.83613, 46.595455]}},
{"type": "Feature", "id": "g4km0FmPRrvzDGgUuPSkhfk9xKo=", "properties": {"ref": "3138", "@spider": "mcdonalds_at", "addr:full": "Kinostra\u00dfe 4", "addr:city": "Wals", "addr:postcode": "5071", "name": "McDonald's", "phone": "0662/85 48 80", "brand": "McDonald's"}, "geometry": {"type": "Point", "coordinates": [12.988466, 47.7929]}},
{"type": "Feature", "id": "ZkDXOMOWAKOZc_2NxbU-s2BryCo=", "properties": {"ref": "3132", "@spider": "mcdonalds_at", "addr:full": "Raststation Walserberg S\u00fcd", "addr:city": "Walserberg", "addr:postcode": "5071", "name": "McDonald's", "phone": "+43 662 85655612", "brand": "McDonald's"}, "geometry": {"type": "Point", "coordinates": [12.9481, 47.767899]}},
{"type": "Feature", "id": "SplcFLyyFvBwVQBqPxMmO_pizpc=", "properties": {"ref": "3140", "@spider": "mcdonalds_at", "addr:full": "Praterstern-Bahnhof Nord", "addr:city": "Wien", "addr:postcode": "1020", "name": "McDonald's", "phone": "01 212 08 70", "brand": "McDonald's"}, "geometry": {"type": "Point", "coordinates": [16.391859, 48.218086]}},
{"type": "Feature", "id": "sCkGa2djMWuLsw_Pr2zynLW6mQI=", "properties": {"ref": "3128", "@spider": "mcdonalds_at", "addr:full": "Carl Zuckmayerstra\u00dfe 1", "addr:city": "Salzburg", "addr:postcode": "5020", "name": "McDonald's", "phone": "0662 / 452 010 11", "brand": "McDonald's"}, "geometry": {"type": "Point", "coordinates": [13.057216, 47.829395]}},
{"type": "Feature", "id": "UT98xLIWWNXVLQL7xnq_nUpdIco=", "properties": {"ref": "3130", "@spider": "mcdonalds_at", "addr:full": "Liesinger Platz 1", "addr:city": "Wien", "addr:postcode": "1230", "name": "McDonald's", "phone": "01/865 29 64-11", "brand": "McDonald's"}, "geometry": {"type": "Point", "coordinates": [16.2833, 48.1353]}},
{"type": "Feature", "id": "ophYxSaDBSHdK6HfdRcsRJOGL2U=", "properties": {"ref": "3126", "@spider": "mcdonalds_at", "addr:full": "Innsbrucker Stra\u00dfe 56", "addr:city": "W\u00f6rgl", "addr:postcode": "6300", "name": "McDonald's", "phone": "05332/705 54", "brand": "McDonald's"}, "geometry": {"type": "Point", "coordinates": [12.057398, 47.482075]}},
{"type": "Feature", "id": "R9RZjX_PGb9rneSYMJpXXZ2qmYI=", "properties": {"ref": "3122", "@spider": "mcdonalds_at", "addr:full": "Hauptbahnhof / Europaplatz 4", "addr:city": "Graz", "addr:postcode": "8020", "name": "McDonald's", "phone": "0664 / 969 16 82", "brand": "McDonald's"}, "geometry": {"type": "Point", "coordinates": [15.417033, 47.072723]}},
{"type": "Feature", "id": "W8XuWHa1mE2TTibxv2K28-xDoJI=", "properties": {"ref": "3120", "@spider": "mcdonalds_at", "addr:full": "Shoppingcity Seiersberg 3", "addr:city": "Seiersberg-Pirka", "addr:postcode": "8055", "name": "McDonald's", "phone": "0664 / 840 43 97", "brand": "McDonald's"}, "geometry": {"type": "Point", "coordinates": [15.413945, 47.014137]}},
{"type": "Feature", "id": "9K1WhSWI75D5CtxL3mi0_-ovuKM=", "properties": {"ref": "3124", "@spider": "mcdonalds_at", "addr:full": "Pl\u00fcddemanngasse 62", "addr:city": "Graz", "addr:postcode": "8010", "name": "McDonald's", "phone": "0664 / 840 43 98", "brand": "McDonald's"}, "geometry": {"type": "Point", "coordinates": [15.464682, 47.063942]}},
{"type": "Feature", "id": "k1yhX4UqAIkHFFF7_HmpdIu88sM=", "properties": {"ref": "3116", "@spider": "mcdonalds_at", "addr:full": "Favoritenstrasse 130", "addr:city": "Wien", "addr:postcode": "1100", "name": "McDonald's", "phone": "01/607 37 51", "brand": "McDonald's"}, "geometry": {"type": "Point", "coordinates": [16.377634, 48.175072]}},
{"type": "Feature", "id": "Ps7rltoqysaf-rrKCFJZxpRSgRI=", "properties": {"ref": "3118", "@spider": "mcdonalds_at", "addr:full": "Rosentaler Strasse 129", "addr:city": "Klagenfurt", "addr:postcode": "9020", "name": "McDonald's", "phone": "0676 898 388 804", "brand": "McDonald's"}, "geometry": {"type": "Point", "coordinates": [14.2989, 46.606899]}},
{"type": "Feature", "id": "wWL2kYTlmjX_XXeGoMpzNdMdFxc=", "properties": {"ref": "3112", "@spider": "mcdonalds_at", "addr:full": "Wagramer Stra\u00dfe 81-83, Top 320Donauzentrum", "addr:city": "Wien", "addr:postcode": "1220", "name": "McDonald's", "phone": "0699/190 001 57", "brand": "McDonald's"}, "geometry": {"type": "Point", "coordinates": [16.435022, 48.242504]}},
{"type": "Feature", "id": "nO9jsaa9XRf_hn4v25EBzCyahBY=", "properties": {"ref": "3110", "@spider": "mcdonalds_at", "addr:full": "Wiener Stra\u00dfe 116", "addr:city": "Neusiedl/See", "addr:postcode": "7100", "name": "McDonald's", "phone": "02167/202 08", "brand": "McDonald's"}, "geometry": {"type": "Point", "coordinates": [16.83877, 47.972157]}},
{"type": "Feature", "id": "IRSd09UP1fDSFqumKTu8bdBfSAY=", "properties": {"ref": "3108", "@spider": "mcdonalds_at", "addr:full": "Gasometer A / Shopping Mall Guglgasse 12-14, Top 14/15", "addr:city": "Wien", "addr:postcode": "1110", "name": "McDonald's", "phone": "0664 / 887 180 44", "brand": "McDonald's"}, "geometry": {"type": "Point", "coordinates": [16.417925, 48.1851324]}},
{"type": "Feature", "id": "tuVAEQyDlgdpzwUIrA9Egc4cQpc=", "properties": {"ref": "3114", "@spider": "mcdonalds_at", "addr:full": "Mitterweg 1", "addr:city": "Innsbruck", "addr:postcode": "6020", "name": "McDonald's", "phone": "0512/29 02 30", "brand": "McDonald's"}, "geometry": {"type": "Point", "coordinates": [11.378, 47.259399]}},
{"type": "Feature", "id": "oGV-tL7iJfLnp_gPnBSKAGI5EIM=", "properties": {"ref": "3104", "@spider": "mcdonalds_at", "addr:full": "Margareteng\u00fcrtel 45", "addr:city": "Wien", "addr:postcode": "1050", "name": "McDonald's", "phone": "01 / 5440930", "brand": "McDonald's"}, "geometry": {"type": "Point", "coordinates": [16.351185, 48.179714]}},
{"type": "Feature", "id": "4LO-shEdQUknIY8kjcCKNAWGi0A=", "properties": {"ref": "3100", "@spider": "mcdonalds_at", "addr:full": "Ossiacherstra\u00dfe 4", "addr:city": "St.", "addr:postcode": "9300", "name": "McDonald's", "phone": "0676 898 388 807", "brand": "McDonald's"}, "geometry": {"type": "Point", "coordinates": [14.360273, 46.767056]}},
{"type": "Feature", "id": "_drh8ISQ66KnS8wFOioO07lwsUE=", "properties": {"ref": "3102", "@spider": "mcdonalds_at", "addr:full": "Waidhofner Stra\u00dfe 1, City Center Amstetten", "addr:city": "Amstetten", "addr:postcode": "3300", "name": "McDonald's", "phone": "07472/639 00", "brand": "McDonald's"}, "geometry": {"type": "Point", "coordinates": [14.867842, 48.121449]}},
{"type": "Feature", "id": "7SFwbXIuGA1o39mIOBSDB5CfQyo=", "properties": {"ref": "3096", "@spider": "mcdonalds_at", "addr:full": "Geierau 5", "addr:city": "Haag/Hausruck", "addr:postcode": "4680", "name": "McDonald's", "phone": "07732/461 44", "brand": "McDonald's"}, "geometry": {"type": "Point", "coordinates": [13.642065, 48.199394]}},
{"type": "Feature", "id": "F3mvUesNCzvoD89oMMUSAi0JJ-4=", "properties": {"ref": "3088", "@spider": "mcdonalds_at", "addr:full": "Gewerbestra\u00dfe 10", "addr:city": "Loosdorf", "addr:postcode": "3382", "name": "McDonald's", "phone": "02754/567 81", "brand": "McDonald's"}, "geometry": {"type": "Point", "coordinates": [15.409459, 48.189819]}},
{"type": "Feature", "id": "54MTEqis2wmJY2wnNI5f-hrlHhE=", "properties": {"ref": "3094", "@spider": "mcdonalds_at", "addr:full": "Karlsplatz/U-Bahnpassage, Lokal Nr. 1", "addr:city": "Wien", "addr:postcode": "1010", "name": "McDonald's", "phone": "01/585 30 01", "brand": "McDonald's"}, "geometry": {"type": "Point", "coordinates": [16.3678, 48.201]}},
{"type": "Feature", "id": "6KIPj-q4wY2rRCcl7uwv1sRh360=", "properties": {"ref": "3090", "@spider": "mcdonalds_at", "addr:full": "Eisenfeldstra\u00dfe 2a", "addr:city": "Wels", "addr:postcode": "4600", "name": "McDonald's", "phone": "07242/206 999", "brand": "McDonald's"}, "geometry": {"type": "Point", "coordinates": [14.03863, 48.165974]}},
{"type": "Feature", "id": "CvoxjKi7EuDkt5eVvgtJscZYyIk=", "properties": {"ref": "3086", "@spider": "mcdonalds_at", "addr:full": "Europastra\u00dfe 10", "addr:city": "Hallein", "addr:postcode": "5400", "name": "McDonald's", "phone": "06245/779 11", "brand": "McDonald's"}, "geometry": {"type": "Point", "coordinates": [13.104214, 47.684731]}},
{"type": "Feature", "id": "iL17avIA_2rtZDGGD8f_cqVYDGY=", "properties": {"ref": "3092", "@spider": "mcdonalds_at", "addr:full": "Dr. Adolf Sch\u00e4rf-Stra\u00dfe 12", "addr:city": "St.", "addr:postcode": "3107", "name": "McDonald's", "phone": "02742/266 30", "brand": "McDonald's"}, "geometry": {"type": "Point", "coordinates": [15.638945, 48.221767]}},
{"type": "Feature", "id": "2zjLoRZF1uFIL2Z9pcYMS_stZlM=", "properties": {"ref": "3098", "@spider": "mcdonalds_at", "addr:full": "Diepoldsauer Stra\u00dfe 51", "addr:city": "Hohenems", "addr:postcode": "6845", "name": "McDonald's", "phone": "05576/428 68", "brand": "McDonald's"}, "geometry": {"type": "Point", "coordinates": [9.676279, 47.374374]}},
{"type": "Feature", "id": "gXXHhXqt4Zwhqyx-b7QQGqidn6Y=", "properties": {"ref": "3084", "@spider": "mcdonalds_at", "addr:full": "Wiener Stra\u00dfe 13", "addr:city": "Knittelfeld", "addr:postcode": "8720", "name": "McDonald's", "phone": "0676 / 72 38 757", "brand": "McDonald's"}, "geometry": {"type": "Point", "coordinates": [14.826988, 47.216873]}},
{"type": "Feature", "id": "6jbThltKOrJISwjcqb2K1ZT6T8w=", "properties": {"ref": "3078", "@spider": "mcdonalds_at", "addr:full": "Am Tivoli 1", "addr:city": "Leoben", "addr:postcode": "8700", "name": "McDonald's", "phone": "0676 / 46 99 092", "brand": "McDonald's"}, "geometry": {"type": "Point", "coordinates": [15.088957, 47.376736]}},
{"type": "Feature", "id": "PznYv5gBZuPU4wBldqhEECvv930=", "properties": {"ref": "3082", "@spider": "mcdonalds_at", "addr:full": "7. Haidequerstra\u00dfe 2", "addr:city": "Wien", "addr:postcode": "1110", "name": "McDonald's", "phone": "0664/88389553", "brand": "McDonald's"}, "geometry": {"type": "Point", "coordinates": [16.443731, 48.181973]}},
{"type": "Feature", "id": "NUU2rj929VDFvRNa6YF2z31pb5U=", "properties": {"ref": "3080", "@spider": "mcdonalds_at", "addr:full": "Ludwig von H\u00f6hnel Gasse 15", "addr:city": "Wien", "addr:postcode": "1100", "name": "McDonald's", "phone": "0664/834 16 33", "brand": "McDonald's"}, "geometry": {"type": "Point", "coordinates": [16.386999, 48.159302]}},
{"type": "Feature", "id": "dlY3YPFv1NmeO30Thz_u_gdNniI=", "properties": {"ref": "3072", "@spider": "mcdonalds_at", "addr:full": "Palfengasse 2", "addr:city": "St.", "addr:postcode": "5600", "name": "McDonald's", "phone": "06412/201 21", "brand": "McDonald's"}, "geometry": {"type": "Point", "coordinates": [13.195283, 47.354202]}},
{"type": "Feature", "id": "pYs0uC2Oj2glrx8w4Cb-fdhbmaw=", "properties": {"ref": "3076", "@spider": "mcdonalds_at", "addr:full": "Landwehrstr. 6 (EKZ HUMA)", "addr:city": "Wien", "addr:postcode": "1110", "name": "McDonald's", "phone": "0664 / 887 180 42", "brand": "McDonald's"}, "geometry": {"type": "Point", "coordinates": [16.471764, 48.169453]}},
{"type": "Feature", "id": "47kx1uOHSTxzMkmfOV74OyBsq6A=", "properties": {"ref": "3070", "@spider": "mcdonalds_at", "addr:full": "Wiener Stra\u00dfe 64", "addr:city": "Klosterneuburg", "addr:postcode": "3400", "name": "McDonald's", "phone": "02243/201 50", "brand": "McDonald's"}, "geometry": {"type": "Point", "coordinates": [16.330759, 48.302513]}},
{"type": "Feature", "id": "3gcYsFWYzI2jTVJTd2X8WcCPpvA=", "properties": {"ref": "3068", "@spider": "mcdonalds_at", "addr:full": "Mitschastra\u00dfe 37a", "addr:city": "Mistelbach", "addr:postcode": "2130", "name": "McDonald's", "phone": "02572/ 203 00", "brand": "McDonald's"}, "geometry": {"type": "Point", "coordinates": [16.576908, 48.562885]}},
{"type": "Feature", "id": "SZKUGEdT9w2M2COy31c72CYSA50=", "properties": {"ref": "3066", "@spider": "mcdonalds_at", "addr:full": "Hietzinger Kai 137", "addr:city": "Wien", "addr:postcode": "1130", "name": "McDonald's", "phone": "01/877 94 94", "brand": "McDonald's"}, "geometry": {"type": "Point", "coordinates": [16.2784, 48.191601]}},
{"type": "Feature", "id": "DN403TzCgi4JjTHZVuRsTQlH0yg=", "properties": {"ref": "3056", "@spider": "mcdonalds_at", "addr:full": "Freist\u00e4dterstra\u00dfe 298", "addr:city": "Linz-Dornach", "addr:postcode": "4040", "name": "McDonald's", "phone": "0732/25 01 74", "brand": "McDonald's"}, "geometry": {"type": "Point", "coordinates": [14.312246, 48.328938]}},
{"type": "Feature", "id": "K8D8rpAjyhhHz79BWSinG0dDoO4=", "properties": {"ref": "3058", "@spider": "mcdonalds_at", "addr:full": "Tiroler Stra\u00dfe 24", "addr:city": "Lienz/Osttirol", "addr:postcode": "9900", "name": "McDonald's", "phone": "04852/711 66", "brand": "McDonald's"}, "geometry": {"type": "Point", "coordinates": [12.772283, 46.829655]}},
{"type": "Feature", "id": "VEB8jHg1bpX4KOUccspZ6SCQzJ4=", "properties": {"ref": "3061", "@spider": "mcdonalds_at", "addr:full": "Frauentalerstra\u00dfe 78", "addr:city": "Deutschlandsberg", "addr:postcode": "8530", "name": "McDonald's", "phone": "0664/9691684", "brand": "McDonald's"}, "geometry": {"type": "Point", "coordinates": [15.228687, 46.819374]}},
{"type": "Feature", "id": "z5m5ZzE-wx25ipsMHFjHhML0hwM=", "properties": {"ref": "3062", "@spider": "mcdonalds_at", "addr:full": "Aubauerstra\u00dfe 15", "addr:city": "Gmunden", "addr:postcode": "4810", "name": "McDonald's", "phone": "07612 770 60", "brand": "McDonald's"}, "geometry": {"type": "Point", "coordinates": [13.7857, 47.931194]}},
{"type": "Feature", "id": "TV8dURw8-6Bs9i5CD41Vv60zYt0=", "properties": {"ref": "3064", "@spider": "mcdonalds_at", "addr:full": "Handelskai 130", "addr:city": "Wien", "addr:postcode": "1020", "name": "McDonald's", "phone": "01 / 212 93 58", "brand": "McDonald's"}, "geometry": {"type": "Point", "coordinates": [16.394796, 48.233536]}},
{"type": "Feature", "id": "VFydFAqH88bAld_B_qweDg0Q4OM=", "properties": {"ref": "3050", "@spider": "mcdonalds_at", "addr:full": "Salzburgerstra\u00dfe 224", "addr:city": "Wels-West", "addr:postcode": "4600", "name": "McDonald's", "phone": "07242/441 15", "brand": "McDonald's"}, "geometry": {"type": "Point", "coordinates": [13.987617, 48.153557]}},
{"type": "Feature", "id": "rOH00NpXnUTvhL_Ku0rc4e1ZDl0=", "properties": {"ref": "3048", "@spider": "mcdonalds_at", "addr:full": "Leoganger Stra\u00dfe 16 A", "addr:city": "Saalfelden", "addr:postcode": "5760", "name": "McDonald's", "phone": "06582/720 88", "brand": "McDonald's"}, "geometry": {"type": "Point", "coordinates": [12.843672, 47.429008]}},
{"type": "Feature", "id": "FL1ZhaSM0NO2dvdO9eSNUfqqPsY=", "properties": {"ref": "3052", "@spider": "mcdonalds_at", "addr:full": "Wiener Stra\u00dfe 131-133", "addr:city": "Brunn/Gebirge", "addr:postcode": "2345", "name": "McDonald's", "phone": "02236/352 73", "brand": "McDonald's"}, "geometry": {"type": "Point", "coordinates": [16.3027, 48.112801]}},
{"type": "Feature", "id": "sFwHiMLiQ5P2Rc9Y_j4Sk7j-9dU=", "properties": {"ref": "3042", "@spider": "mcdonalds_at", "addr:full": "Landstra\u00dfe 3 (Taubenmarkt)", "addr:city": "Linz", "addr:postcode": "4020", "name": "McDonald's", "phone": "0732/78 16 22", "brand": "McDonald's"}, "geometry": {"type": "Point", "coordinates": [14.288406, 48.304321]}},
{"type": "Feature", "id": "kOpxPdlUPHaHwv5jrdAa5xDop-s=", "properties": {"ref": "3044", "@spider": "mcdonalds_at", "addr:full": "An der Leopoldauer Stra\u00dfe 49", "addr:city": "Wien", "addr:postcode": "1210", "name": "McDonald's", "phone": "0699/199 901 19", "brand": "McDonald's"}, "geometry": {"type": "Point", "coordinates": [16.411135, 48.260159]}},
{"type": "Feature", "id": "3plsle7q_MQzdkgVka5GZ0HL3Pk=", "properties": {"ref": "3046", "@spider": "mcdonalds_at", "addr:full": "Feldkirchnerstra\u00dfe 128", "addr:city": "Klagenfurt", "addr:postcode": "9020", "name": "McDonald's", "phone": "0676 898 388 809", "brand": "McDonald's"}, "geometry": {"type": "Point", "coordinates": [14.292003, 46.640438]}},
{"type": "Feature", "id": "2DclPxaHC44pE6EBh13Ci7FZfCA=", "properties": {"ref": "3040", "@spider": "mcdonalds_at", "addr:full": "Eggendorfer Stra\u00dfe 4", "addr:city": "Hartberg", "addr:postcode": "8230", "name": "McDonald's", "phone": "03332 / 66644", "brand": "McDonald's"}, "geometry": {"type": "Point", "coordinates": [15.99531, 47.283658]}},
{"type": "Feature", "id": "5ad5yrh5r1QA4imPXr4eqIATUuQ=", "properties": {"ref": "3038", "@spider": "mcdonalds_at", "addr:full": "Innsbrucker Stra\u00dfe 17", "addr:city": "Reutte", "addr:postcode": "6600", "name": "McDonald's", "phone": "05672/732 32", "brand": "McDonald's"}, "geometry": {"type": "Point", "coordinates": [10.724835, 47.482555]}},
{"type": "Feature", "id": "nEkp9Ip66KtXw5uJp-ABnlOqIW4=", "properties": {"ref": "3036", "@spider": "mcdonalds_at", "addr:full": "Lugitschstra\u00dfe 13", "addr:city": "Feldbach", "addr:postcode": "8330", "name": "McDonald's", "phone": "03152/8141", "brand": "McDonald's"}, "geometry": {"type": "Point", "coordinates": [15.882822, 46.956623]}},
{"type": "Feature", "id": "TwzJLp_Dy2VN-Ib5Sj1o9ghPaZE=", "properties": {"ref": "3034", "@spider": "mcdonalds_at", "addr:full": "Passthurnstra\u00dfe 13", "addr:city": "St.", "addr:postcode": "6380", "name": "McDonald's", "phone": "05352/613 33", "brand": "McDonald's"}, "geometry": {"type": "Point", "coordinates": [12.41619, 47.518948]}},
{"type": "Feature", "id": "0h3J-e3nqEmnaKv-btrNvf-_kWg=", "properties": {"ref": "3032", "@spider": "mcdonalds_at", "addr:full": "J. G. Ulmerstra\u00dfe 1", "addr:city": "Dornbirn", "addr:postcode": "6850", "name": "McDonald's", "phone": "05572/271 07", "brand": "McDonald's"}, "geometry": {"type": "Point", "coordinates": [9.740366, 47.426228]}},
{"type": "Feature", "id": "TuwzEZxTFjdcBRn63AtEZI7vwhU=", "properties": {"ref": "3028", "@spider": "mcdonalds_at", "addr:full": "Europastra\u00dfe 3", "addr:city": "Leobersdorf", "addr:postcode": "2544", "name": "McDonald's", "phone": "02256/632 62", "brand": "McDonald's"}, "geometry": {"type": "Point", "coordinates": [16.204748, 47.931324]}},
{"type": "Feature", "id": "Ucr-ErR-J4_Xpbnp3NfPONtAa3k=", "properties": {"ref": "3030", "@spider": "mcdonalds_at", "addr:full": "Schlitters Nr. 27e", "addr:city": "Schlitters", "addr:postcode": "6262", "name": "McDonald's", "phone": "05288/871 70", "brand": "McDonald's"}, "geometry": {"type": "Point", "coordinates": [11.833501, 47.381332]}},
{"type": "Feature", "id": "Qfvka2-TiIRITHPQlOs00xIjfMw=", "properties": {"ref": "3020", "@spider": "mcdonalds_at", "addr:full": "Mariahilfer Stra\u00dfe 85-87", "addr:city": "Wien", "addr:postcode": "1060", "name": "McDonald's", "phone": "01/585 49 49-0", "brand": "McDonald's"}, "geometry": {"type": "Point", "coordinates": [16.348345, 48.197571]}},
{"type": "Feature", "id": "CJP0yyS0DxAPKq9R8akNc7x48FY=", "properties": {"ref": "3024", "@spider": "mcdonalds_at", "addr:full": "Pluskaufstra\u00dfe 7 (Plus City)", "addr:city": "Pasching", "addr:postcode": "4061", "name": "McDonald's", "phone": "0664 / 88 66 27 93", "brand": "McDonald's"}, "geometry": {"type": "Point", "coordinates": [14.235785, 48.243275]}},
{"type": "Feature", "id": "BJX_4LzjgYeZhcku7fclhVhTw18=", "properties": {"ref": "3026", "@spider": "mcdonalds_at", "addr:full": "Friedrich-Thurnerstra\u00dfe 18", "addr:city": "Ried", "addr:postcode": "4910", "name": "McDonald's", "phone": "07752/899 90", "brand": "McDonald's"}, "geometry": {"type": "Point", "coordinates": [13.483068, 48.212658]}},
{"type": "Feature", "id": "xVkZjdduTk9W_eVVkCffKfwV1rU=", "properties": {"ref": "3022", "@spider": "mcdonalds_at", "addr:full": "Fridolin Schr\u00f6pfer-Platz 1", "addr:city": "Bad", "addr:postcode": "4820", "name": "McDonald's", "phone": "06132/211 11", "brand": "McDonald's"}, "geometry": {"type": "Point", "coordinates": [13.6213, 47.710602]}},
{"type": "Feature", "id": "yUsb7eYnXaWrmmd7qGiM8esyNgo=", "properties": {"ref": "3018", "@spider": "mcdonalds_at", "addr:full": "Julius Tandler Platz 3", "addr:city": "Wien", "addr:postcode": "1090", "name": "McDonald's", "phone": "01/315 72 16", "brand": "McDonald's"}, "geometry": {"type": "Point", "coordinates": [16.36124, 48.225727]}},
{"type": "Feature", "id": "AXr7iAT8oa-r_qrEBn6dvK1Yf9Y=", "properties": {"ref": "3016", "@spider": "mcdonalds_at", "addr:full": "Heiligenst\u00e4dterstra\u00dfe 66-68", "addr:city": "Wien", "addr:postcode": "1190", "name": "McDonald's", "phone": "0664 / 8215737", "brand": "McDonald's"}, "geometry": {"type": "Point", "coordinates": [16.361937, 48.243176]}},
{"type": "Feature", "id": "GaaEhhLoVFS-TrxaqNEOpihKVbk=", "properties": {"ref": "3012", "@spider": "mcdonalds_at", "addr:full": "Triesterstr./Friedr. Schwarzottstr.", "addr:city": "Neunkirchen", "addr:postcode": "2620", "name": "McDonald's", "phone": "0676 / 84676230", "brand": "McDonald's"}, "geometry": {"type": "Point", "coordinates": [16.07147, 47.718678]}},
{"type": "Feature", "id": "JSt5McbChO5yAXC4zoQcuMWL2r0=", "properties": {"ref": "3014", "@spider": "mcdonalds_at", "addr:full": "Kaplanweg 8", "addr:city": "Weiz", "addr:postcode": "8160", "name": "McDonald's", "phone": "0664 / 846 67 98", "brand": "McDonald's"}, "geometry": {"type": "Point", "coordinates": [15.638209, 47.206704]}},
{"type": "Feature", "id": "RyBo1wBKiWmDINM2hXHzOA5S_Ug=", "properties": {"ref": "3006", "@spider": "mcdonalds_at", "addr:full": "Stockerauer Stra\u00dfe 183", "addr:city": "Korneuburg", "addr:postcode": "2100", "name": "McDonald's", "phone": "02262/718 47", "brand": "McDonald's"}, "geometry": {"type": "Point", "coordinates": [16.312408, 48.358948]}},
{"type": "Feature", "id": "jxk4uCF3pX9pHB-DiAJK1N5UoPE=", "properties": {"ref": "3010", "@spider": "mcdonalds_at", "addr:full": "Andre Freyskorn-Stra\u00dfe 2", "addr:city": "Zwettl", "addr:postcode": "3910", "name": "McDonald's", "phone": "02822/515 83", "brand": "McDonald's"}, "geometry": {"type": "Point", "coordinates": [15.186856, 48.602093]}},
{"type": "Feature", "id": "BjZtApEZwb-yJ8B9erRBtd3XMtU=", "properties": {"ref": "3008", "@spider": "mcdonalds_at", "addr:full": "Europastra\u00dfe 148/Europark", "addr:city": "Salzburg", "addr:postcode": "5020", "name": "McDonald's", "phone": "0662/42 86 73", "brand": "McDonald's"}, "geometry": {"type": "Point", "coordinates": [13.005838, 47.816124]}},
{"type": "Feature", "id": "ejF0eaRD_68r0f1RNVBKusBBh0w=", "properties": {"ref": "3000", "@spider": "mcdonalds_at", "addr:full": "Promenade 9", "addr:city": "Freistadt", "addr:postcode": "4240", "name": "McDonald's", "phone": "07942/756 80", "brand": "McDonald's"}, "geometry": {"type": "Point", "coordinates": [14.501155, 48.510521]}},
{"type": "Feature", "id": "u37aSDF6MQlX3ao-zwdxSGnVPfo=", "properties": {"ref": "3002", "@spider": "mcdonalds_at", "addr:full": "Langgasse 48", "addr:city": "Imst", "addr:postcode": "6460", "name": "McDonald's", "phone": "05412/632 32", "brand": "McDonald's"}, "geometry": {"type": "Point", "coordinates": [10.7445, 47.230865]}},
{"type": "Feature", "id": "VrxLrYaM8J7Od66VuWagzKRwxHc=", "properties": {"ref": "3004", "@spider": "mcdonalds_at", "addr:full": "Kaiser Ebersdorferstra\u00dfe 322", "addr:city": "Wien", "addr:postcode": "1110", "name": "McDonald's", "phone": "0664 / 887 180 41", "brand": "McDonald's"}, "geometry": {"type": "Point", "coordinates": [16.470924, 48.159328]}},
{"type": "Feature", "id": "s25XQRfKHMbk8-xyUjP9ZTYcWac=", "properties": {"ref": "2990", "@spider": "mcdonalds_at", "addr:full": "Ges\u00e4usestra\u00dfe 1", "addr:city": "Liezen", "addr:postcode": "8940", "name": "McDonald's", "phone": "03612/302 02", "brand": "McDonald's"}, "geometry": {"type": "Point", "coordinates": [14.247388, 47.561447]}},
{"type": "Feature", "id": "-tVe1qr5_gOHx5PjPYLOqTmdeR0=", "properties": {"ref": "2994", "@spider": "mcdonalds_at", "addr:full": "Gschmeidlerstra\u00dfe 14-18", "addr:city": "Hollabrunn", "addr:postcode": "2020", "name": "McDonald's", "phone": "02952/306 20", "brand": "McDonald's"}, "geometry": {"type": "Point", "coordinates": [16.074135, 48.564014]}},
{"type": "Feature", "id": "8xS_43HcBENNBhwb-2KX-19PiDw=", "properties": {"ref": "2996", "@spider": "mcdonalds_at", "addr:full": "Weiberfelderweg 2", "addr:city": "Graz", "addr:postcode": "8054", "name": "McDonald's", "phone": "0664 / 88662790", "brand": "McDonald's"}, "geometry": {"type": "Point", "coordinates": [15.4008, 47.028301]}},
{"type": "Feature", "id": "NrRaNyqilBfFfWmnE0JTFIc1s6g=", "properties": {"ref": "2998", "@spider": "mcdonalds_at", "addr:full": "Kornfeldgasse 12", "addr:city": "Tribuswinkel", "addr:postcode": "2512", "name": "McDonald's", "phone": "02252/458 00", "brand": "McDonald's"}, "geometry": {"type": "Point", "coordinates": [16.275312, 47.990067]}},
{"type": "Feature", "id": "qcGtnIFyGhaslniEXeTUIMFuiVk=", "properties": {"ref": "2992", "@spider": "mcdonalds_at", "addr:full": "Breitenfurterstr. 245-247", "addr:city": "Wien", "addr:postcode": "1230", "name": "McDonald's", "phone": "01/803 64 64", "brand": "McDonald's"}, "geometry": {"type": "Point", "coordinates": [16.301764, 48.152683]}},
{"type": "Feature", "id": "HQCtxnYo8Ka_73nwXTARJ2_DTRI=", "properties": {"ref": "2988", "@spider": "mcdonalds_at", "addr:full": "Nikolaus-August-Otto-Str. 1 / Wiener Str. 128", "addr:city": "Wr.", "addr:postcode": "2700", "name": "McDonald's", "phone": "02622/811 11", "brand": "McDonald's"}, "geometry": {"type": "Point", "coordinates": [16.2463, 47.843899]}},
{"type": "Feature", "id": "WlZOlr9-umDjgDMSzHukOASfjyI=", "properties": {"ref": "2986", "@spider": "mcdonalds_at", "addr:full": "IZ N\u00d6-S\u00fcd, Ecke Stra\u00dfe 1, Stra\u00dfe 6", "addr:city": "Wiener", "addr:postcode": "2351", "name": "McDonald's", "phone": "0043 / 2236 618 49", "brand": "McDonald's"}, "geometry": {"type": "Point", "coordinates": [16.330383, 48.076126]}},
{"type": "Feature", "id": "wta7vtiJw4fnIEj-tVrgKr0aaQc=", "properties": {"ref": "2984", "@spider": "mcdonalds_at", "addr:full": "Rusterstra\u00dfe 147", "addr:city": "Eisenstadt", "addr:postcode": "7000", "name": "McDonald's", "phone": "02682/750 01", "brand": "McDonald's"}, "geometry": {"type": "Point", "coordinates": [16.531519, 47.828495]}},
{"type": "Feature", "id": "hVRf-1q5JeN19F0Or-UO3yw--z4=", "properties": {"ref": "2982", "@spider": "mcdonalds_at", "addr:full": "Kaplanstra\u00dfe 3", "addr:city": "Rum", "addr:postcode": "6063", "name": "McDonald's", "phone": "0512/20 44 50", "brand": "McDonald's"}, "geometry": {"type": "Point", "coordinates": [11.456435, 47.277416]}},
{"type": "Feature", "id": "xjYox-2v8y9DtnOdRTOBXHQirJI=", "properties": {"ref": "2972", "@spider": "mcdonalds_at", "addr:full": "Erlachweg 1", "addr:city": "Braunau", "addr:postcode": "5280", "name": "McDonald's", "phone": "07722/832 24", "brand": "McDonald's"}, "geometry": {"type": "Point", "coordinates": [13.044782, 48.253525]}},
{"type": "Feature", "id": "5I0dXSvYnA_hFn53QqE57Kb_OyM=", "properties": {"ref": "2974", "@spider": "mcdonalds_at", "addr:full": "Industriestra\u00dfe 7", "addr:city": "Vomp", "addr:postcode": "6134", "name": "McDonald's", "phone": "05242/665 76", "brand": "McDonald's"}, "geometry": {"type": "Point", "coordinates": [11.698958, 47.350349]}},
{"type": "Feature", "id": "llGx1x2Vg0NQP1QJohHcMUTg3HQ=", "properties": {"ref": "2976", "@spider": "mcdonalds_at", "addr:full": "Gewerbepark Nord 13", "addr:city": "Gralla", "addr:postcode": "8431", "name": "McDonald's", "phone": "0664/88662797", "brand": "McDonald's"}, "geometry": {"type": "Point", "coordinates": [15.560583, 46.805725]}},
{"type": "Feature", "id": "JPX3EOMmhF2E8_l9yctaxXo68qA=", "properties": {"ref": "2980", "@spider": "mcdonalds_at", "addr:full": "Hamerlingstr. 1", "addr:city": "Linz", "addr:postcode": "4020", "name": "McDonald's", "phone": "0664 88 66 27 94", "brand": "McDonald's"}, "geometry": {"type": "Point", "coordinates": [14.297446, 48.290615]}},
{"type": "Feature", "id": "dIdYseEJPQrLd96R63yfntaSS54=", "properties": {"ref": "2958", "@spider": "mcdonalds_at", "addr:full": "Herzog Friedrich Stra\u00dfe 35", "addr:city": "Innsbruck", "addr:postcode": "6020", "name": "McDonald's", "phone": "0512/56 28 07", "brand": "McDonald's"}, "geometry": {"type": "Point", "coordinates": [11.3936, 47.267502]}},
{"type": "Feature", "id": "gWtLEnd3SOzdiRIE2ziYTjlSlMg=", "properties": {"ref": "2978", "@spider": "mcdonalds_at", "addr:full": "Bahnhofstra\u00dfe 1", "addr:city": "Rosental/Voitsberg", "addr:postcode": "8582", "name": "McDonald's", "phone": "0664/88662798", "brand": "McDonald's"}, "geometry": {"type": "Point", "coordinates": [15.126175, 47.052906]}},
{"type": "Feature", "id": "X5aXZBaIY3FBGbNXKR4Wo8KhPHw=", "properties": {"ref": "2956", "@spider": "mcdonalds_at", "addr:full": "Grazer Stra\u00dfe 19", "addr:city": "F\u00fcrstenfeld", "addr:postcode": "8280", "name": "McDonald's", "phone": "03382/543 54", "brand": "McDonald's"}, "geometry": {"type": "Point", "coordinates": [16.067472, 47.058304]}},
{"type": "Feature", "id": "0gjRONgvWooy992oIilYTCRTAzY=", "properties": {"ref": "2970", "@spider": "mcdonalds_at", "addr:full": "Hauptplatz 8", "addr:city": "Villach", "addr:postcode": "9500", "name": "McDonald's", "phone": "04242/225 55 40", "brand": "McDonald's"}, "geometry": {"type": "Point", "coordinates": [13.847033, 46.614677]}},
{"type": "Feature", "id": "27cb21366j1QHRdv-ZhyTAjNBK0=", "properties": {"ref": "2960", "@spider": "mcdonalds_at", "addr:full": "Richard-Strau\u00df-Str. 2 / Ecke Sterngasse", "addr:city": "Wien", "addr:postcode": "1230", "name": "McDonald's", "phone": "01/6174670", "brand": "McDonald's"}, "geometry": {"type": "Point", "coordinates": [16.342501, 48.1483]}},
{"type": "Feature", "id": "aA_1bYSiM2X-FJTT8lnviTWu9EU=", "properties": {"ref": "2952", "@spider": "mcdonalds_at", "addr:full": "Poschacher Stra\u00dfe 12", "addr:city": "Mauthausen", "addr:postcode": "4310", "name": "McDonald's", "phone": "07238/5680", "brand": "McDonald's"}, "geometry": {"type": "Point", "coordinates": [14.527962, 48.239807]}},
{"type": "Feature", "id": "n5CugK7hstXXJ3BUXdP_QdZr06U=", "properties": {"ref": "2966", "@spider": "mcdonalds_at", "addr:full": "Burggasse 138", "addr:city": "Judenburg", "addr:postcode": "8750", "name": "McDonald's", "phone": "0676 / 46 99 093", "brand": "McDonald's"}, "geometry": {"type": "Point", "coordinates": [14.631542, 47.172153]}},
{"type": "Feature", "id": "k1eXOrKFbBtQkd0EXSIH47-LtHM=", "properties": {"ref": "2954", "@spider": "mcdonalds_at", "addr:full": "Teichstra\u00dfe 3", "addr:city": "Langenrohr", "addr:postcode": "3442", "name": "McDonald's", "phone": "02272/677 13", "brand": "McDonald's"}, "geometry": {"type": "Point", "coordinates": [16.027237, 48.322552]}},
{"type": "Feature", "id": "3eHK2eFqGiuEUWJye8tcQVB6bGg=", "properties": {"ref": "2950", "@spider": "mcdonalds_at", "addr:full": "Hauptstra\u00dfe 3", "addr:city": "Bludenz/B\u00fcrs", "addr:postcode": "6706", "name": "McDonald's", "phone": "05552/300 08", "brand": "McDonald's"}, "geometry": {"type": "Point", "coordinates": [9.814565, 47.151684]}},
{"type": "Feature", "id": "xw4xYv_R46a5j4rKVF32TXw-roI=", "properties": {"ref": "2942", "@spider": "mcdonalds_at", "addr:full": "Kopernikusstra\u00dfe 8", "addr:city": "V\u00f6cklabruck", "addr:postcode": "4840", "name": "McDonald's", "phone": "0767 / 221 307", "brand": "McDonald's"}, "geometry": {"type": "Point", "coordinates": [13.673107, 48.00478]}},
{"type": "Feature", "id": "ttzJeGL-Z_ENr5bNYy_nUFOOm8g=", "properties": {"ref": "2948", "@spider": "mcdonalds_at", "addr:full": "H\u00fctteldorfer Stra\u00dfe 81B/4", "addr:city": "Wien", "addr:postcode": "1150", "name": "McDonald's", "phone": "0664/8466662", "brand": "McDonald's"}, "geometry": {"type": "Point", "coordinates": [16.319983, 48.198853]}},
{"type": "Feature", "id": "cADnTfRRMWD3VgMf0m7eGjW99Pw=", "properties": {"ref": "2944", "@spider": "mcdonalds_at", "addr:full": "Dammstra\u00dfe / B8", "addr:city": "Deutsch-Wagram", "addr:postcode": "2232", "name": "McDonald's", "phone": "0664 / 884 695 91", "brand": "McDonald's"}, "geometry": {"type": "Point", "coordinates": [16.576574, 48.303394]}},
{"type": "Feature", "id": "_XGQ86u16p3VpQrGP9-vxv5M2OE=", "properties": {"ref": "2940", "@spider": "mcdonalds_at", "addr:full": "Grinzinger Allee 3", "addr:city": "Wien", "addr:postcode": "1190", "name": "McDonald's", "phone": "01/328 28 07", "brand": "McDonald's"}, "geometry": {"type": "Point", "coordinates": [16.342239, 48.246517]}},
{"type": "Feature", "id": "2rSUXQI76D0PwTLYEr692exPS-0=", "properties": {"ref": "2936", "@spider": "mcdonalds_at", "addr:full": "Sterneckstra\u00dfe 49", "addr:city": "Salzburg", "addr:postcode": "5020", "name": "McDonald's", "phone": "0662/875 172", "brand": "McDonald's"}, "geometry": {"type": "Point", "coordinates": [13.0616, 47.809799]}},
{"type": "Feature", "id": "xPtTjpmBhVKbWhzyi4uHn1ekGJY=", "properties": {"ref": "2934", "@spider": "mcdonalds_at", "addr:full": "Waidhofner Stra\u00dfe 46", "addr:city": "Amstetten-Greinsfurth", "addr:postcode": "3300", "name": "McDonald's", "phone": "07472/642 80", "brand": "McDonald's"}, "geometry": {"type": "Point", "coordinates": [14.836826, 48.10854]}},
{"type": "Feature", "id": "nVa0kiCzockYFbZhGs-kk6U9UcI=", "properties": {"ref": "2938", "@spider": "mcdonalds_at", "addr:full": "Wiener Stra\u00dfe 335", "addr:city": "Graz", "addr:postcode": "8051", "name": "McDonald's", "phone": "0664 / 846 66 60", "brand": "McDonald's"}, "geometry": {"type": "Point", "coordinates": [15.400177, 47.104416]}},
{"type": "Feature", "id": "m1AUCP96HoQ5HTXOudapbFVBxHw=", "properties": {"ref": "2932", "@spider": "mcdonalds_at", "addr:full": "Einkaufszentrum Cyta/Gie\u00dfenweg 2", "addr:city": "V\u00f6ls", "addr:postcode": "6176", "name": "McDonald's", "phone": "0512/30 36 39", "brand": "McDonald's"}, "geometry": {"type": "Point", "coordinates": [11.323176, 47.257057]}},
{"type": "Feature", "id": "CW6UoX-NbA3e6wZf38vsbGRz7oM=", "properties": {"ref": "2922", "@spider": "mcdonalds_at", "addr:full": "Haider Stra\u00dfe 39", "addr:city": "Ansfelden", "addr:postcode": "4052", "name": "McDonald's", "phone": "07229/820 00", "brand": "McDonald's"}, "geometry": {"type": "Point", "coordinates": [14.279418, 48.211369]}},
{"type": "Feature", "id": "BqzauTO4hy412izrNyuKF8vxeUA=", "properties": {"ref": "2928", "@spider": "mcdonalds_at", "addr:full": "R\u00f6merstra\u00dfe 1", "addr:city": "Eugendorf", "addr:postcode": "5301", "name": "McDonald's", "phone": "06225/7640", "brand": "McDonald's"}, "geometry": {"type": "Point", "coordinates": [13.125164, 47.859444]}},
{"type": "Feature", "id": "pj0T1m_x9BLBZZK7XSquG08k1LA=", "properties": {"ref": "2924", "@spider": "mcdonalds_at", "addr:full": "Rheinstra\u00dfe 6", "addr:city": "Hard", "addr:postcode": "6971", "name": "McDonald's", "phone": "05574/663 66", "brand": "McDonald's"}, "geometry": {"type": "Point", "coordinates": [9.705108, 47.490559]}},
{"type": "Feature", "id": "7fDV2Op6QnEJEgIsfgSjm9rZhzA=", "properties": {"ref": "2918", "@spider": "mcdonalds_at", "addr:full": "Breitenleerstr. S2", "addr:city": "Wien", "addr:postcode": "1220", "name": "McDonald's", "phone": "01/734 59 61", "brand": "McDonald's"}, "geometry": {"type": "Point", "coordinates": [16.470798, 48.250202]}},
{"type": "Feature", "id": "L5AIjoUBg-dtfR4d-55j83zlJms=", "properties": {"ref": "2930", "@spider": "mcdonalds_at", "addr:full": "Rosenheimer Stra\u00dfe 4", "addr:city": "Kufstein", "addr:postcode": "6332", "name": "McDonald's", "phone": "05372/677 70", "brand": "McDonald's"}, "geometry": {"type": "Point", "coordinates": [12.17665, 47.593456]}},
{"type": "Feature", "id": "dzOT8m_bTfiSO1hh7mOQbVA1iuU=", "properties": {"ref": "2920", "@spider": "mcdonalds_at", "addr:full": "Grazer Stra\u00dfe 121", "addr:city": "Oberwart", "addr:postcode": "7400", "name": "McDonald's", "phone": "03352/314 16", "brand": "McDonald's"}, "geometry": {"type": "Point", "coordinates": [16.186424, 47.283249]}},
{"type": "Feature", "id": "ZI4Z_8XUf5v7ORIuUamzlshgD6c=", "properties": {"ref": "2916", "@spider": "mcdonalds_at", "addr:full": "Klagenfurter Stra\u00dfe 39", "addr:city": "Wolfsberg", "addr:postcode": "9400", "name": "McDonald's", "phone": "0676 898 388 817", "brand": "McDonald's"}, "geometry": {"type": "Point", "coordinates": [14.839535, 46.823643]}},
{"type": "Feature", "id": "5p5gXtF7NLe6nn0stFKwuH4-qoM=", "properties": {"ref": "2914", "@spider": "mcdonalds_at", "addr:full": "Br\u00fcnnerstra\u00dfe 170", "addr:city": "Wien", "addr:postcode": "1210", "name": "McDonald's", "phone": "01/292 58 48", "brand": "McDonald's"}, "geometry": {"type": "Point", "coordinates": [16.411858, 48.280624]}},
{"type": "Feature", "id": "BEATr70-fuJsDhAPr48nZmtcBYU=", "properties": {"ref": "2912", "@spider": "mcdonalds_at", "addr:full": "Maria Gailerstr. 35", "addr:city": "Villach", "addr:postcode": "9500", "name": "McDonald's", "phone": "04242/225 55 50", "brand": "McDonald's"}, "geometry": {"type": "Point", "coordinates": [13.865604, 46.605309]}},
{"type": "Feature", "id": "KOaN-kOPAEsPPIM7sspgqYvPbqA=", "properties": {"ref": "2906", "@spider": "mcdonalds_at", "addr:full": "Thaliastra\u00dfe 17", "addr:city": "Wien", "addr:postcode": "1160", "name": "McDonald's", "phone": "01/493 28 75", "brand": "McDonald's"}, "geometry": {"type": "Point", "coordinates": [16.335102, 48.208958]}},
{"type": "Feature", "id": "6AFUmWSQ34sj5jXLbEYNVozBijg=", "properties": {"ref": "2910", "@spider": "mcdonalds_at", "addr:full": "Schlo\u00dfhofer Stra\u00dfe 13 - 15", "addr:city": "Wien", "addr:postcode": "1210", "name": "McDonald's", "phone": "0664 / 882 076 81", "brand": "McDonald's"}, "geometry": {"type": "Point", "coordinates": [16.400484, 48.25753]}},
{"type": "Feature", "id": "22lzvICNWLuK7iQEkkHGl4vh6Hk=", "properties": {"ref": "2902", "@spider": "mcdonalds_at", "addr:full": "Donaustadtstra\u00dfe 49", "addr:city": "Wien", "addr:postcode": "1220", "name": "McDonald's", "phone": "0699/199 000 37", "brand": "McDonald's"}, "geometry": {"type": "Point", "coordinates": [16.444101, 48.220001]}},
{"type": "Feature", "id": "P3r5vYKep6Uc29Oid7P5Qz3ntf4=", "properties": {"ref": "2900", "@spider": "mcdonalds_at", "addr:full": "Ginzkeystra\u00dfe 60", "addr:city": "Wels", "addr:postcode": "4600", "name": "McDonald's", "phone": "07242/568 00", "brand": "McDonald's"}, "geometry": {"type": "Point", "coordinates": [14.06326, 48.179642]}},
{"type": "Feature", "id": "MBOC4AcvRK9sRKnzypbWdFJuSQM=", "properties": {"ref": "2904", "@spider": "mcdonalds_at", "addr:full": "Lauzilgasse 31", "addr:city": "Graz", "addr:postcode": "8020", "name": "McDonald's", "phone": "0664 / 884 680 98", "brand": "McDonald's"}, "geometry": {"type": "Point", "coordinates": [15.430638, 47.045532]}},
{"type": "Feature", "id": "5qvwXR6gwoQLYZTOxt3pGy0uTIY=", "properties": {"ref": "2908", "@spider": "mcdonalds_at", "addr:full": "Wegscheiderstr. 1/GPO I", "addr:city": "Linz", "addr:postcode": "4020", "name": "McDonald's", "phone": "0732/37 15 48", "brand": "McDonald's"}, "geometry": {"type": "Point", "coordinates": [14.282057, 48.254082]}},
{"type": "Feature", "id": "yqyw1onQebPjrWWbN2L6-79k6cQ=", "properties": {"ref": "2898", "@spider": "mcdonalds_at", "addr:full": "Haratzm\u00fcller Stra\u00dfe 76 - 78", "addr:city": "Steyr", "addr:postcode": "4400", "name": "McDonald's", "phone": "07252/432 88", "brand": "McDonald's"}, "geometry": {"type": "Point", "coordinates": [14.433714, 48.04269]}},
{"type": "Feature", "id": "VgzXLM86GdTWB82gRHU_QGya2zk=", "properties": {"ref": "2894", "@spider": "mcdonalds_at", "addr:full": "Universit\u00e4tsring 12", "addr:city": "Wien", "addr:postcode": "1010", "name": "McDonald's", "phone": "01/533 30 21 11", "brand": "McDonald's"}, "geometry": {"type": "Point", "coordinates": [16.362692, 48.213703]}},
{"type": "Feature", "id": "olaa9HBE9oD3XrFjmNltZ4AfDlY=", "properties": {"ref": "2892", "@spider": "mcdonalds_at", "addr:full": "Triester Strasse 70", "addr:city": "Wien", "addr:postcode": "1100", "name": "McDonald's", "phone": "01/667 85 35", "brand": "McDonald's"}, "geometry": {"type": "Point", "coordinates": [16.34647, 48.165237]}},
{"type": "Feature", "id": "eIHEB7G_ZGZZITb4SKLYC9N-BDE=", "properties": {"ref": "2890", "@spider": "mcdonalds_at", "addr:full": "Conrad von H\u00f6tzendorfstra\u00dfe 91", "addr:city": "Graz", "addr:postcode": "8010", "name": "McDonald's", "phone": "0664 / 884 680 99", "brand": "McDonald's"}, "geometry": {"type": "Point", "coordinates": [15.448221, 47.055412]}},
{"type": "Feature", "id": "bYYSoBsLZelSyQnOc39fTvmwmDU=", "properties": {"ref": "2896", "@spider": "mcdonalds_at", "addr:full": "V\u00f6lkermarkter Stra\u00dfe 268", "addr:city": "Klagenfurt", "addr:postcode": "9020", "name": "McDonald's", "phone": "0676 898 388 808", "brand": "McDonald's"}, "geometry": {"type": "Point", "coordinates": [14.354836, 46.629536]}},
{"type": "Feature", "id": "FmIGgKRiy570L6vflMt24l9t4pg=", "properties": {"ref": "2848", "@spider": "mcdonalds_at", "addr:full": "Schwarzenbergplatz 17", "addr:city": "Wien", "addr:postcode": "1010", "name": "McDonald's", "phone": "01/ 505 444 3", "brand": "McDonald's"}, "geometry": {"type": "Point", "coordinates": [16.374096, 48.201122]}},
{"type": "Feature", "id": "_K_fPY_H31Of9Rjok0t-8LV5nh4=", "properties": {"ref": "2888", "@spider": "mcdonalds_at", "addr:full": "Wiener Stra\u00dfe 54", "addr:city": "Bruck", "addr:postcode": "8600", "name": "McDonald's", "phone": "0676 / 46 99 091", "brand": "McDonald's"}, "geometry": {"type": "Point", "coordinates": [15.274275, 47.420795]}}]}