{"type":"FeatureCollection","features":[{"type": "Feature", "id": "mRP-RvCDHo4ACBdmZqp1KmcJGJY=", "properties": {"ref": "5423", "@spider": "mcdonalds_bg", "addr:full": "\u041c\u043e\u043b \u0413\u0430\u043b\u0435\u0440\u0438\u044f \u0411\u0443\u0440\u0433\u0430\u0441, \u0435\u0442.2", "name": "McDonalds", "phone": "0879/ 477\u00a0407", "brand": "McDonald's"}, "geometry": {"type": "Point", "coordinates": [27.453645335382, 42.513176130438]}},
{"type": "Feature", "id": "K8Orf2bgwQtKqwxccyheWzEAzpQ=", "properties": {"ref": "5221", "@spider": "mcdonalds_bg", "addr:full": "\u041c\u0430\u043a\u0434\u043e\u043d\u0430\u043b\u0434\u0441, \u042f\u043c\u0431\u043e\u043b 2", "name": "McDonalds", "phone": "0876/ 839\u00a0777", "brand": "McDonald's"}, "geometry": {"type": "Point", "coordinates": [26.449764940867, 42.544803022417]}},
{"type": "Feature", "id": "v2mz0CxVvU_kEechUXdXCuOZsdQ=", "properties": {"ref": "9353", "@spider": "mcdonalds_bg", "addr:full": "\u0411\u0443\u043b. \u201e\u0421\u043b\u0438\u0432\u043d\u0438\u0446\u0430\u201c 185, \u0414\u0435\u043b\u0442\u0430 \u041f\u043b\u0430\u043d\u0435\u0442 \u041c\u043e\u043b", "name": "McDonalds", "phone": "\u0444\u043e\u043d: 0888/ 403 844", "brand": "McDonald's"}, "geometry": {"type": "Point", "coordinates": [27.8727009, 43.2279336]}},
{"type": "Feature", "id": "nCkTFLnk2Awm5Ov4TpEhsSunFn8=", "properties": {"ref": "9139", "@spider": "mcdonalds_bg", "addr:full": "\u041c\u0430\u043a\u0434\u043e\u043d\u0430\u043b\u0434\u0441 \u041c\u0435\u0436\u0434\u0443\u043d\u0430\u0440\u043e\u0434\u0435\u043d \u043f\u044a\u0442 \u041587, 206\u043a\u043c \u043f\u043e\u0441\u043e\u043a\u0430 \u0411\u0443\u0440\u0433\u0430\u0441 \u0434\u043e \u043a.\u0441.\u0420\u0430\u0432\u0434\u0430", "name": "McDonalds", "phone": "0879/ 903 667", "brand": "McDonald's"}, "geometry": {"type": "Point", "coordinates": [27.687271209662, 42.659239090637]}},
{"type": "Feature", "id": "n_b7ZvnIVGjGpfycJjbARetzztM=", "properties": {"ref": "9149", "@spider": "mcdonalds_bg", "addr:full": "\u0431\u0443\u043b. \u201e\u0411\u043e\u0442\u0435\u0432\u0433\u0440\u0430\u0434\u0441\u043a\u043e \u0448\u043e\u0441\u0435\u201c 525, \u0422\u044a\u0440\u0433\u043e\u0432\u0441\u043a\u0438 \u043a\u043e\u043c\u043f\u043b\u0435\u043a\u0441 \u0414\u0436\u044a\u043c\u0431\u043e \u041f\u043b\u0430\u0437\u0430", "name": "McDonalds", "phone": "0888/ 600 824", "brand": "McDonald's"}, "geometry": {"type": "Point", "coordinates": [23.4574611, 42.7078945]}},
{"type": "Feature", "id": "VPlW_KnYMei2pjPG9YssQ9Bmths=", "properties": {"ref": "9151", "@spider": "mcdonalds_bg", "addr:full": "279-\u043a\u043c \u043d\u0430 \u043c\u0435\u0436\u0434\u0443\u043d\u0430\u0440\u043e\u0434\u0435\u043d \u043f\u044a\u0442 \u041579, \u0434\u043e \u0441. \u0421\u0442\u0443\u0434\u0435\u043d\u0430", "name": "McDonalds", "phone": "0885/ 552 661", "brand": "McDonald's"}, "geometry": {"type": "Point", "coordinates": [23.129546642303, 42.53929522115]}},
{"type": "Feature", "id": "bYQDyzCgaVOFxF8KlngzhnjJgt8=", "properties": {"ref": "1209", "@spider": "mcdonalds_bg", "addr:full": "\u043f\u043b. \u201e\u041f. \u0421\u043b\u0430\u0432\u0435\u0439\u043a\u043e\u0432\u201c / \u0443\u043b. \u0413\u043b\u0430\u0434\u0441\u0442\u043e\u043d 69", "name": "McDonalds", "phone": "0884/ 000 307", "brand": "McDonald's"}, "geometry": {"type": "Point", "coordinates": [23.3239951, 42.6918899]}},
{"type": "Feature", "id": "pUMdxzQjwUUb2ddnUXQT1DfawH0=", "properties": {"ref": "1213", "@spider": "mcdonalds_bg", "addr:full": "\u0431\u0443\u043b. \u201e\u0411\u044a\u043b\u0433\u0430\u0440\u0438\u044f\u201c 1, \u0434\u043e \u041d\u0414\u041a", "name": "McDonalds", "phone": "0884/ 000 305", "brand": "McDonald's"}, "geometry": {"type": "Point", "coordinates": [23.319371938705, 42.68249060742]}},
{"type": "Feature", "id": "fytT7aURzIwqIEMeJrvuNgLtvHI=", "properties": {"ref": "1289", "@spider": "mcdonalds_bg", "addr:full": "\u041b\u0435\u0442\u0438\u0449\u0435 \u0412\u0430\u0440\u043d\u0430", "name": "McDonalds", "phone": "0884/ 988 860", "brand": "McDonald's"}, "geometry": {"type": "Point", "coordinates": [27.8401, 43.2295]}},
{"type": "Feature", "id": "Ka0zgymLDreRxjGZFbV0TZqE0iQ=", "properties": {"ref": "1435", "@spider": "mcdonalds_bg", "addr:full": "\u041c\u0430\u043a\u0434\u043e\u043d\u0430\u043b\u0434\u0441, \u042f\u043c\u0431\u043e\u043b 1", "name": "McDonalds", "brand": "McDonald's"}, "geometry": {"type": "Point", "coordinates": [26.3999963, 42.5322711]}},
{"type": "Feature", "id": "Ybb83Jrm-VO_1rRkU-T0phIWJUA=", "properties": {"ref": "9165", "@spider": "mcdonalds_bg", "addr:full": "\u0431\u0443\u043b. \u201e\u041c\u0430\u0440\u0438\u044f \u041b\u0443\u0438\u0437\u0430\u201c 23", "name": "McDonalds", "phone": "0884/ 000 302", "brand": "McDonald's"}, "geometry": {"type": "Point", "coordinates": [23.32184, 42.69913]}},
{"type": "Feature", "id": "oj2UbhPy3GEE1XJG8PfvRMiEBxM=", "properties": {"ref": "1280", "@spider": "mcdonalds_bg", "addr:full": "\u0431\u0443\u043b. \u201e\u0412\u043b\u0430\u0434\u0438\u0441\u043b\u0430\u0432 \u0412\u0430\u0440\u043d\u0435\u043d\u0447\u0438\u043a\u201c", "name": "McDonalds", "phone": "0884/ 000 303", "brand": "McDonald's"}, "geometry": {"type": "Point", "coordinates": [27.8883552, 43.2191514]}},
{"type": "Feature", "id": "kVfioH3k8rDWq7X7q3F9VXtHDWg=", "properties": {"ref": "1239", "@spider": "mcdonalds_bg", "addr:full": "\u0431\u0443\u043b. \u201e\u0412\u0438\u0442\u043e\u0448\u0430\u201c / \u201e\u0410\u043b\u0430\u0431\u0438\u043d\u201c 48", "name": "McDonalds", "phone": "0884/ 000 306", "brand": "McDonald's"}, "geometry": {"type": "Point", "coordinates": [23.32099199295, 42.694816767493]}},
{"type": "Feature", "id": "TQ0DzhoHz6qU7F0JBI8A4_8In6o=", "properties": {"ref": "1268", "@spider": "mcdonalds_bg", "addr:full": "\u0431\u0443\u043b. \u201e6-\u0442\u0438 \u0441\u0435\u043f\u0442\u0435\u043c\u0432\u0440\u0438\u201c / \u0431\u0443\u043b.\u201c\u0418\u0437\u0442\u043e\u0447\u0435\u043d\u201c", "name": "McDonalds", "phone": "0888/ 444 248", "brand": "McDonald's"}, "geometry": {"type": "Point", "coordinates": [24.763623476028, 42.153517604241]}},
{"type": "Feature", "id": "Eicul_mFjY7hbp_5o5238YB8No4=", "properties": {"ref": "9157", "@spider": "mcdonalds_bg", "addr:full": "\u0436.\u043a. \u041c\u043b\u0430\u0434\u043e\u0441\u0442, \u0431\u0443\u043b. \u201e\u0410\u043b\u0435\u043a\u0441\u0430\u043d\u0434\u044a\u0440 \u041c\u0430\u043b\u0438\u043d\u043e\u0432\u201c", "name": "McDonalds", "phone": "0884/ 000 310", "brand": "McDonald's"}, "geometry": {"type": "Point", "coordinates": [23.375773429871, 42.647359864162]}},
{"type": "Feature", "id": "-r6-lcMG8x_vM9Neos1rLfTYEtU=", "properties": {"ref": "1241", "@spider": "mcdonalds_bg", "addr:full": "\u041e\u043a\u043e\u043b\u043e\u0432\u0440\u044a\u0441\u0442\u0435\u043d \u043f\u044a\u0442", "name": "McDonalds", "phone": "0884/ 000 309", "brand": "McDonald's"}, "geometry": {"type": "Point", "coordinates": [23.290393352509, 42.650263853483]}},
{"type": "Feature", "id": "Wm80Wnk9aUjQJY8Us_mgcOX40Os=", "properties": {"ref": "1274", "@spider": "mcdonalds_bg", "addr:full": "\u041f\u0430\u043d\u043e\u0440\u0430\u043c\u0430 \u041c\u043e\u043b \u041f\u043b\u0435\u0432\u0435\u043d, \u043f\u043b. \u0418\u0432\u0430\u043d \u041c\u0438\u043d\u0434\u0438\u043b\u0438\u043a\u043e\u0432", "name": "McDonalds", "phone": "0884/ 020 758", "brand": "McDonald's"}, "geometry": {"type": "Point", "coordinates": [24.6129477, 43.4197269]}},
{"type": "Feature", "id": "RkwcW5mAIC8vdLCwHaSyJKTSNy0=", "properties": {"ref": "1271", "@spider": "mcdonalds_bg", "addr:full": "\u0443\u043b. \u201e\u041c\u0430\u0433\u0438\u0441\u0442\u0440\u0430\u043b\u043d\u0430\u201c 17", "name": "McDonalds", "phone": "0888/ 611 805", "brand": "McDonald's"}, "geometry": {"type": "Point", "coordinates": [25.616174340248, 43.073069082303]}},
{"type": "Feature", "id": "fGY3w1oF6NxUK7SEBsaBpqUNlBo=", "properties": {"ref": "9167", "@spider": "mcdonalds_bg", "addr:full": "\u0443\u043b. \u201eK\u043d\u044f\u0437 \u0410\u043b\u0435\u043a\u0441\u0430\u043d\u0434\u044a\u0440\u201c 42", "name": "McDonalds", "phone": "0884/ 000 301", "brand": "McDonald's"}, "geometry": {"type": "Point", "coordinates": [24.7490711, 42.1447152]}},
{"type": "Feature", "id": "yaCWo3YlCiuhorkBiJsP1Wac8DQ=", "properties": {"ref": "1244", "@spider": "mcdonalds_bg", "addr:full": "\u041c\u043e\u043b \u0421\u043e\u0444\u0438\u044f, \u0431\u0443\u043b. \u201e\u0410\u043b\u0435\u043a\u0441\u0430\u043d\u0434\u044a\u0440 \u0421\u0442\u0430\u043c\u0431\u043e\u043b\u0438\u0439\u0441\u043a\u0438\u201c 101", "name": "McDonalds", "phone": "0884/ 000 317", "brand": "McDonald's"}, "geometry": {"type": "Point", "coordinates": [23.3084974, 42.6982035]}},
{"type": "Feature", "id": "tIvPSgbiRzA8eVy4I3JqOknDSY8=", "properties": {"ref": "1248", "@spider": "mcdonalds_bg", "addr:full": "\u0431\u0443\u043b. \u201e\u0426\u0430\u0440\u0438\u0433\u0440\u0430\u0434\u0441\u043a\u043e \u0448\u043e\u0441\u0435\u201c, \u0434\u043e \u0421\u043e\u0444\u0438\u044f \u041f\u0440\u0435\u0441", "name": "McDonalds", "phone": "0888/ 542 553", "brand": "McDonald's"}, "geometry": {"type": "Point", "coordinates": [23.379271030426, 42.661775889873]}},
{"type": "Feature", "id": "PplVN-n-hUfbGSXtf1j1T7OE2WM=", "properties": {"ref": "1259", "@spider": "mcdonalds_bg", "addr:full": "\u0443\u043b. \u201eK\u043d\u044f\u0437 \u0410\u043b\u0435\u043a\u0441\u0430\u043d\u0434\u044a\u0440\u201c 42", "name": "McDonalds", "phone": "0884/ 000 301", "brand": "McDonald's"}, "geometry": {"type": "Point", "coordinates": [24.7490711, 42.1447152]}},
{"type": "Feature", "id": "mfPxBQcv3AM4xjyRLwR64cQjX0g=", "properties": {"ref": "1292", "@spider": "mcdonalds_bg", "addr:full": "\u0431\u0443\u043b. \u201e\u0421\u0442\u0435\u0444\u0430\u043d \u0421\u0442\u0430\u043c\u0431\u043e\u043b\u043e\u0432\u201c / \u0431\u0443\u043b. \u201e\u041d\u0438\u043a\u043e\u043b\u0430 \u041f\u0435\u0442\u043a\u043e\u0432\u201c", "name": "McDonalds", "phone": "0884/ 000 308", "brand": "McDonald's"}, "geometry": {"type": "Point", "coordinates": [27.461915016174, 42.51718849672]}},
{"type": "Feature", "id": "O7UwRslGETe-X8HeCsYE4JSbgq4=", "properties": {"ref": "1212", "@spider": "mcdonalds_bg", "addr:full": "\u0431\u0443\u043b. \u201e\u0426\u0430\u0440\u0438\u0433\u0440\u0430\u0434\u0441\u043a\u043e \u0448\u043e\u0441\u0435\u201c 60", "name": "McDonalds", "phone": "0884/ 000 316", "brand": "McDonald's"}, "geometry": {"type": "Point", "coordinates": [23.3830984, 42.6580171]}},
{"type": "Feature", "id": "j6FgrWwCNfUi4lmkEekOVcsiGBA=", "properties": {"ref": "4613", "@spider": "mcdonalds_bg", "addr:full": "\u041c\u0430\u043a\u0434\u043e\u043d\u0430\u043b\u0434\u0441 \u041c\u0435\u0436\u0434\u0443\u043d\u0430\u0440\u043e\u0434\u0435\u043d \u043f\u044a\u0442 \u041587, 206\u043a\u043c \u043f\u043e\u0441\u043e\u043a\u0430 \u0411\u0443\u0440\u0433\u0430\u0441 \u0434\u043e \u043a.\u0441.\u0420\u0430\u0432\u0434\u0430", "name": "McDonalds", "phone": "0879/ 903 667", "brand": "McDonald's"}, "geometry": {"type": "Point", "coordinates": [27.687271209662, 42.659239090637]}},
{"type": "Feature", "id": "Q0tY-83cRMz4JqxnFsO7ZP9YeqM=", "properties": {"ref": "1285", "@spider": "mcdonalds_bg", "addr:full": "\u0413\u0440\u0430\u043d\u0434 \u041c\u043e\u043b \u0412\u0430\u0440\u043d\u0430, \u0443\u043b. \u201e\u0410\u043d\u0434\u0440\u0435\u0439 \u0421\u0430\u0445\u0430\u0440\u043e\u0432\u201c 2", "name": "McDonalds", "phone": "0888/ 220 584", "brand": "McDonald's"}, "geometry": {"type": "Point", "coordinates": [27.8977472, 43.217088]}},
{"type": "Feature", "id": "IIQ_Osx8YH4PRzj1swMfe6jp5Rk=", "properties": {"ref": "9204", "@spider": "mcdonalds_bg", "addr:full": "\u043a.\u043a. \u0421\u043b\u044a\u043d\u0447\u0435\u0432 \u0431\u0440\u044f\u0433, \u0430\u043b\u0435\u044f \u041a\u0443\u0431\u0430\u043d", "name": "McDonalds", "phone": "\u0420\u0435\u0441\u0442\u043e\u0440\u0430\u043d\u0442\u044a\u0442 \u0435 \u0441\u0435\u0437\u043e\u043d\u0435\u043d \u0438 \u043e\u043f\u0435\u0440\u0438\u0440\u0430 \u0432 \u043f\u0435\u0440\u0438\u043e\u0434\u0430 \u043e\u0442 \u043c.\u043c\u0430\u0439 \u0434\u043e \u043c.\u0441\u0435\u043f\u0442\u0435\u043c\u0432\u0440\u0438.", "brand": "McDonald's"}, "geometry": {"type": "Point", "coordinates": [27.709111681445, 42.689970820407]}},
{"type": "Feature", "id": "UDD5rwsNCIJxqd1WDCF47A_pDcI=", "properties": {"ref": "1266", "@spider": "mcdonalds_bg", "addr:full": "M\u0430\u0433\u0438\u0441\u0442\u0440\u0430\u043b\u0430 \u0422\u0440\u0430\u043a\u0438\u044f, 119 \u043a\u043c, \u0434\u043e \u0441. \u0420\u0430\u0434\u0438\u043d\u043e\u0432\u043e", "name": "McDonalds", "phone": "0884/ 443 094", "brand": "McDonald's"}, "geometry": {"type": "Point", "coordinates": [24.64188337326, 42.198973229594]}},
{"type": "Feature", "id": "LxBy65J1g0RyxbapPM-iTH_hIEI=", "properties": {"ref": "1278", "@spider": "mcdonalds_bg", "addr:full": "\u041c\u043e\u043b \u0413\u0430\u043b\u0435\u0440\u0438\u044f \u0421\u0442\u0430\u0440\u0430 \u0417\u0430\u0433\u043e\u0440\u0430, \u043a\u0432. \u201e\u0420\u0435\u043c\u0438\u0437\u0430\u201c, \u0443\u043b.\u201c\u0425\u0430\u043d \u0410\u0441\u043f\u0430\u0440\u0443\u0445\u201c 30", "name": "McDonalds", "phone": "0888/ 554 745", "brand": "McDonald's"}, "geometry": {"type": "Point", "coordinates": [25.6323193, 42.4379101]}},
{"type": "Feature", "id": "0HX8Xjj2QxVjHv7eVlNDjQQZQpE=", "properties": {"ref": "9169", "@spider": "mcdonalds_bg", "addr:full": "\u0431\u0443\u043b. \u201e\u0421\u0430\u043d\u043a\u0442 \u041f\u0435\u0442\u0435\u0440\u0431\u0443\u0440\u0433\u201c 33", "name": "McDonalds", "phone": "0884/ 000 304", "brand": "McDonald's"}, "geometry": {"type": "Point", "coordinates": [24.7637877, 42.1360359]}},
{"type": "Feature", "id": "2VkHT3NxJ938QSfNogPMKU2EToE=", "properties": {"ref": "9206", "@spider": "mcdonalds_bg", "addr:full": "\u043a.\u043a. \u0421\u043b\u044a\u043d\u0447\u0435\u0432 \u0431\u0440\u044f\u0433, \u0445\u043e\u0442\u0435\u043b \u0427\u0430\u0439\u043a\u0430", "name": "McDonalds", "phone": "0878/ 831 699", "brand": "McDonald's"}, "geometry": {"type": "Point", "coordinates": [27.718542382031, 42.703881151429]}},
{"type": "Feature", "id": "Ixlt1_Yb8wSiNE2cQ-C5xLpBb5E=", "properties": {"ref": "1299", "@spider": "mcdonalds_bg", "addr:full": "\u043a.\u043a. \u0421\u043b\u044a\u043d\u0447\u0435\u0432 \u0431\u0440\u044f\u0433, \u0445\u043e\u0442\u0435\u043b \u0427\u0430\u0439\u043a\u0430", "name": "McDonalds", "phone": "\u0420\u0435\u0441\u0442\u043e\u0440\u0430\u043d\u0442\u044a\u0442 \u0435 \u0441\u0435\u0437\u043e\u043d\u0435\u043d \u0438 \u043e\u043f\u0435\u0440\u0438\u0440\u0430 \u0432 \u043f\u0435\u0440\u0438\u043e\u0434\u0430 \u043e\u0442 \u043c.\u043c\u0430\u0439 \u0434\u043e \u043c.\u0441\u0435\u043f\u0442\u0435\u043c\u0432\u0440\u0438.", "brand": "McDonald's"}, "geometry": {"type": "Point", "coordinates": [27.718542382031, 42.703881151429]}},
{"type": "Feature", "id": "1_OUmAVYjXyfib8y8PjKTzGYiMI=", "properties": {"ref": "1298", "@spider": "mcdonalds_bg", "name": "McDonalds", "phone": "\u043a.\u043a. \u0421\u043b\u044a\u043d\u0447\u0435\u0432 \u0431\u0440\u044f\u0433, \u0430\u043b\u0435\u044f \u041f\u0438\u0440\u0438\u043d", "brand": "McDonald's"}, "geometry": {"type": "Point", "coordinates": [27.7130097, 42.6942653]}},
{"type": "Feature", "id": "BtaKWUjQjMA4iEEux7HBRzo6b4Y=", "properties": {"ref": "1300", "@spider": "mcdonalds_bg", "addr:full": "\u043a.\u043a. \u0417\u043b\u0430\u0442\u043d\u0438 \u043f\u044f\u0441\u044a\u0446\u0438, \u0415\u0442\u043d\u043e\u0433\u0440\u0430\u0444\u0441\u043a\u0438 \u0446\u0435\u043d\u0442\u044a\u0440", "name": "McDonalds", "phone": "\u0420\u0435\u0441\u0442\u043e\u0440\u0430\u043d\u0442\u044a\u0442 \u0435 \u0441\u0435\u0437\u043e\u043d\u0435\u043d \u0438 \u043e\u043f\u0435\u0440\u0438\u0440\u0430 \u0432 \u043f\u0435\u0440\u0438\u043e\u0434\u0430 \u043e\u0442 \u043c.\u043c\u0430\u0439 \u0434\u043e \u043c.\u0441\u0435\u043f\u0442\u0435\u043c\u0432\u0440\u0438.", "brand": "McDonald's"}, "geometry": {"type": "Point", "coordinates": [27.91342, 43.20107]}},
{"type": "Feature", "id": "UrpvtDjf1tAiwiVz084Y8ei_SqU=", "properties": {"ref": "1295", "@spider": "mcdonalds_bg", "addr:full": "\u041b\u0435\u0442\u0438\u0449\u0435 \u0411\u0443\u0440\u0433\u0430\u0441", "name": "McDonalds", "phone": "0886/ 996 330", "brand": "McDonald's"}, "geometry": {"type": "Point", "coordinates": [27.5160873, 42.5652706]}},
{"type": "Feature", "id": "nuHrGNqcaO4KiyT3eyNyIio14ZA=", "properties": {"ref": "1262", "@spider": "mcdonalds_bg", "addr:full": "\u041c\u0430\u0433\u0438\u0441\u0442\u0440\u0430\u043b\u0430 \u0422\u0440\u0430\u043a\u0438\u044f, 89 \u043a\u043c", "name": "McDonalds", "phone": "0884/ 000 314", "brand": "McDonald's"}, "geometry": {"type": "Point", "coordinates": [24.3069824, 42.2643917]}},
{"type": "Feature", "id": "cQM2rMCN5wJULyG1nNDuUhBDdic=", "properties": {"ref": "1503", "@spider": "mcdonalds_bg", "name": "McDonalds", "phone": "0882 / 010 044", "brand": "McDonald's"}, "geometry": {"type": "Point", "coordinates": [23.351455, 42.624548]}},
{"type": "Feature", "id": "qJxaQq0vhDL9jMTk8nS_uMvWExE=", "properties": {"ref": "1294", "@spider": "mcdonalds_bg", "addr:full": "\u041c\u043e\u043b \u0411\u0443\u0440\u0433\u0430\u0441, \u0431\u0443\u043b. \u201e\u0422\u0440\u0430\u043d\u0441\u043f\u043e\u0440\u0442\u043d\u0430\u201c", "name": "McDonalds", "phone": "0888/ 770 909", "brand": "McDonald's"}, "geometry": {"type": "Point", "coordinates": [27.4573043, 42.5308635]}},
{"type": "Feature", "id": "tIlwKT6OUa0H1g2KU9ISS7r8P30=", "properties": {"ref": "1296", "@spider": "mcdonalds_bg", "name": "McDonalds", "phone": "\u043a.\u043a. \u0421\u043b\u044a\u043d\u0447\u0435\u0432 \u0431\u0440\u044f\u0433, \u0443\u043b. \u041e\u0441\u043c\u0430\u201c /\u0434\u043e \u0445-\u043b \u201e\u0416\u0435\u0440\u0430\u0432\u0438\u201c/", "brand": "McDonald's"}, "geometry": {"type": "Point", "coordinates": [27.711288, 42.688]}},
{"type": "Feature", "id": "8aNPD09lCdSG58nAstNqlbA6kvc=", "properties": {"ref": "1250", "@spider": "mcdonalds_bg", "addr:full": "\u0431\u0443\u043b. \u201e\u0426\u0430\u0440 \u041e\u0441\u0432\u043e\u0431\u043e\u0434\u0438\u0442\u0435\u043b\u201c 22, \u043f\u043e\u0434\u043b\u0435\u0437 \u0421\u0423", "name": "McDonalds", "phone": "0885/ 552 586", "brand": "McDonald's"}, "geometry": {"type": "Point", "coordinates": [23.3309806, 42.6945259]}},
{"type": "Feature", "id": "7gnCaR0BEMnnIkwGPW_-KrkaOxY=", "properties": {"ref": "1297", "@spider": "mcdonalds_bg", "addr:full": "\u043a.\u043a. \u0421\u043b\u044a\u043d\u0447\u0435\u0432 \u0431\u0440\u044f\u0433, \u0430\u043b\u0435\u044f \u041a\u0443\u0431\u0430\u043d", "name": "McDonalds", "phone": "\u0420\u0435\u0441\u0442\u043e\u0440\u0430\u043d\u0442\u044a\u0442 \u0435 \u0441\u0435\u0437\u043e\u043d\u0435\u043d \u0438 \u043e\u043f\u0435\u0440\u0438\u0440\u0430 \u0432 \u043f\u0435\u0440\u0438\u043e\u0434\u0430 \u043e\u0442 \u043c.\u043c\u0430\u0439 \u0434\u043e \u043c.\u0441\u0435\u043f\u0442\u0435\u043c\u0432\u0440\u0438.", "brand": "McDonald's"}, "geometry": {"type": "Point", "coordinates": [27.709111681445, 42.689970820407]}},
{"type": "Feature", "id": "SpYv5Q5W5R8viNd6judSbpM2ANg=", "properties": {"ref": "9147", "@spider": "mcdonalds_bg", "addr:full": "\u041f\u0430\u0440\u0430\u0434\u0430\u0439\u0441 \u041c\u043e\u043b, \u0431\u0443\u043b. \u201e\u0427\u0435\u0440\u043d\u0438 \u0432\u0440\u044a\u0445\u201c 100", "name": "McDonalds", "phone": "0886/ 818 741", "brand": "McDonald's"}, "geometry": {"type": "Point", "coordinates": [23.3158643, 42.6586161]}},
{"type": "Feature", "id": "Lg-iMA5hWvfH5Xilf0vjETTL968=", "properties": {"ref": "1252", "@spider": "mcdonalds_bg", "addr:full": "\u041f\u0430\u0440\u0430\u0434\u0430\u0439\u0441 \u041c\u043e\u043b, \u0431\u0443\u043b. \u201e\u0427\u0435\u0440\u043d\u0438 \u0432\u0440\u044a\u0445\u201c 100", "name": "McDonalds", "phone": "0886/ 818 741", "brand": "McDonald's"}, "geometry": {"type": "Point", "coordinates": [23.3158643, 42.6586161]}},
{"type": "Feature", "id": "nc75OVipkssGjTOEwTxMzfYMocQ=", "properties": {"ref": "1265", "@spider": "mcdonalds_bg", "addr:full": "\u041c\u043e\u043b \u041f\u043b\u043e\u0432\u0434\u0438\u0432, \u0443\u043b. \u201e\u041f\u0435\u0440\u0443\u0449\u0438\u0446\u0430\u201c 8", "name": "McDonalds", "phone": "0888/ 887 166", "brand": "McDonald's"}, "geometry": {"type": "Point", "coordinates": [24.7191155, 42.1415542]}},
{"type": "Feature", "id": "EVYg5QQQhpWBQFdBA6zkii6vimw=", "properties": {"ref": "1276", "@spider": "mcdonalds_bg", "addr:full": "\u041f\u0430\u0440\u043a \u043c\u043e\u043b \u0421\u0442\u0430\u0440\u0430 \u0417\u0430\u0433\u043e\u0440\u0430, \u0431\u0443\u043b. \u201e\u041d\u0438\u043a\u043e\u043b\u0430 \u041f\u0435\u0442\u043a\u043e\u0432\u201c 52", "name": "McDonalds", "phone": "0884/ 406 446", "brand": "McDonald's"}, "geometry": {"type": "Point", "coordinates": [25.662742853165, 42.426790666709]}},
{"type": "Feature", "id": "6ZaI_nWTWxxJe5j8c0qvq6M1098=", "properties": {"ref": "9159", "@spider": "mcdonalds_bg", "addr:full": "\u0436.\u043a. \u041b\u044e\u043b\u0438\u043d,\u00a0\u0431\u0443\u043b. \u201e\u0415\u0432\u0440\u043e\u043f\u0430\u201c 1", "name": "McDonalds", "phone": "0884/ 000 313", "brand": "McDonald's"}, "geometry": {"type": "Point", "coordinates": [23.278806209564, 42.716939360143]}}]}