{"type":"FeatureCollection","features":[{"type": "Feature", "id": "wzTP2HGWmyzGA6XhwMvCQCLeUD0=", "properties": {"ref": "195500858036-fi-fi", "@spider": "mcdonalds_fi", "addr:full": "Mannerheimintie 20", "addr:city": "Helsinki", "addr:state": "Suomi", "addr:postcode": "00100", "name": "Helsinki Forum Pohjakerros", "phone": "040 717 0297", "opening_hours": "MO-FR 10:00 - 21:00; SA 10:00 - 19:00; SU 12:00 - 18:00", "brand": "McDonald's"}, "geometry": {"type": "Point", "coordinates": [24.93827, 60.169413]}},
{"type": "Feature", "id": "vwSlcwDRBt8YQiDj10wo4umB8eU=", "properties": {"ref": "195500553078-fi-fi", "@spider": "mcdonalds_fi", "addr:full": "Mannerheimintie 16", "addr:city": "Helsinki", "addr:state": "Suomi", "addr:postcode": "00100", "name": "Helsinki Forum Katutaso", "phone": "040 717 0258", "opening_hours": "MO-TH 08:00 - 23:00; FR 08:00 - 00:00; SA 00:00 - 23:59; SU 00:00 - 23:00", "brand": "McDonald's"}, "geometry": {"type": "Point", "coordinates": [24.939424, 60.1688]}},
{"type": "Feature", "id": "2QmMaWue_Wj07VVC8VAN2iAgaGw=", "properties": {"ref": "195500553337-fi-fi", "@spider": "mcdonalds_fi", "addr:full": "Asema-aukio 1", "addr:city": "Helsinki", "addr:state": "Suomi", "addr:postcode": "00100", "name": "Helsinki Asematunneli", "phone": "040-717 0252", "opening_hours": "MO-FR 07:00 - 23:30; SA-SU 08:00 - 23:30", "brand": "McDonald's"}, "geometry": {"type": "Point", "coordinates": [24.940841, 60.17028]}},
{"type": "Feature", "id": "InNlgvvrl1ODWMJOTxvK3rodJdI=", "properties": {"ref": "195500553146-fi-fi", "@spider": "mcdonalds_fi", "addr:full": "Fredrikinkatu 46", "addr:city": "Helsinki", "addr:state": "Suomi", "addr:postcode": "00100", "name": "Helsinki Kamppi", "phone": "040 833 0043", "opening_hours": "24/7", "brand": "McDonald's"}, "geometry": {"type": "Point", "coordinates": [24.930144, 60.168974]}},
{"type": "Feature", "id": "tEDMtnzmn1AwkWJRIPNwd3yor00=", "properties": {"ref": "195500553214-fi-fi", "@spider": "mcdonalds_fi", "addr:full": "Siltasaarenkatu 12", "addr:city": "Helsinki", "addr:state": "Suomi", "addr:postcode": "00530", "name": "Helsinki Hakaniemi", "phone": "050-3056691", "opening_hours": "24/7", "brand": "McDonald's"}, "geometry": {"type": "Point", "coordinates": [24.949588, 60.178468]}},
{"type": "Feature", "id": "DmPig15YlKsLo7mUjpWS1RlmsyQ=", "properties": {"ref": "195500697994-fi-fi", "@spider": "mcdonalds_fi", "addr:full": "Teollisuuskatu 6", "addr:city": "Helsinki", "addr:state": "Suomi", "addr:postcode": "00500", "name": "Helsinki Teollisuuskatu", "phone": "040-778 5101", "opening_hours": "MO-SU 07:00 - 23:00", "brand": "McDonald's"}, "geometry": {"type": "Point", "coordinates": [24.956498, 60.19042]}},
{"type": "Feature", "id": "f9qk_EPkl0tY9z1N5OpK1iK488w=", "properties": {"ref": "195500553290-fi-fi", "@spider": "mcdonalds_fi", "addr:full": "Mannerheimintie 53", "addr:city": "Helsinki", "addr:state": "Suomi", "addr:postcode": "00250", "name": "Helsinki T\u00f6\u00f6l\u00f6", "phone": "040-717 0571", "opening_hours": "24/7", "brand": "McDonald's"}, "geometry": {"type": "Point", "coordinates": [24.917446, 60.190044]}},
{"type": "Feature", "id": "C6Sv8JLHhhdvF1_wdn0GHaC9qoI=", "properties": {"ref": "195500553702-fi-fi", "@spider": "mcdonalds_fi", "addr:full": "Paciuksenkatu 29", "addr:city": "Helsinki", "addr:state": "Suomi", "addr:postcode": "00270", "name": "Helsinki Meilahti", "phone": "040 7170469", "opening_hours": "MO-FR 07:30 - 23:00; SA-SU 10:00 - 23:00", "brand": "McDonald's"}, "geometry": {"type": "Point", "coordinates": [24.890872, 60.195593]}},
{"type": "Feature", "id": "n3KGtoX9SCuVXCNOC1lmdC3Za4g=", "properties": {"ref": "195500553313-fi-fi", "@spider": "mcdonalds_fi", "addr:full": "Vanha Viertotie 29", "addr:city": "Helsinki", "addr:state": "Suomi", "addr:postcode": "00380", "name": "Helsinki Pit\u00e4j\u00e4nm\u00e4ki", "phone": "050-464 7095", "opening_hours": "MO-SU 08:00 - 00:00", "brand": "McDonald's"}, "geometry": {"type": "Point", "coordinates": [24.879267, 60.21385]}},
{"type": "Feature", "id": "CeDzrrQZESoov3NjPs_EWk4Kxdk=", "properties": {"ref": "195500553320-fi-fi", "@spider": "mcdonalds_fi", "addr:full": "Laivalahdenkatu 1", "addr:city": "Helsinki", "addr:state": "Suomi", "addr:postcode": "00810", "name": "Helsinki Herttoniemi", "phone": "040-717 0324", "opening_hours": "24/7", "brand": "McDonald's"}, "geometry": {"type": "Point", "coordinates": [25.03765, 60.194134]}},
{"type": "Feature", "id": "XhmPK4rD8O5NLmwR8x2gGZWMo8w=", "properties": {"ref": "195500553184-fi-fi", "@spider": "mcdonalds_fi", "addr:full": "Pukinm\u00e4enkaari 55", "addr:city": "Helsinki", "addr:state": "Suomi", "addr:postcode": "00720", "name": "Helsinki Pukinm\u00e4ki", "phone": "040 848 2902", "opening_hours": "24/7", "brand": "McDonald's"}, "geometry": {"type": "Point", "coordinates": [24.979646, 60.242912]}},
{"type": "Feature", "id": "grEgPomAmwHxyk3_EaDuISbrGks=", "properties": {"ref": "195500553122-fi-fi", "@spider": "mcdonalds_fi", "addr:full": "Niittymaantie 6", "addr:city": "Espoo", "addr:state": "Suomi", "addr:postcode": "02200", "name": "Espoo Niittykumpu", "phone": "045 6792560", "opening_hours": "MO-SU 08:00 - 23:00", "brand": "McDonald's"}, "geometry": {"type": "Point", "coordinates": [24.778083, 60.171066]}},
{"type": "Feature", "id": "wAeKiIGPCpznt3pJBY9I_q5Ofig=", "properties": {"ref": "195500708959-fi-fi", "@spider": "mcdonalds_fi", "addr:full": "Kivikonlaita 2", "addr:city": "Helsinki", "addr:state": "Suomi", "addr:postcode": "00940", "name": "Helsinki Kivikko", "phone": "040-351 8080", "opening_hours": "24/7", "brand": "McDonald's"}, "geometry": {"type": "Point", "coordinates": [25.054955, 60.230901]}},
{"type": "Feature", "id": "rej2aXnlZOC57Xo46wHVnVxXusY=", "properties": {"ref": "195500553856-fi-fi", "@spider": "mcdonalds_fi", "addr:full": "It\u00e4katu 1-5 A 29", "addr:city": "Helsinki", "addr:state": "Suomi", "addr:postcode": "00930", "name": "Helsinki It\u00e4keskus Kauppakeskus", "phone": "040 7170338", "opening_hours": "MO-FR 08:00 - 21:00; SA 10:00 - 21:00; SU 11:00 - 21:00", "brand": "McDonald's"}, "geometry": {"type": "Point", "coordinates": [25.08393, 60.21292]}},
{"type": "Feature", "id": "GB1zYVOWEhzrAuzDulmzrW61p2g=", "properties": {"ref": "195500553160-fi-fi", "@spider": "mcdonalds_fi", "addr:full": "Louhijantie 1", "addr:city": "Vantaa", "addr:state": "Suomi", "addr:postcode": "01610", "name": "Vantaa Kaivoksela", "phone": "0456792221", "opening_hours": "24/7", "brand": "McDonald's"}, "geometry": {"type": "Point", "coordinates": [24.872245, 60.263827]}},
{"type": "Feature", "id": "iJTJNb38hRZNELQ5uECHbH6CsRY=", "properties": {"ref": "195500553863-fi-fi", "@spider": "mcdonalds_fi", "addr:full": "Kirkkotie 4", "addr:city": "Vantaa", "addr:state": "Suomi", "addr:postcode": "01510", "name": "Vantaa Tammisto", "phone": "040 717 0247", "opening_hours": "MO-SU 06:00 - 23:00", "brand": "McDonald's"}, "geometry": {"type": "Point", "coordinates": [24.974722, 60.270853]}},
{"type": "Feature", "id": "qPWJIa_f3VvolVpm4rh9M10HvlE=", "properties": {"ref": "195500553498-fi-fi", "@spider": "mcdonalds_fi", "addr:full": "Palomiehentie 2", "addr:city": "Espoo", "addr:state": "Suomi", "addr:postcode": "02750", "name": "Espoo Kauniaistentie", "phone": "040-961 4410", "opening_hours": "24/7", "brand": "McDonald's"}, "geometry": {"type": "Point", "coordinates": [24.743954, 60.208549]}},
{"type": "Feature", "id": "d8oeb5a171CXodeQiExyn316TF0=", "properties": {"ref": "195500553719-fi-fi", "@spider": "mcdonalds_fi", "addr:full": "Kaivonkatsojantie 1 a", "addr:city": "Helsinki", "addr:state": "Suomi", "addr:postcode": "00980", "name": "Helsinki Vuosaari", "phone": "0400 985371", "opening_hours": "24/7", "brand": "McDonald's"}, "geometry": {"type": "Point", "coordinates": [25.135198, 60.205554]}},
{"type": "Feature", "id": "y_KeMLYlP3_cmE_Fxm5XL8E87t0=", "properties": {"ref": "195500831190-fi-fi", "@spider": "mcdonalds_fi", "addr:full": "Finnoonlaaksontie 14", "addr:city": "Espoo", "addr:state": "Suomi", "addr:postcode": "02270", "name": "Espoo Suomenoja", "phone": "0442379024", "opening_hours": "MO-SU 06:00 - 23:00", "brand": "McDonald's"}, "geometry": {"type": "Point", "coordinates": [24.710393, 60.161929]}},
{"type": "Feature", "id": "XTzARI_kFNtP_tttUq4ofe7HXzU=", "properties": {"ref": "195500553139-fi-fi", "@spider": "mcdonalds_fi", "addr:full": "Maissikuja 2", "addr:city": "Vantaa", "addr:state": "Suomi", "addr:postcode": "01630", "name": "Vantaa Varisto", "phone": "0503447095", "opening_hours": "MO-SU 07:00 - 00:00", "brand": "McDonald's"}, "geometry": {"type": "Point", "coordinates": [24.804235, 60.27024]}},
{"type": "Feature", "id": "S_M3UNmnhd2gKjYdl7D2ioIcmFw=", "properties": {"ref": "195500553092-fi-fi", "@spider": "mcdonalds_fi", "addr:full": "Aamuruskontie 2 A", "addr:city": "Helsinki", "addr:state": "Suomi", "addr:postcode": "00750", "name": "Helsinki Ala-Tikkurila", "phone": "040-717 0812", "opening_hours": "24/7", "brand": "McDonald's"}, "geometry": {"type": "Point", "coordinates": [25.028336, 60.283507]}},
{"type": "Feature", "id": "1iHZj3re_kYoI6mpRceNgLDAtLg=", "properties": {"ref": "195500553238-fi-fi", "@spider": "mcdonalds_fi", "addr:full": "L\u00e4hdepuistontie 2", "addr:city": "Vantaa", "addr:state": "Suomi", "addr:postcode": "01230", "name": "Vantaa Vaarala", "phone": "0400-985 317", "opening_hours": "24/7", "brand": "McDonald's"}, "geometry": {"type": "Point", "coordinates": [25.10067, 60.267279]}},
{"type": "Feature", "id": "2I3pVkLYEcfCx5k_XKXdTpU1YRk=", "properties": {"ref": "195500704104-fi-fi", "@spider": "mcdonalds_fi", "addr:full": "Tuupakantie 2 B", "addr:city": "Vantaa", "addr:state": "Suomi", "addr:postcode": "01740", "name": "Vantaa Tuupakka", "phone": "0400 216 005", "opening_hours": "MO-SU 07:00 - 23:00", "brand": "McDonald's"}, "geometry": {"type": "Point", "coordinates": [24.88454, 60.2971]}},
{"type": "Feature", "id": "TA7DcHzGoBbaJQhtaof_cZe1pVg=", "properties": {"ref": "195500553641-fi-fi", "@spider": "mcdonalds_fi", "addr:full": "Lommilanrinne 2", "addr:city": "Espoo", "addr:state": "Suomi", "addr:postcode": "02740", "name": "Espoo Lommila", "phone": "045 1370 924", "opening_hours": "MO-SU 07:00 - 23:00", "brand": "McDonald's"}, "geometry": {"type": "Point", "coordinates": [24.659316, 60.218283]}},
{"type": "Feature", "id": "v35YDQC1iiY1cUlWk2Ma5zprCig=", "properties": {"ref": "195500553511-fi-fi", "@spider": "mcdonalds_fi", "addr:full": "Hyryl\u00e4nkatu 4", "addr:city": "Tuusula", "addr:state": "Suomi", "addr:postcode": "04300", "name": "Tuusula", "phone": "040 712 0301", "opening_hours": "MO-SU 06:00 - 23:00", "brand": "McDonald's"}, "geometry": {"type": "Point", "coordinates": [25.020667, 60.396131]}},
{"type": "Feature", "id": "upOuntPMsLqU1Fvco--YurX_fEo=", "properties": {"ref": "195500553245-fi-fi", "@spider": "mcdonalds_fi", "addr:full": "Puuvalonkatu 1", "addr:city": "Kerava", "addr:state": "Suomi", "addr:postcode": "04200", "name": "Kerava", "phone": "040-7104030", "opening_hours": "MO-SU 07:00 - 23:00", "brand": "McDonald's"}, "geometry": {"type": "Point", "coordinates": [25.101536, 60.401516]}},
{"type": "Feature", "id": "yMznTYf85s0dC7AbMmj1eyN9sZk=", "properties": {"ref": "195500553788-fi-fi", "@spider": "mcdonalds_fi", "addr:full": "Asemankaari 2", "addr:city": "Kirkkonummi", "addr:state": "Suomi", "addr:postcode": "02400", "name": "Kirkkonummi", "phone": "040-5671365", "opening_hours": "MO-TH 08:00 - 22:00; FR-SA 23:00 - 06:00; SU 08:00 - 22:00", "brand": "McDonald's"}, "geometry": {"type": "Point", "coordinates": [24.441505, 60.121444]}},
{"type": "Feature", "id": "gNl_WiPdUar7X3av3x-kUjpsebU=", "properties": {"ref": "195500627366-fi-fi", "@spider": "mcdonalds_fi", "addr:full": "Helsingintie 42", "addr:city": "J\u00e4rvenp\u00e4\u00e4", "addr:state": "Suomi", "addr:postcode": "04430", "name": "J\u00e4rvenp\u00e4\u00e4", "phone": "040-717 0595", "opening_hours": "24/7", "brand": "McDonald's"}, "geometry": {"type": "Point", "coordinates": [25.103465, 60.478516]}},
{"type": "Feature", "id": "LXJeCB7AS_sUlg1fGNYfPtiJhVw=", "properties": {"ref": "195500553429-fi-fi", "@spider": "mcdonalds_fi", "addr:full": "N\u00e4sintie 2", "addr:city": "Porvoo", "addr:state": "Suomi", "addr:postcode": "06100", "name": "Porvoo", "phone": "0400-593083", "opening_hours": "24/7", "brand": "McDonald's"}, "geometry": {"type": "Point", "coordinates": [25.645493, 60.39006]}},
{"type": "Feature", "id": "se2xKpG6KJF1OwAZT6m5UQGquKE=", "properties": {"ref": "195500553764-fi-fi", "@spider": "mcdonalds_fi", "addr:full": "Hyvink\u00e4\u00e4nkatu 3", "addr:city": "Hyvink\u00e4\u00e4", "addr:state": "Suomi", "addr:postcode": "05800", "name": "Hyvink\u00e4\u00e4", "phone": "040 354 5878", "opening_hours": "MO-FR 07:00 - 00:00; SA-SU 09:00 - 00:00", "brand": "McDonald's"}, "geometry": {"type": "Point", "coordinates": [24.8569, 60.63001]}},
{"type": "Feature", "id": "byisADv7CbopK1VLVm8EZ6QjhY0=", "properties": {"ref": "195500553504-fi-fi", "@spider": "mcdonalds_fi", "addr:full": "H\u00e4meensaarentie 8", "addr:city": "H\u00e4meenlinna", "addr:state": "Suomi", "addr:postcode": "13100", "name": "H\u00e4meenlinna H\u00e4meensaari", "phone": "040 8230641", "opening_hours": "MO-SU 07:00 - 00:00", "brand": "McDonald's"}, "geometry": {"type": "Point", "coordinates": [24.460756, 60.992579]}},
{"type": "Feature", "id": "-mEPtZl--R-rW17UuRk_tMXHVr8=", "properties": {"ref": "195500553696-fi-fi", "@spider": "mcdonalds_fi", "addr:full": "Kansankuja 1", "addr:city": "Hollola", "addr:state": "Suomi", "addr:postcode": "15870", "name": "Hollola", "phone": "040 836 4583", "opening_hours": "MO-TH 08:00 - 22:00; FR 08:00 - 23:00; SA 10:00 - 23:00; SU 10:00 - 22:00", "brand": "McDonald's"}, "geometry": {"type": "Point", "coordinates": [25.516996, 60.987884]}},
{"type": "Feature", "id": "z7WoEn6Uu--3IgKzxufJItn3r1o=", "properties": {"ref": "195500553191-fi-fi", "@spider": "mcdonalds_fi", "addr:full": "Pohjoinen Liipolankatu", "addr:city": "Lahti", "addr:state": "Suomi", "addr:postcode": "15500", "name": "Lahti Laune", "phone": "040-8364588", "opening_hours": "24/7", "brand": "McDonald's"}, "geometry": {"type": "Point", "coordinates": [25.654184, 60.966971]}},
{"type": "Feature", "id": "tBJ4ebhxQ8D95ITz-CdanPVaoYU=", "properties": {"ref": "195500553450-fi-fi", "@spider": "mcdonalds_fi", "addr:full": "Tiiri\u00f6nsuontie 1", "addr:city": "H\u00e4meenlinna", "addr:state": "Suomi", "addr:postcode": "13130", "name": "H\u00e4meenlinna Tiiri\u00f6", "phone": "040 8204536", "opening_hours": "MO-SA 07:00 - 23:00; SU 09:00 - 23:00", "brand": "McDonald's"}, "geometry": {"type": "Point", "coordinates": [24.417247, 61.008134]}},
{"type": "Feature", "id": "5KaE6Pd8rao1OopLgBSrQn9H74g=", "properties": {"ref": "195500553689-fi-fi", "@spider": "mcdonalds_fi", "addr:full": "Merituulentie 1", "addr:city": "Kotka", "addr:state": "Suomi", "addr:postcode": "48100", "name": "Kotka", "phone": "050-3773311", "opening_hours": "24/7", "brand": "McDonald's"}, "geometry": {"type": "Point", "coordinates": [26.927362, 60.462898]}},
{"type": "Feature", "id": "3jQZ4aXB-LcSQ655EMXgOcgT8IA=", "properties": {"ref": "195500553252-fi-fi", "@spider": "mcdonalds_fi", "addr:full": "Sep\u00e4nkatu 2", "addr:city": "Kouvola", "addr:state": "Suomi", "addr:postcode": "45130", "name": "Kouvola Kellom\u00e4ki", "phone": "050-367 7277", "opening_hours": "MO-SU 07:00 - 00:00", "brand": "McDonald's"}, "geometry": {"type": "Point", "coordinates": [26.672193, 60.867828]}},
{"type": "Feature", "id": "0FgIGkq4acA-wghymiB44_Tu4zU=", "properties": {"ref": "195500553757-fi-fi", "@spider": "mcdonalds_fi", "addr:full": "Aninkaistenkatu 15", "addr:city": "Turku", "addr:state": "Suomi", "addr:postcode": "20100", "name": "Turku Satashell", "phone": "040 717 0803", "opening_hours": "MO-SU 07:00 - 05:00", "brand": "McDonald's"}, "geometry": {"type": "Point", "coordinates": [22.269508, 60.457328]}},
{"type": "Feature", "id": "AzzFCuZVYK1SCQ_Dd4nq6PFJfog=", "properties": {"ref": "195500988696-fi-fi", "@spider": "mcdonalds_fi", "addr:full": "Rieskal\u00e4hteentie 91", "addr:city": "Turku", "addr:state": "Suomi", "addr:postcode": "20300", "name": "Turku Impivaara", "phone": "+358 40 716 1675", "opening_hours": "24/7", "brand": "McDonald's"}, "geometry": {"type": "Point", "coordinates": [22.256768, 60.476379]}},
{"type": "Feature", "id": "3bVBBrMjwekxKyXsd3SdKb7556E=", "properties": {"ref": "195500553870-fi-fi", "@spider": "mcdonalds_fi", "addr:full": "Haunistentie 15", "addr:city": "Raisio", "addr:state": "Suomi", "addr:postcode": "21280", "name": "Raisio", "phone": "040 717 0633", "opening_hours": "24/7", "brand": "McDonald's"}, "geometry": {"type": "Point", "coordinates": [22.18826, 60.489353]}},
{"type": "Feature", "id": "EI1TtYouMz4QRfloU8v1FxNCoGE=", "properties": {"ref": "195500553276-fi-fi", "@spider": "mcdonalds_fi", "addr:full": "Kangasalantie 36", "addr:city": "Tampere", "addr:state": "Suomi", "addr:postcode": "33710", "name": "Tampere Kaukaj\u00e4rvi", "phone": "040-8464 825", "opening_hours": "MO-SA 08:00 - 01:00; SU 10:00 - 01:00", "brand": "McDonald's"}, "geometry": {"type": "Point", "coordinates": [23.873597, 61.477288]}}]}