{"type":"FeatureCollection","features":[{"type": "Feature", "id": "xUhGEK-Uo0iEVxn8vvrRyN7FJDw=", "properties": {"ref": "417", "@spider": "mcdonalds_sg", "addr:full": "2 Jurong East Central 1 #01-09 JCube", "addr:city": "Singapore", "addr:state": "west", "addr:postcode": "609731", "name": "McDonald\u2019s JCube", "phone": "66844228", "opening_hours": "Main Store: Daily : 0700 - 2230 Dessert Kiosk: Daily : 1100 - 2200", "brand": "McDonald's"}, "geometry": {"type": "Point", "coordinates": [103.740277, 1.33352]}},
{"type": "Feature", "id": "-3et0plUFpX7NH_6z9ABsysU-Hc=", "properties": {"ref": "458", "@spider": "mcdonalds_sg", "addr:full": "33 Sengkang West Ave #01-04/05/06 Seletar Mall", "addr:city": "Singapore", "addr:state": "north", "addr:postcode": "797653", "name": "McDonald\u2019s Seletar Mall", "phone": "67022967", "opening_hours": "Main Store: Sun to Thurs,PH : 0700 - 0000 Fri,Sat,PH Eve : 0700 - 0200 McCafe: Sun to Thurs,PH : 0700 - 0000 Fri,Sat,PH Eve : 0700 - 0200", "brand": "McDonald's"}, "geometry": {"type": "Point", "coordinates": [103.8761854, 1.3913773]}},
{"type": "Feature", "id": "ffhRdsCsIUcPregrhT1FEF84O-M=", "properties": {"ref": "459", "@spider": "mcdonalds_sg", "addr:full": "180 Kitchener Rd #B1-03/05 City Square Mall", "addr:city": "Singapore", "addr:state": "north", "addr:postcode": "208539", "name": "McDonald\u2019s City Square Mall", "phone": "65096397", "opening_hours": "Main Store: Daily : 0700 - 2300 Dessert Kiosk: Daily : 1100 - 2200", "brand": "McDonald's"}, "geometry": {"type": "Point", "coordinates": [103.856388, 1.311064]}},
{"type": "Feature", "id": "j80SLKZGJTtXcb2N7wc2nRyOEMw=", "properties": {"ref": "462", "@spider": "mcdonalds_sg", "addr:full": "24 Raffles place Singapore 048621 #B1-01/10 Clifford centre", "addr:city": "Singapore", "addr:state": "central", "addr:postcode": "048621", "name": "McDonald\u2019s Clifford Centre", "phone": "64383943", "opening_hours": "Main Store: Mon-Fri : 0730 - 1900 Sat,Sun,PH : Closed", "brand": "McDonald's"}, "geometry": {"type": "Point", "coordinates": [103.852091, 1.283732]}},
{"type": "Feature", "id": "QcwZ1DX3vPCruzZb2LbQoZw7q7o=", "properties": {"ref": "464", "@spider": "mcdonalds_sg", "addr:full": "460 Alexandra Road #01-25 PSA Building", "addr:city": "Singapore", "addr:state": "west", "addr:postcode": "119963", "name": "McDonald\u2019s PSA", "phone": "62747089", "opening_hours": "Main Store: Daily : 0600 - 0200 Drive Thru: Daily : 0600 - 0200 McCafe: Daily : 0600 - 0200", "brand": "McDonald's"}, "geometry": {"type": "Point", "coordinates": [103.801381, 1.273673]}},
{"type": "Feature", "id": "omBQQ6-w_Nm-STSW22tzO-J0Hl4=", "properties": {"ref": "465", "@spider": "mcdonalds_sg", "addr:full": "350 Orchard Road #05-12/13 and #05/21 Shaw House,", "addr:city": "Singapore", "addr:state": "south", "addr:postcode": "238868", "name": "McDonald\u2019s LIDO", "phone": "62350936", "opening_hours": "Main Store: Sun to Thu,PH : 1100 - 2100 Fri,Sat,PH Eve : 1100 - 2200 Breakfast menu not available McCafe: Sun to Thu : 1100 - 2100 Fri,Sat,PH Eve : 1100 - 2200", "brand": "McDonald's"}, "geometry": {"type": "Point", "coordinates": [103.8314764, 1.3056077]}},
{"type": "Feature", "id": "kxhYByoCLcBuAEyk9bR3lxnMjh0=", "properties": {"ref": "466", "@spider": "mcdonalds_sg", "addr:full": "21 Tampines Avenue1 30B-01-02 Temasek Polytechnic", "addr:city": "Singapore", "addr:state": "east", "addr:postcode": "529757", "name": "McDonald\u2019s Temasek Polytechnic", "phone": "67857158", "opening_hours": "School Term : Mon to Sat : 0800 - 1900 Sun,PH : Closed", "brand": "McDonald's"}, "geometry": {"type": "Point", "coordinates": [103.932462, 1.345555]}},
{"type": "Feature", "id": "PvHlmNQXB0fYq6M6FKiUGtjd_2c=", "properties": {"ref": "470", "@spider": "mcdonalds_sg", "addr:full": "Blk 744 Bedok Reservoir Road #01-3019", "addr:city": "Singapore", "addr:state": "east", "addr:postcode": "470744", "name": "McDonald\u2019s Bedok Reservoir Park", "phone": "62428951", "opening_hours": "Main Store: Daily : 0700 - 0000", "brand": "McDonald's"}, "geometry": {"type": "Point", "coordinates": [103.92161, 1.33746]}},
{"type": "Feature", "id": "0BxDg-MDiujavgmUuum-3EfjYNs=", "properties": {"ref": "471", "@spider": "mcdonalds_sg", "addr:full": "68 Orchard Road #B1-23/24 Plaza Singapura", "addr:city": "Singapore", "addr:state": "south", "addr:postcode": "238839", "name": "McDonald\u2019s Plaza Singapura", "phone": "62387785", "opening_hours": "Main Store: Daily : 0730 - 2300 Dessert Kiosk : Sun-Thu,PH : 1130 - 2200 Fri,Sat,PH Eve :1100 - 2200", "brand": "McDonald's"}, "geometry": {"type": "Point", "coordinates": [103.8448, 1.3001]}},
{"type": "Feature", "id": "sTSUjaqdYN28OT6LVFeFc4iafVw=", "properties": {"ref": "474", "@spider": "mcdonalds_sg", "addr:full": "293 Toa Payoh Lorong 6 #01-02 SAFRA Clubhouse", "addr:city": "Singapore", "addr:state": "north", "addr:postcode": "319387", "name": "McDonald\u2019s SAFRA Toa Payoh", "phone": "62591260", "opening_hours": "Main Store: Sun to Thu,PH : 0700 - 0000 Fri,Sat,PH Eve :0700 - 0200 Drive Thru Sun to Thu,PH : 0700 - 0000 Fri,Sat,PH Eve :0700 - 0200 McCafe: Sun to Thu,PH : 0700 - 0000 Fri,Sat,PH Eve :0700 - 0200", "brand": "McDonald's"}, "geometry": {"type": "Point", "coordinates": [103.854294, 1.330238]}},
{"type": "Feature", "id": "RQWlZERSwkxOb96ShvAfzrlk6wk=", "properties": {"ref": "475", "@spider": "mcdonalds_sg", "addr:full": "768 Woodlands Ave 6 #01-01", "addr:city": "Singapore", "addr:state": "north", "addr:postcode": "730768", "name": "McDonald\u2019s Woodlands Mart", "phone": "63632950", "opening_hours": "Main Store: Sun to Thurs,PH : 0600 - 0000 Fri,Sat,PH Eve : 24 Hours", "brand": "McDonald's"}, "geometry": {"type": "Point", "coordinates": [103.798157, 1.446031]}},
{"type": "Feature", "id": "o1ehNLzCFMgh-G6M_1GJCQ5MqPI=", "properties": {"ref": "478", "@spider": "mcdonalds_sg", "addr:full": "28 Boon Lay Way #01-173/174", "addr:city": "Singapore", "addr:state": "west", "addr:postcode": "609971", "name": "McDonald\u2019s TradeHub 21", "phone": "67958981", "opening_hours": "Main Store: Daily : 0600 - 0000 Drive-Thru: Daily : 0600 - 0000", "brand": "McDonald's"}, "geometry": {"type": "Point", "coordinates": [103.751661, 1.328461]}},
{"type": "Feature", "id": "kPni3uaasYa307gMxBMqcXiSbSc=", "properties": {"ref": "479", "@spider": "mcdonalds_sg", "addr:full": "3155 Commonwealth Ave West #01-06/07/08/09 &amp;02-06/07/08 The Clementi Mall", "addr:city": "Singapore", "addr:state": "west", "addr:postcode": "129588", "name": "McDonald\u2019s Clementi Mall", "phone": "66594360", "opening_hours": "Main Store: Sun-Thu,PH : 0600 - 0200 Fri,Sat,PH Eve : 24 Hours McCafe: Daily : 0600 - 0000", "brand": "McDonald's"}, "geometry": {"type": "Point", "coordinates": [103.765242, 1.314366]}},
{"type": "Feature", "id": "arH1GlKAWNs7aoJQLZpJiBgJ9OY=", "properties": {"ref": "480", "@spider": "mcdonalds_sg", "addr:full": "71 West Coast Highway", "addr:city": "Singapore", "addr:state": "west", "addr:postcode": "126844", "name": "McDonald\u2019s West Coast Park", "phone": "67791413", "opening_hours": "Main Store: Sun to Thu,PH : 0600 - 0200 Fri,Sat,PH Eve : 24 Hours Drive Thru: Sun to Thu,PH : 0600 - 0200 Fri,Sat,PH Eve : 24 Hours McCafe: Daily : 0600 - 0000", "brand": "McDonald's"}, "geometry": {"type": "Point", "coordinates": [103.763095, 1.298621]}},
{"type": "Feature", "id": "qlKW3xO7we8QRyaLfztIgBTwwow=", "properties": {"ref": "481", "@spider": "mcdonalds_sg", "addr:full": "291 Boon Lay Way", "addr:city": "Singapore", "addr:state": "west", "addr:postcode": "649849", "name": "McDonald\u2019s Jurong Central Park", "phone": "6861 0684", "opening_hours": "Main Store: Sun-Thu,PH : 0600 - 0200 Fri,Sat,PH Eve : 24 Hours McCafe: Sun-Thu,PH : 0600 - 0200 Fri,Sat,PH Eve : 24 Hours Drive Thru: Sun-Thu,PH : 0600 - 0200 Fri,Sat,PH Eve : 24 Hours", "brand": "McDonald's"}, "geometry": {"type": "Point", "coordinates": [103.708478, 1.339373]}},
{"type": "Feature", "id": "oswVgIniloVT7rLwEZ0xPrnQsh8=", "properties": {"ref": "482", "@spider": "mcdonalds_sg", "addr:full": "50 Jurong Gateway Road #01-63, #02-55 JEM\u00ae", "addr:city": "Singapore", "addr:state": "west", "addr:postcode": "608549", "name": "McDonald\u2019s JEM", "phone": "63394006", "opening_hours": "Main Store: Daily : 0600 - 0200 Dessert Kiosk: Daily : 1000 \u2013 2300 McCafe: Daily : 0600 - 0200", "brand": "McDonald's"}, "geometry": {"type": "Point", "coordinates": [103.743725, 1.33341]}},
{"type": "Feature", "id": "p7YS4gyEMF4pDCWTHa-axQHn0y0=", "properties": {"ref": "494", "@spider": "mcdonalds_sg", "addr:full": "133 New Bridge Road #01-03 Chinatown Point", "addr:city": "Singapore", "addr:state": "central", "addr:postcode": "059432", "name": "McDonald\u2019s Chinatown Point", "phone": "67020038", "opening_hours": "Main Store: Sun \u2013 Thu, PH : 0730 - 2300<br/ Fri,Sat,PH Eve : 0730 - 0000", "brand": "McDonald's"}, "geometry": {"type": "Point", "coordinates": [103.84494, 1.285604]}},
{"type": "Feature", "id": "GK9JGXaHXCXTZGcC1ua6VSWKRFM=", "properties": {"ref": "496", "@spider": "mcdonalds_sg", "addr:full": "600 Toa Payoh #01-02 (formerly known as 600 Lor 4 Toa Payoh #01-02)", "addr:city": "Singapore", "addr:state": "north", "addr:postcode": "319515", "name": "McDonald\u2019s Toa Payoh Central", "phone": "62596362", "opening_hours": "Main Store: Sun to Thu,PH : 0600 - 0200 Fri,Sat,PH Eve : 24 Hours", "brand": "McDonald's"}, "geometry": {"type": "Point", "coordinates": [103.84964, 1.342612]}},
{"type": "Feature", "id": "E0uC6ZX-KzpO-YSFp1P-No47mDA=", "properties": {"ref": "508", "@spider": "mcdonalds_sg", "addr:full": "451 Clementi Ave 3 # 01-309", "addr:city": "Singapore", "addr:state": "west", "addr:postcode": "120451", "name": "McDonald\u2019s Clementi Ave 3", "phone": "67798834", "opening_hours": "Main Store: Daily : 0600 - 0000", "brand": "McDonald's"}, "geometry": {"type": "Point", "coordinates": [103.765641, 1.312693]}},
{"type": "Feature", "id": "MjJaTMRUg-7FE8ar1qqxsXZj4qk=", "properties": {"ref": "513", "@spider": "mcdonalds_sg", "addr:full": "3501 Jalan Bukit Merah #01-01 Regal Theatre", "addr:city": "Singapore", "addr:state": "south", "addr:postcode": "159460", "name": "McDonald\u2019s Regal", "phone": "62740535", "opening_hours": "Main Store: Sun-Thu,PH : 0700 - 0200 Fri,Sat,PH Eve : 24 Hours", "brand": "McDonald's"}, "geometry": {"type": "Point", "coordinates": [103.818317, 1.283943]}},
{"type": "Feature", "id": "bXTPFH-jvVQdXsny1_uEg5tPIFo=", "properties": {"ref": "514", "@spider": "mcdonalds_sg", "addr:full": "10 Ang Mo Kio Street 12", "addr:city": "Singapore", "addr:state": "north", "addr:postcode": "567740", "name": "McDonald\u2019s Ang Mo Kio Park", "phone": "64513365", "opening_hours": "Main Store: Sun-Thu,PH : 0600 - 0200 Fri,Sat,PH Eve : 24 Hours McCafe: Daily : 0600 - 0000 Drive-Thru: Daily : 0600 - 0200", "brand": "McDonald's"}, "geometry": {"type": "Point", "coordinates": [103.844766, 1.372388]}},
{"type": "Feature", "id": "iCSFCaZ0Tpfp5QypXmwACzPcRPk=", "properties": {"ref": "515", "@spider": "mcdonalds_sg", "addr:full": "93 Pasir Ris Drive 3 #01-02 Pasir Ris Elias Community Centre", "addr:city": "Singapore", "addr:state": "east", "addr:postcode": "519498", "name": "McDonald\u2019s Elias Community Centre", "phone": "65817671", "opening_hours": "Main Store: Sun-Thu,PH : 0600 - 0200 Fri,Sat,PH Eve : 24 Hours", "brand": "McDonald's"}, "geometry": {"type": "Point", "coordinates": [103.942582, 1.378544]}},
{"type": "Feature", "id": "9nqEJZ8kG7rCIDEvr9eMRZrvzZw=", "properties": {"ref": "516", "@spider": "mcdonalds_sg", "addr:full": "2 Orchard Link #02-43 *SCAPE", "addr:city": "Singapore", "addr:state": "south", "addr:postcode": "237978", "name": "McDonald\u2019s SCAPE", "phone": "66349498", "opening_hours": "Main Store: Sun to Thu, PH : 0800 - 0000 Fri,Sat,PH Eve : 24 Hours", "brand": "McDonald's"}, "geometry": {"type": "Point", "coordinates": [103.836237, 1.300873]}},
{"type": "Feature", "id": "onm7xkXG_I05IrGI_ogBW7SzHQg=", "properties": {"ref": "518", "@spider": "mcdonalds_sg", "addr:full": "1378 Ang Mo Kio Ave 1", "addr:city": "Singapore", "addr:state": "north", "addr:postcode": "569981", "name": "McDonald\u2019s Bishan Park", "phone": "64569839", "opening_hours": "Main Store: Daily : 0700 - 0000 McCafe: Daily : 0700 - 0000", "brand": "McDonald's"}, "geometry": {"type": "Point", "coordinates": [103.846444, 1.360891]}},
{"type": "Feature", "id": "TBKjIaI4VchJTU3P9oYT8viVczk=", "properties": {"ref": "519", "@spider": "mcdonalds_sg", "addr:full": "5 Tampines Avenue 3 #01-01", "addr:city": "Singapore", "addr:state": "east", "addr:postcode": "529705", "name": "McDonald\u2019s Tampines West CC", "phone": "67837366", "opening_hours": "Main Store: Sun to Thu,PH : 0600 - 0200 Fri, Sat,PH Eve : 24 Hours", "brand": "McDonald's"}, "geometry": {"type": "Point", "coordinates": [103.93574, 1.34903]}},
{"type": "Feature", "id": "qDeEAt0n1TG-UZSeH7cIMvFqEic=", "properties": {"ref": "520", "@spider": "mcdonalds_sg", "addr:full": "57 Anchorvale Road #02-03 Sengkang Sport &amp; Recreation Centre", "addr:city": "Singapore", "addr:state": "north", "addr:postcode": "544964", "name": "McDonald\u2019s Sengkang Sports Complex", "phone": "64898971", "opening_hours": "Main Store: Sun to Thu,PH : 0600 - 0200 Fri,Sat,PH Eve : 24 Hours Drive Thru: Sun to Thu,PH : 0600 - 0200 Fri,Sat,PH Eve : 24 Hours Dessert Kiosk: Mon : Closed Tue to Fri, PH Eve: 1200 - 2100 Sat, Sun PH : 0900 - 2100 McCafe: Daily : 0600 - 0200", "brand": "McDonald's"}, "geometry": {"type": "Point", "coordinates": [103.886456, 1.396318]}},
{"type": "Feature", "id": "UHKbXI-1nTve0hNLH9N_o_6M-lI=", "properties": {"ref": "521", "@spider": "mcdonalds_sg", "addr:full": "252 North Bridge Road #01-49/50/51 Raffles City Shopping Centre", "addr:city": "Singapore", "addr:state": "south", "addr:postcode": "179103", "name": "McDonald\u2019s Raffles City", "phone": "63343937", "opening_hours": "Main Store: Sun to Thu,PH : 0730 - 2300 Fri,Sat,PH Eve : 0730 - 0200", "brand": "McDonald's"}, "geometry": {"type": "Point", "coordinates": [103.852847, 1.29336]}},
{"type": "Feature", "id": "pAA0md2e4LpY6_B5CrxFseEyJW0=", "properties": {"ref": "525", "@spider": "mcdonalds_sg", "addr:full": "60 Yishun Avenue 4 #01-11", "addr:city": "Singapore", "addr:state": "north", "addr:postcode": "769027", "name": "McDonald\u2019s SAFRA Yishun", "phone": "67585632", "opening_hours": "Main Store: Sun to Thu,PH : 0600 - 0200 Fri,Sat,PH Eve : 24 Hours Drive Thru: Daily : 0600 - 0200 McCafe: Daily : 0600 - 0000", "brand": "McDonald's"}, "geometry": {"type": "Point", "coordinates": [103.840628, 1.423924]}},
{"type": "Feature", "id": "WXlG3SZQW-8iumM8xHzXXX-CZIM=", "properties": {"ref": "526", "@spider": "mcdonalds_sg", "addr:full": "1 Harbour Front Walk #B2-40/41, Vivocity", "addr:city": "Singapore", "addr:state": "south", "addr:postcode": "098585", "name": "McDonald\u2019s VivoCity", "phone": "63768197", "opening_hours": "Main Store: Daily : 0700 - 2300 Dessert Kiosk: Daily : 1100 - 2300", "brand": "McDonald's"}, "geometry": {"type": "Point", "coordinates": [103.82285, 1.264505]}},
{"type": "Feature", "id": "tFDULq3ob2L5jb3MikjDeQhglHM=", "properties": {"ref": "528", "@spider": "mcdonalds_sg", "addr:full": "109 Toa Payoh Lorong 1 #01-318", "addr:city": "Singapore", "addr:state": "north", "addr:postcode": "310109", "name": "McDonald\u2019s Toa Payoh Lorong 1", "phone": "62589049", "opening_hours": "Main Store: Sun to Thu,PH : 0600 - 0200 Fri,Sat,PH Eve : 24 Hours", "brand": "McDonald's"}, "geometry": {"type": "Point", "coordinates": [103.845819, 1.341123]}},
{"type": "Feature", "id": "piQU3TaYXHqBO3IKLF54fqedZu8=", "properties": {"ref": "529", "@spider": "mcdonalds_sg", "addr:full": "5 Tampines Street 32 #01-01", "addr:city": "Singapore", "addr:state": "east", "addr:postcode": "529284", "name": "McDonald\u2019s Tampines Neighborhood 3", "phone": "67883225", "opening_hours": "Main Store: Sun to Thu,PH : 0600 - 0200 Fri,Sat,PH Eve : 24 Hours", "brand": "McDonald's"}, "geometry": {"type": "Point", "coordinates": [103.96021, 1.3549]}},
{"type": "Feature", "id": "pZBaH1e89ZDO94gjprRxct3ECHI=", "properties": {"ref": "530", "@spider": "mcdonalds_sg", "addr:full": "10 Tampines St 23 #01-01 Tampines East Community Centre", "addr:city": "Singapore", "addr:state": "east", "addr:postcode": "529341", "name": "McDonald\u2019s Tampines East CC", "phone": "62230729", "opening_hours": "Main Store: Daily : 0700 - 0000", "brand": "McDonald's"}, "geometry": {"type": "Point", "coordinates": [103.954873, 1.353414]}},
{"type": "Feature", "id": "lnC0AS-LgfS5--C2TKGY6WnLDIA=", "properties": {"ref": "531", "@spider": "mcdonalds_sg", "addr:full": "513 Tampines Central 1 #01-150", "addr:city": "Singapore", "addr:state": "east", "addr:postcode": "521512", "name": "McDonald\u2019s Tampines", "phone": "67841398", "opening_hours": "Main Store: Sun to Thu,PH Eve : 0600 - 0200 Fri,Sat,PH Eve : 24 Hours McCafe: Sun to Thu,PH Eve : 0600 - 0200 Fri,Sat,PH Eve : 24 Hours", "brand": "McDonald's"}, "geometry": {"type": "Point", "coordinates": [103.942908, 1.353596]}},
{"type": "Feature", "id": "4qvjyIcA93R8I7Q6BrPipqd7IJk=", "properties": {"ref": "534", "@spider": "mcdonalds_sg", "addr:full": "30,Sembawang Drive #01-16 /17", "addr:city": "Singapore", "addr:state": "north", "addr:postcode": "757713", "name": "McDonald\u2019s Sun Plaza", "phone": "6754 2644", "opening_hours": "Main Store: Sun to Thu,PH : 0600 - 0200 Fri,Sat,PH Eve : 24 Hours Dessert Kiosk: Daily : 0800 - 2200", "brand": "McDonald's"}, "geometry": {"type": "Point", "coordinates": [103.820348, 1.448116]}},
{"type": "Feature", "id": "P5_BMGNG38pu-GwW-_dy8etfliQ=", "properties": {"ref": "535", "@spider": "mcdonalds_sg", "addr:full": "3 Anson Road #01-03 Springleaf Tower", "addr:city": "Singapore", "addr:state": "south", "addr:postcode": "079909", "name": "McDonald\u2019s SpringLeaf Tower", "phone": "62218903", "opening_hours": "Main Store: Daily : 0730 - 0000 Drive Thru: Daily : 0730 - 0000 McCafe: Daily : 0730 - 0000", "brand": "McDonald's"}, "geometry": {"type": "Point", "coordinates": [103.846291, 1.275224]}},
{"type": "Feature", "id": "_gwZoxk7UrGnuKpYNhwHsyZDQeI=", "properties": {"ref": "537", "@spider": "mcdonalds_sg", "addr:full": "55 Siglap Road #01-07, #01-08 &amp; #01-09 Siglap Centre", "addr:city": "Singapore", "addr:state": "east", "addr:postcode": "455871", "name": "McDonald\u2019s Siglap", "phone": "64494179", "opening_hours": "Main Store: Sun to Thu,PH : 0600 - 0200 Fri, Sat,PH Eve : 24 Hours", "brand": "McDonald's"}, "geometry": {"type": "Point", "coordinates": [103.923272, 1.312674]}},
{"type": "Feature", "id": "8JvelLXRHEsI_7BwT6aniNwcNb4=", "properties": {"ref": "538", "@spider": "mcdonalds_sg", "addr:full": "267 Serangoon Ave 3 #01-37", "addr:city": "Singapore", "addr:state": "north-east", "addr:postcode": "550267", "name": "McDonald\u2019s Serangoon Avenue 3", "phone": "62812079", "opening_hours": "Main Store: Sun to Thu,PH : 0600 - 0200 Fri,Sat,PH Eve : 24 Hours", "brand": "McDonald's"}, "geometry": {"type": "Point", "coordinates": [103.8708061, 1.3529806]}},
{"type": "Feature", "id": "7dhjFOH-IoK8vN3KVeRYq2z8UgQ=", "properties": {"ref": "539", "@spider": "mcdonalds_sg", "addr:full": "118 Rivervale Drive #01-32", "addr:city": "Singapore", "addr:state": "north", "addr:postcode": "540118", "name": "McDonald\u2019s Sengkang Rivervale Plaza", "phone": "68810380", "opening_hours": "Main Store: Sun-Thu,PH : 0600 - 0200 Fri,Sat,PH Eve : 24 Hours Dessert Kiosk: Daily : 1000 - 2200", "brand": "McDonald's"}, "geometry": {"type": "Point", "coordinates": [103.90189, 1.38537]}},
{"type": "Feature", "id": "FlPHhOiLsVTPSAx0fASXYQ5HL14=", "properties": {"ref": "768", "@spider": "mcdonalds_sg", "addr:full": "1 Queensway #02-46 Queensway Shopping Centre", "addr:city": "Singapore", "addr:state": "south", "addr:postcode": "149053", "name": "McDonald\u2019s Queensway Shopping Centre", "phone": "64798095", "opening_hours": "Main Store: Daily : 0700 - 2200", "brand": "McDonald's"}, "geometry": {"type": "Point", "coordinates": [103.803415, 1.28754]}},
{"type": "Feature", "id": "xFiYjWeUfIlxdS3lxQBR5BhGtfw=", "properties": {"ref": "769", "@spider": "mcdonalds_sg", "addr:full": "#01-580 Ridout Tea Garden", "addr:city": "Singapore", "addr:state": "west", "addr:postcode": "149066", "name": "McDonald\u2019s Queensway", "phone": "64756102", "opening_hours": "Main Store: Sun to Thu,PH : 0700 - 0200 Fri,Sat,PH Eve : 24 Hours", "brand": "McDonald's"}, "geometry": {"type": "Point", "coordinates": [103.801886, 1.303809]}},
{"type": "Feature", "id": "vFddP8ghT9b4zkpSsf3GMcLVfpY=", "properties": {"ref": "770", "@spider": "mcdonalds_sg", "addr:full": "638 Jurong West Street 61 #01-01/02 Pioneer Mall", "addr:city": "Singapore", "addr:state": "west", "addr:postcode": "640638", "name": "McDonald\u2019s Pioneer Mall", "phone": "67958902", "opening_hours": "Main Store: Sun to Thu,PH : 0600 - 0200 Fri,Sat,PH Eve : 24 Hours McCafe: Daily : 0600 - 0000", "brand": "McDonald's"}, "geometry": {"type": "Point", "coordinates": [103.696775, 1.341863]}},
{"type": "Feature", "id": "UgzkpjXZ2xC5Qv6OR0BnYltPIEs=", "properties": {"ref": "771", "@spider": "mcdonalds_sg", "addr:full": "120 Pasir Ris Central #01-12 Pasir Ris Sports and Recreation Centre", "addr:city": "Singapore", "addr:state": "east", "addr:postcode": "519640", "name": "McDonald\u2019s Pasir Ris Sports Complex", "phone": "65840949", "opening_hours": "Main Store: Sun to Thu,PH : 0600 - 0200 Fri,Sat,PH Eve : 24 Hours Drive Thru: Sun to Thu,PH : 0600 - 0200 Fri,Sat,PH Eve : 24 Hours", "brand": "McDonald's"}, "geometry": {"type": "Point", "coordinates": [103.951193, 1.373186]}},
{"type": "Feature", "id": "_aGH1Ye70YrUKFngwA1vecw-vYw=", "properties": {"ref": "772", "@spider": "mcdonalds_sg", "addr:full": "930 Yishun Avenue 2 #01-12/13 Northpoint City North Wing", "addr:city": "Singapore", "addr:state": "north", "addr:postcode": "769098", "name": "McDonald\u2019s Northpoint", "phone": "67546043", "opening_hours": "Main Store: Sun to Thu,PH : 0600 - 0200 Fri,Sat,PH Eve : 24 Hours McCafe: Daily : 0600 - 0200 Dessert Kiosk: Daily : 1000 - 2230", "brand": "McDonald's"}, "geometry": {"type": "Point", "coordinates": [103.835596, 1.430166]}},
{"type": "Feature", "id": "r8U504_mCfmL5rCHy8wsrwLQGbc=", "properties": {"ref": "774", "@spider": "mcdonalds_sg", "addr:full": "23 Serangoon Central #B2-05/06/07/08 NEX", "addr:city": "Singapore", "addr:state": "north", "addr:postcode": "556083", "name": "McDonald\u2019s NEX", "phone": "66344921", "opening_hours": "Main Store: Daily : 0700 - 2300 Dessert Kiosk: Daily : 1000 - 2300", "brand": "McDonald's"}, "geometry": {"type": "Point", "coordinates": [103.872909, 1.349738]}},
{"type": "Feature", "id": "-Kh5dA4qOKd3tbfBtDLlyxiSoJQ=", "properties": {"ref": "778", "@spider": "mcdonalds_sg", "addr:full": "846 Yishun Ring Road #01-3669", "addr:city": "Singapore", "addr:state": "north", "addr:postcode": "760846", "name": "McDonald\u2019s Khatib", "phone": "67561271", "opening_hours": "Main Store: Sun-Thu,PH : 0600 - 0200 Fri,Sat,PH Eve : 24 Hours <!--Store will be closed on the following dates for renovation works : 23 Nov\u201920 2200 hours to 24 Nov\u201920 1800 hours.-->", "brand": "McDonald's"}, "geometry": {"type": "Point", "coordinates": [103.834974, 1.417499]}},
{"type": "Feature", "id": "DPt8nespskDzNEXkXg3MWgl4dCo=", "properties": {"ref": "779", "@spider": "mcdonalds_sg", "addr:full": "200 Stadium Boulevard", "addr:city": "Singapore", "addr:state": "central", "addr:postcode": "397801", "name": "McDonald\u2019s Kallang", "phone": "64406010", "opening_hours": "Main Store: Sun-Thu,PH : 0600 - 0200 Fri,Sat,PH Eve : 24 Hours Drive-Thru: Sun-Thu,PH : 0600 - 0200 Fri,Sat,PH Eve : 24 Hours McCafe: Sun-Thu,PH : 0600 - 0200 Fri,Sat,PH Eve : 24 Hours <!--Store will be closed on the following dates for renovation works :4 Oct\u201920 (2200 hours) to 10 Oct\u201920 (0600 hours)-->", "brand": "McDonald's"}, "geometry": {"type": "Point", "coordinates": [103.8819134, 1.3051583]}},
{"type": "Feature", "id": "mFNcsAdZGkX-LgYNgJGxjlEoSK8=", "properties": {"ref": "780", "@spider": "mcdonalds_sg", "addr:full": "Blk 256 Jurong East Street 24 #01-381", "addr:city": "Singapore", "addr:state": "west", "addr:postcode": "600256", "name": "McDonald\u2019s Jurong East 24", "phone": "66655527", "opening_hours": "Main Store: Sun-Thu,PH : 0600 - 0200 Fri,Sat,PH Eve : 24 Hours <!--Store will be closed on the following dates for renovation works : 12 Oct\u201920 0830 hours to 1700 hours.-->", "brand": "McDonald's"}, "geometry": {"type": "Point", "coordinates": [103.738513, 1.3442946]}},
{"type": "Feature", "id": "CO5c0N4JbeJDPVUKBzcUTrcN8ys=", "properties": {"ref": "781", "@spider": "mcdonalds_sg", "addr:full": "90 Hougang Avenue 10 #01-17 Hougang Mall", "addr:city": "Singapore", "addr:state": "north-east", "addr:postcode": "538766", "name": "McDonald\u2019s Hougang Mall", "phone": "63873162", "opening_hours": "Main Store: Daily : 0800 - 2200 Dessert Kiosk: Daily : 1000 - 2200 McCafe: Daily : 0800 - 2200", "brand": "McDonald's"}, "geometry": {"type": "Point", "coordinates": [103.893567, 1.3728277]}},
{"type": "Feature", "id": "vWsk_QagTQ8ZmrYb0epyNzgEVwU=", "properties": {"ref": "782", "@spider": "mcdonalds_sg", "addr:full": "208 Hougang Street 21 #01-217", "addr:city": "Singapore", "addr:state": "north", "addr:postcode": "530208", "name": "McDonald\u2019s Hougang", "phone": "62865219", "opening_hours": "Main Store: Sun to Thu,PH : 0600 - 0200 Fri,Sat,PH Eve : 24 Hours McCafe: Sun to Thu,PH : 0600 - 0200 Fri,Sat,PH Eve : 24 Hours", "brand": "McDonald's"}, "geometry": {"type": "Point", "coordinates": [103.886697, 1.358969]}},
{"type": "Feature", "id": "vz49CqiDZeKA8hez1PkVjUiAooY=", "properties": {"ref": "783", "@spider": "mcdonalds_sg", "addr:full": "113 Aljunied Ave 2 #01-01", "addr:city": "Singapore", "addr:state": "east", "addr:postcode": "380113", "name": "McDonald\u2019s Geylang East Central", "phone": "67427613", "opening_hours": "Main Store: Sun-Thu,PH : 0600 - 0200 Fri,Sat,PH Eve : 24 Hours", "brand": "McDonald's"}, "geometry": {"type": "Point", "coordinates": [103.8856878, 1.320348]}},
{"type": "Feature", "id": "MotwOEjs6JD8nhoSE-L81qz-5HA=", "properties": {"ref": "784", "@spider": "mcdonalds_sg", "addr:full": "583 Orchard Road #B1-25, #B1-33 to #B1-35 Forum The Shopping Mall", "addr:city": "Singapore", "addr:state": "south", "addr:postcode": "238884", "name": "McDonald\u2019s Forum Galleria", "phone": "67385528", "opening_hours": "Main Store: Daily : 0800 - 0200 McCafe: Daily : 0800 - 0200", "brand": "McDonald's"}, "geometry": {"type": "Point", "coordinates": [103.829416, 1.305994]}},
{"type": "Feature", "id": "9hljsSDNa1xtebMGPqntAWRH5y8=", "properties": {"ref": "785", "@spider": "mcdonalds_sg", "addr:full": "10 Jalan Serene #01-01 Serene Centre", "addr:city": "Singapore", "addr:state": "west", "addr:postcode": "258748", "name": "McDonald\u2019s Farrer Road", "phone": "64654352", "opening_hours": "Main Store: Sun-Thu,PH : 0600 - 0200 Fri,Sat,PH Eve : 24 Hours", "brand": "McDonald's"}, "geometry": {"type": "Point", "coordinates": [103.813999, 1.322823]}},
{"type": "Feature", "id": "_I3bZzuCTa2nxvbI3yB6GFJUvr8=", "properties": {"ref": "786", "@spider": "mcdonalds_sg", "addr:full": "445 Fajar Road #01-520", "addr:city": "Singapore", "addr:state": "west", "addr:postcode": "670445", "name": "McDonald\u2019s Fajar", "phone": "67641080", "opening_hours": "Main Store Sun-Thu,PH : 0600 - 0200 Fri,Sat,PH Eve : 24 Hours", "brand": "McDonald's"}, "geometry": {"type": "Point", "coordinates": [103.7702901, 1.3839773]}},
{"type": "Feature", "id": "Oa6lfP1nodRJG604FTnTxAJNn-E=", "properties": {"ref": "788", "@spider": "mcdonalds_sg", "addr:full": "35 Teck Whye Avenue #01-01 Chua Chu Kang Community Club", "addr:city": "Singapore", "addr:state": "north", "addr:postcode": "688892", "name": "McDonald\u2019s Chua Chu Kang CC", "phone": "67630401", "opening_hours": "Main Store: Sun-Thu,PH : 0600 - 0200 Fri,Sat,PH Eve : 24 Hours <!--Store will be closed on the following dates for renovation works :2 Dec\u201920 0600 hours to 2 Dec\u201920 1800 hours-->", "brand": "McDonald's"}, "geometry": {"type": "Point", "coordinates": [103.751908, 1.381245]}},
{"type": "Feature", "id": "V0V6mYqi4Vbw9qAinXw-xCv3uI0=", "properties": {"ref": "789", "@spider": "mcdonalds_sg", "addr:full": "Blk 624 Choa Chu Kang Street 62 #01-262/264. Singapore 680624", "addr:city": "Singapore", "addr:state": "north", "addr:postcode": "680623", "name": "McDonald\u2019s Choa Chu Kang  62", "phone": "67628779", "opening_hours": "Main Store: Sun-Thu,PH : 0600 - 0200 Fri,Sat,PH Eve : 24 Hours Dessert Kiosk: Daily : 0900 - 2300 McCafe: Daily : 0600 - 0000", "brand": "McDonald's"}, "geometry": {"type": "Point", "coordinates": [103.7474302, 1.3985506]}},
{"type": "Feature", "id": "6CZDVfOM9zpMtcmzJn_9rF5ypXs=", "properties": {"ref": "790", "@spider": "mcdonalds_sg", "addr:full": "5 Changi Business Park Central 1 #01-10/11 Changi City Point", "addr:city": "Singapore", "addr:state": "east", "addr:postcode": "486038", "name": "McDonald\u2019s Changi City Point", "phone": "66360681", "opening_hours": "Main Store: Sun to Thu,PH : 0700 - 2200 Fri, Sat,PH Eve : 0700 - 2300", "brand": "McDonald's"}, "geometry": {"type": "Point", "coordinates": [103.964615, 1.335566]}},
{"type": "Feature", "id": "ycitZMZHXmGBnwbJiePbk_bahS0=", "properties": {"ref": "791", "@spider": "mcdonalds_sg", "addr:full": "Arrival Meeting Hall South #01-03 Terminal 3, Changi Airport", "addr:city": "Singapore", "addr:state": "east", "addr:postcode": "819663", "name": "McDonald\u2019s Changi Airport T3", "phone": "62429681", "opening_hours": "Main Store: Sun-Thu,PH : 0600 - 2300 Fri,Sat,PH Eve : 0600 \u2013 0000 McCafe: Sun-Thu,PH : 0600 - 2300 Fri,Sat,PH Eve : 0600 \u2013 0000", "brand": "McDonald's"}, "geometry": {"type": "Point", "coordinates": [103.986247, 1.354318]}},
{"type": "Feature", "id": "M6lg3UPmgCSrjDE5JwDUWb0WHis=", "properties": {"ref": "795", "@spider": "mcdonalds_sg", "addr:full": "1 Jelebu Road #02-01 Bukit Panjang Plaza", "addr:city": "Singapore", "addr:state": "west", "addr:postcode": "677743", "name": "McDonald\u2019s Bukit Panjang Plaza", "phone": "68928572", "opening_hours": "Main Store: Daily : 0600 - 0000 Dessert Kiosk: Mon-Fri,PH : 1100 - 2300 Sat,Sun,PH Eve : 1000 - 2300 McCafe: Daily 0600 - 0000", "brand": "McDonald's"}, "geometry": {"type": "Point", "coordinates": [103.76442, 1.38004]}},
{"type": "Feature", "id": "u-g6lTn9hBBGLRBRe3v5vV7pTXM=", "properties": {"ref": "796", "@spider": "mcdonalds_sg", "addr:full": "374 Bukit Batok Street 31 #01-198 &amp; #01-202", "addr:city": "Singapore", "addr:state": "west", "addr:postcode": "650374", "name": "McDonald\u2019s Bukit Gombak", "phone": "65612830", "opening_hours": "Main Store: Sun-Thu,PH : 0600 - 0200 Fri,Sat,PH Eve :24 Hours", "brand": "McDonald's"}, "geometry": {"type": "Point", "coordinates": [103.750393, 1.358181]}},
{"type": "Feature", "id": "ayHVnXzgEGo32vPIvfr7-9FcDFQ=", "properties": {"ref": "797", "@spider": "mcdonalds_sg", "addr:full": "632 Bukit Batok Central #01-138/#01-140 / #01-142", "addr:city": "Singapore", "addr:state": "west", "addr:postcode": "650632", "name": "McDonald\u2019s Bukit Batok", "phone": "65632441", "opening_hours": "Main Store: Sun-Thu,PH : 0600 - 0200 Fri,Sat,PH Eve : 24 Hours Dessert Kiosk: Daily : 1000 - 2200 McCafe: Daily : 0600 - 0000 Store will be closed on the following date for renovation works : 1 Feb\u201921 0600 to 2200.", "brand": "McDonald's"}, "geometry": {"type": "Point", "coordinates": [103.751211, 1.350539]}},
{"type": "Feature", "id": "74nndi-1ykG2zhLXWgq0yL1FU08=", "properties": {"ref": "798", "@spider": "mcdonalds_sg", "addr:full": "151/152 Rochor Road", "addr:city": "Singapore", "addr:state": "south", "addr:postcode": "188426", "name": "McDonald\u2019s Bugis Village", "phone": "63382986", "opening_hours": "Main Store: Sun-Thu,PH : 0800 - 0200 Fri,Sat,PH Eve : 24 Hours Dessert Kiosk: Daily : 1200 - 2100 Shakes not available", "brand": "McDonald's"}, "geometry": {"type": "Point", "coordinates": [103.855224, 1.300915]}},
{"type": "Feature", "id": "1iDArTD-gSHUW1jtHV3mB6l0Nkw=", "properties": {"ref": "799", "@spider": "mcdonalds_sg", "addr:full": "200 Victoria Street #01-66 Bugis Junction", "addr:city": "Singapore", "addr:state": "south", "addr:postcode": "188024", "name": "McDonald\u2019s Bugis Junction", "phone": "63393690", "opening_hours": "Main Store: Sun-Thu,PH : 0730 - 2300 Fri,Sat,PH Eve : 0730 - 0000 Dessert Kiosk Sun-Thu,PH : 1200 - 2000 Fri,Sat,PH Eve : 1200 - 2200", "brand": "McDonald's"}, "geometry": {"type": "Point", "coordinates": [103.85544, 1.29906]}},
{"type": "Feature", "id": "pp81O3dj7zO2G7CF6XUAKvJAmAw=", "properties": {"ref": "800", "@spider": "mcdonalds_sg", "addr:full": "1 South Canal Road", "addr:city": "Singapore", "addr:state": "south", "addr:postcode": "048508", "name": "McDonald\u2019s Boat Quay", "phone": "65344350", "opening_hours": "Main Store: Mon-Thu : 0730 - 0200 Fri,Sat,PH Eve : 0730 - 0200 Sun, PH : 0730 - 2200", "brand": "McDonald's"}, "geometry": {"type": "Point", "coordinates": [103.848854, 1.285588]}},
{"type": "Feature", "id": "24CWmYoNWk4peHNenFaf6rGUAIA=", "properties": {"ref": "801", "@spider": "mcdonalds_sg", "addr:full": "9 Bishan Place #01-20 Junction 8", "addr:city": "Singapore", "addr:state": "north", "addr:postcode": "579837", "name": "McDonald\u2019s Bishan Junction 8", "phone": "62505898", "opening_hours": "Main Store: Daily : 0700 - 0000 Dessert Kiosk: Daily : 1000 - 2330", "brand": "McDonald's"}, "geometry": {"type": "Point", "coordinates": [103.848845, 1.35068]}},
{"type": "Feature", "id": "Ykz_5-BXQWwlHjynpOsYDeGTm4s=", "properties": {"ref": "803", "@spider": "mcdonalds_sg", "addr:full": "632 Bedok Reservoir Road #01-850", "addr:city": "Singapore", "addr:state": "east", "addr:postcode": "470632", "name": "McDonald\u2019s Bedok Reservoir", "phone": "62440227", "opening_hours": "Main Store: Sun-Thu,PH : 0600 - 0200 Fri,Sat,PH Eve : 24 Hours McCafe: Daily : 0600 - 2200", "brand": "McDonald's"}, "geometry": {"type": "Point", "coordinates": [103.914238, 1.332058]}},
{"type": "Feature", "id": "pPBOEZNpAtx-el-8aA4EvYXbDks=", "properties": {"ref": "804", "@spider": "mcdonalds_sg", "addr:full": "539 Bedok North Street 3 #01-643", "addr:city": "Singapore", "addr:state": "east", "addr:postcode": "460539", "name": "McDonald\u2019s Bedok North", "phone": "64493787", "opening_hours": "Main Store: Sun-Thu,PH : 0600 - 0200 Fri,Sat,PH Eve : 24 Hours", "brand": "McDonald's"}, "geometry": {"type": "Point", "coordinates": [103.924098, 1.330857]}},
{"type": "Feature", "id": "uDVCKhV0H9ImFy15Ed2g4mhiaNM=", "properties": {"ref": "805", "@spider": "mcdonalds_sg", "addr:full": "144 Upper Bukit Timah Road #01-39 &amp; #01-40 Beauty World Centre", "addr:city": "Singapore", "addr:state": "west", "addr:postcode": "588177", "name": "McDonald\u2019s Beauty World", "phone": "63140630", "opening_hours": "Main Store: Sun-Thu,PH : 0600 - 0200 Fri,Sat,PH Eve : 24 Hours", "brand": "McDonald's"}, "geometry": {"type": "Point", "coordinates": [103.776469, 1.342634]}},
{"type": "Feature", "id": "kzva6HdB-Z0GjHRmS1P0Glpn8QM=", "properties": {"ref": "807", "@spider": "mcdonalds_sg", "addr:full": "448 Ang Mo Kio Avenue 10 #01-1693", "addr:city": "Singapore", "addr:state": "central", "addr:postcode": "560448", "name": "McDonald\u2019s Ang Mo Kio Ave 10", "phone": "64568781", "opening_hours": "Main Store: Sun-Thu,PH : 0600 - 0200 Fri,Sat,PH Eve : 24 Hours", "brand": "McDonald's"}, "geometry": {"type": "Point", "coordinates": [103.856592, 1.36785]}},
{"type": "Feature", "id": "3jrf_O13PdOVYcO0I1fgh0kxioA=", "properties": {"ref": "808", "@spider": "mcdonalds_sg", "addr:full": "163 Ang Mo Kio Avenue 4 #01-438", "addr:city": "Singapore", "addr:state": "north", "addr:postcode": "560163", "name": "McDonald\u2019s Ang Mo Kio 4", "phone": "64555672", "opening_hours": "Main Store: Sun-Thu,PH : 0600 - 0200 Fri,Sat,PH Eve : 24 Hours", "brand": "McDonald's"}, "geometry": {"type": "Point", "coordinates": [103.83802, 1.37357]}},
{"type": "Feature", "id": "xftPkYT7YvfBj9vzzb5u8QttcZg=", "properties": {"ref": "809", "@spider": "mcdonalds_sg", "addr:full": "51 Ang Mo Kio Avenue 3 #01-04 51 @ AMK", "addr:city": "Singapore", "addr:state": "north", "addr:postcode": "569922", "name": "McDonald\u2019s Ang Mo Kio", "phone": "64586218", "opening_hours": "Main Store: Sun-Thu,PH : 0600 - 0200 Fri, Sat,PH Eve : 24 Hours McCafe: Daily : 0600 \u2013 0200 Dessert Kiosk: Daily : 1000 \u2013 0000", "brand": "McDonald's"}, "geometry": {"type": "Point", "coordinates": [103.847655, 1.369566]}},
{"type": "Feature", "id": "ynBahnFuo4ECkYaHKNlbDHhQyOM=", "properties": {"ref": "811", "@spider": "mcdonalds_sg", "addr:full": "1 Yuan Ching Road Jurong Family Bowl", "addr:city": "Singapore", "addr:state": "west", "addr:postcode": "618640", "name": "McDonald\u2019s Jurong Bowl", "phone": "62659104", "opening_hours": "Main Store: Sun-Thu,PH : 0600 - 0200 Fri,Sat,PH Eve : 24 Hours Drive Thru: Daily : 0600 - 0200", "brand": "McDonald's"}, "geometry": {"type": "Point", "coordinates": [103.724885, 1.325687]}},
{"type": "Feature", "id": "quXj1dj4eafcRbGQXYDgSoEn_ts=", "properties": {"ref": "812", "@spider": "mcdonalds_sg", "addr:full": "1 Jurong West Central 2 #01-31 Jurong Point", "addr:city": "Singapore", "addr:state": "west", "addr:postcode": "648886", "name": "McDonald\u2019s Jurong Point", "phone": "67935481", "opening_hours": "Main Store: Sun-Thur,PH : 0600 - 0000 Fri,Sat,PH Eve : 0600 - 0100 Dessert Kiosk: Daily : 1000 - 2300 McCafe: Sun-Thur,PH : 0600 - 0000 Fri,Sat,PH Eve : 0600 - 0100", "brand": "McDonald's"}, "geometry": {"type": "Point", "coordinates": [103.706356, 1.339534]}},
{"type": "Feature", "id": "6G05phoCKMVWUT01a6DKAdhQYF0=", "properties": {"ref": "813", "@spider": "mcdonalds_sg", "addr:full": "8 Sentosa Gateway, #B1-211, 212, 213, 214, Resorts World Sentosa", "addr:city": "Singapore", "addr:state": "south", "addr:postcode": "098138", "name": "McDonald\u2019s Resorts World Sentosa", "phone": "68845108", "opening_hours": "Main Store: Daily : 0800 - 2300 McCafe: Daily : 0800 - 2100 Dessert Kiosk : Daily : 1000 - 2200", "brand": "McDonald's"}, "geometry": {"type": "Point", "coordinates": [103.822281, 1.258134]}},
{"type": "Feature", "id": "9Nir9LEIIqBQn1rsIoEpZJqJ7Uo=", "properties": {"ref": "814", "@spider": "mcdonalds_sg", "addr:full": "9 Buona Vista Drive, Tower 1, #01-08, The Metropolis", "addr:city": "Singapore", "addr:state": "west", "addr:postcode": "138588", "name": "McDonald\u2019s Metropolis", "phone": "66597958", "opening_hours": "Main Store: Daily : 0600 - 0000 McCafe: Daily : 0600 - 0000", "brand": "McDonald's"}, "geometry": {"type": "Point", "coordinates": [103.790969, 1.306292]}},
{"type": "Feature", "id": "ULwcOQ_gwB6jKgx5QkeaS81XIH4=", "properties": {"ref": "817", "@spider": "mcdonalds_sg", "addr:full": "293 Yishun Street 22 #01-237", "addr:city": "Singapore", "addr:state": "north", "addr:postcode": "760293", "name": "McDonald\u2019s Yishun Ring Road", "phone": "67538382", "opening_hours": "Main Store: Sun to Thu,PH : 0700 - 0000 Fri,Sat,PH Eve : 24 Hours", "brand": "McDonald's"}, "geometry": {"type": "Point", "coordinates": [103.8376456, 1.4369362]}},
{"type": "Feature", "id": "ZgX5m6GGejhpf_F-o6L74uOAjKY=", "properties": {"ref": "818", "@spider": "mcdonalds_sg", "addr:full": "369 Sembawang Road #01-01", "addr:city": "Singapore", "addr:state": "north", "addr:postcode": "758382", "name": "McDonald\u2019s Yishun", "phone": "62574276", "opening_hours": "Main Store: Sun to Thurs,PH : 0600 - 0200 Fri,Sat,PH Eve : 24 Hours Drive-Thru: Daily : 0600 \u2013 0200", "brand": "McDonald's"}, "geometry": {"type": "Point", "coordinates": [103.826315, 1.426831]}},
{"type": "Feature", "id": "fmW69jn1lP8cbv4IJF4yqhyySY8=", "properties": {"ref": "819", "@spider": "mcdonalds_sg", "addr:full": "900 South Woodlands Drive #01-01 Woodlands Civic Centre", "addr:city": "Singapore", "addr:state": "north", "addr:postcode": "730900", "name": "McDonald\u2019s Woodlands Civic Centre", "phone": "67641700", "opening_hours": "Main Store: Daily : 0700 - 0000", "brand": "McDonald's"}, "geometry": {"type": "Point", "coordinates": [103.786913, 1.434975]}},
{"type": "Feature", "id": "3tvHjHf6XiOVau6KeWoiDZAxgYs=", "properties": {"ref": "821", "@spider": "mcdonalds_sg", "addr:full": "101 Thomson Road #B1-11/12 United Square Shopping Mall", "addr:city": "Singapore", "addr:state": "central", "addr:postcode": "307591", "name": "McDonald\u2019s United Square", "phone": "63526197", "opening_hours": "Main Store: Daily : 0730 - 2200 McCafe: Daily : 0730 - 2200 <!--Store will be closed on the following dates for renovation works :26 Nov\u201920 0730 hours to 27 Nov\u201920 1100 hours-->", "brand": "McDonald's"}, "geometry": {"type": "Point", "coordinates": [103.843707, 1.317578]}},
{"type": "Feature", "id": "Hyo3xLHuvZiuCOL1FJgqy4ZJ9O8=", "properties": {"ref": "822", "@spider": "mcdonalds_sg", "addr:full": "490, Lorong 6 Toa Payoh #01-11", "addr:city": "Singapore", "addr:state": "north", "addr:postcode": "310490", "name": "McDonald\u2019s Toa Payoh HDB Center", "phone": "63972392", "opening_hours": "Main Store: Daily : 0600 - 0000 Dessert Kiosk: Daily : 1000 - 2300 McCafe: Daily : 0600 - 0000", "brand": "McDonald's"}, "geometry": {"type": "Point", "coordinates": [103.848383, 1.33248]}},
{"type": "Feature", "id": "9z7hi2bJdddzXGeZ7sAS0PXRLKI=", "properties": {"ref": "825", "@spider": "mcdonalds_sg", "addr:full": "383 Bukit Timah Road #01-09B Alocassia Apartments", "addr:city": "Singapore", "addr:state": "west", "addr:postcode": "259727", "name": "McDonald\u2019s Alocassia", "phone": "68874961", "opening_hours": "Main Store: Daily : 0600 - 0000 Drive Thru: Daily : 0600 - 0200", "brand": "McDonald's"}, "geometry": {"type": "Point", "coordinates": [103.827398, 1.319752]}},
{"type": "Feature", "id": "NaDTgebJQNsEgvukGTwYeSKckOk=", "properties": {"ref": "826", "@spider": "mcdonalds_sg", "addr:full": "152 Bukit Batok Street 11 #01-280", "addr:city": "Singapore", "addr:state": "west", "addr:postcode": "650152", "name": "McDonald\u2019s Bukit Batok West", "phone": "65651987", "opening_hours": "Main Store: Sun-Thu,PH : 0600 - 0000 Fri,Sat,PH Eve : 0600 - 0200", "brand": "McDonald's"}, "geometry": {"type": "Point", "coordinates": [103.744226, 1.348233]}},
{"type": "Feature", "id": "u5zfp0tl5Db0j_o_NUUzTxfspTA=", "properties": {"ref": "827", "@spider": "mcdonalds_sg", "addr:full": "1 Woodlands Square #01-35 Causeway Point", "addr:city": "Singapore", "addr:state": "north", "addr:postcode": "738099", "name": "McDonald\u2019s Causeway Point", "phone": "68941461", "opening_hours": "Main Store: Sun-Thu,PH : 0600 - 0200 Fri,Sat,PH Eve : 24 Hours Dessert Kiosk: Daily : 0900 - 2300 McCafe: Daily : 0600 - 0000", "brand": "McDonald's"}, "geometry": {"type": "Point", "coordinates": [103.7867411, 1.4358206]}},
{"type": "Feature", "id": "RP8wiDXjARKgmAesvg-xWTmws94=", "properties": {"ref": "829", "@spider": "mcdonalds_sg", "addr:full": "21 Choa Chu Kang Avenue 4 Lot 1 Shopper's Mall #01-20", "addr:city": "Singapore", "addr:state": "north", "addr:postcode": "689812", "name": "McDonald\u2019s Choa Chu Kang 4", "phone": "67635908", "opening_hours": "Main Store: Sun- Thur,PH : 0600 - 0000 Fri & Sat,PH Eve : 0600 - 0200 Dessert Kiosk: Daily : 1000 - 0000 McCafe: Daily : 0600 - 0000", "brand": "McDonald's"}, "geometry": {"type": "Point", "coordinates": [103.7448922, 1.384552]}},
{"type": "Feature", "id": "xX4ooUi_k9gygu5az5wmkAPo57Q=", "properties": {"ref": "831", "@spider": "mcdonalds_sg", "addr:full": "21 Yishun Ring Road #01-01 &amp; outside seating area Chong Pang Community Club", "addr:city": "Singapore", "addr:state": "north", "addr:postcode": "768677", "name": "McDonald\u2019s Chong Pang CC", "phone": "67552100", "opening_hours": "Main Store: Daily : 0700 - 0000", "brand": "McDonald's"}, "geometry": {"type": "Point", "coordinates": [103.829018, 1.430543]}},
{"type": "Feature", "id": "hiyiMAZjgsIqnop-7p7ghcn3wRU=", "properties": {"ref": "833", "@spider": "mcdonalds_sg", "addr:full": "1 Kim Seng Promenade #01-124 Great World City", "addr:city": "Singapore", "addr:state": "south", "addr:postcode": "237994", "name": "McDonald\u2019s Great World City", "phone": "62193029", "opening_hours": "Main Store: Daily : 0700 - 2300 McCafe: Daily : 0700 - 2300", "brand": "McDonald's"}, "geometry": {"type": "Point", "coordinates": [103.83178, 1.293]}},
{"type": "Feature", "id": "oimM_dSHy9X85wBan2-JoG48Zeo=", "properties": {"ref": "834", "@spider": "mcdonalds_sg", "addr:full": "1 Maritime Square #01-87, #01-88 and #01-89 HarbourFront Centre", "addr:city": "Singapore", "addr:state": "south", "addr:postcode": "099253", "name": "McDonald\u2019s HarbourFront Centre", "phone": "62718809", "opening_hours": "Main Store: Sun-Thu,PH : 0700 - 2200 Fri, Sat,PH Eve : 0700 - 2300 Dessert Kiosk: Daily : 1000 - 2200 <!--McCafe: Sun to Thu,PH : 0700 - 2200 Fri, Sat,PH Eve : 0700 - 2300--> <!--Store will be closed on the following dates for renovation works :1 Dec\u201920 0700 hours to 3 Dec\u201920 2200 hours-->", "brand": "McDonald's"}, "geometry": {"type": "Point", "coordinates": [103.820585, 1.264823]}},
{"type": "Feature", "id": "sUcXuS7tdYsc729sZMgOKMhB-oU=", "properties": {"ref": "835", "@spider": "mcdonalds_sg", "addr:full": "684 Hougang Avenue 8 #01-999", "addr:city": "Singapore", "addr:state": "north", "addr:postcode": "530684", "name": "McDonald\u2019s Hougang 8", "phone": "63852703", "opening_hours": "Main Store: Sun-Thu,PH : 0600 - 0200 Fri,Sat,PH Eve : 24 Hours", "brand": "McDonald's"}, "geometry": {"type": "Point", "coordinates": [103.886858, 1.374211]}},
{"type": "Feature", "id": "yCM_PlWgvO-1VhAvSRnSUr9dpxQ=", "properties": {"ref": "836", "@spider": "mcdonalds_sg", "addr:full": "1 Hougang Street 91 #01-26/39 Hougang 1", "addr:city": "Singapore", "addr:state": "north", "addr:postcode": "538692", "name": "McDonald\u2019s Hougang 1", "phone": "63845824", "opening_hours": "Main Store: Daily : 0700 - 0000 Dessert Kiosk : Daily :1000 - 2300", "brand": "McDonald's"}, "geometry": {"type": "Point", "coordinates": [103.879482, 1.376022]}},
{"type": "Feature", "id": "eV2FLAhexO9YfH_aGqnLT0pXjyk=", "properties": {"ref": "838", "@spider": "mcdonalds_sg", "addr:full": "2 Jurong East St 21 #01-18 IMM Building", "addr:city": "Singapore", "addr:state": "west", "addr:postcode": "609601", "name": "McDonald\u2019s IMM", "phone": "68992698", "opening_hours": "Main Store: Daily : 0730 - 2200 Dessert Kiosk: Daily : 1100 - 2200", "brand": "McDonald's"}, "geometry": {"type": "Point", "coordinates": [103.746339, 1.334296]}},
{"type": "Feature", "id": "ri1xP-hcPBXpqroLW-SFo41QG7g=", "properties": {"ref": "839", "@spider": "mcdonalds_sg", "addr:full": "4 Tampines Central 5 #01-33 Tampines Mall", "addr:city": "Singapore", "addr:state": "east", "addr:postcode": "529510", "name": "McDonald\u2019s Tampines Mall", "phone": "67812654", "opening_hours": "Main Store: Daily : 0700 - 2300 Dessert Kiosk : Daily : 1030 - 2200", "brand": "McDonald's"}, "geometry": {"type": "Point", "coordinates": [103.94472, 1.35267]}},
{"type": "Feature", "id": "gopmvDCCbzfLlOpAigd3C23uXWs=", "properties": {"ref": "842", "@spider": "mcdonalds_sg", "addr:full": "6A Jurong West Avenue 1", "addr:city": "Singapore", "addr:state": "west", "addr:postcode": "649520", "name": "McDonald\u2019s Jurong Green CC", "phone": "65692887", "opening_hours": "Main Store: Sun-Thu,PH : 0600 - 0200 Fri,Sat,PH Eve : 24 Hours", "brand": "McDonald's"}, "geometry": {"type": "Point", "coordinates": [103.725398, 1.350547]}},
{"type": "Feature", "id": "cq6Tgmi6LnIIUkum2r_farH43rE=", "properties": {"ref": "843", "@spider": "mcdonalds_sg", "addr:full": "6 Raffles Boulevard #02-156/ #02-157/ #02-166 Marina Square", "addr:city": "Singapore", "addr:state": "south", "addr:postcode": "039594", "name": "McDonald\u2019s Marina Square", "phone": "68832286", "opening_hours": "Main Store: Sun to Thu,PH : 0730 - 2130 Fri,Sat,PH Eve : 0730 - 2300 Dessert Kiosk: Daily : 1130 - 2000", "brand": "McDonald's"}, "geometry": {"type": "Point", "coordinates": [103.857767, 1.291138]}},
{"type": "Feature", "id": "NAQdOFfV6s9NfgM2qMAr6kzrL1A=", "properties": {"ref": "844", "@spider": "mcdonalds_sg", "addr:full": "304 Orchard Road #B1-19 to #B1-24, #B1-44 to #B1-46 Lucky Plaza", "addr:city": "Singapore", "addr:state": "south", "addr:postcode": "238863", "name": "McDonald\u2019s Lucky Plaza", "phone": "62359208", "opening_hours": "Main store: Daily : 0700 - 2300 McCafe: Daily : 0700 - 2300", "brand": "McDonald's"}, "geometry": {"type": "Point", "coordinates": [103.834029, 1.304439]}},
{"type": "Feature", "id": "47FpliNLXb5VHk9lHeD111-c8Dg=", "properties": {"ref": "845", "@spider": "mcdonalds_sg", "addr:full": "1 Marine Parade Central #01-01 Parkway Centre", "addr:city": "Singapore", "addr:state": "east", "addr:postcode": "449408", "name": "McDonald\u2019s Parkway Centre", "phone": "63456517", "opening_hours": "Main store: Daily : 0700 - 0100 McCafe: Daily : 0700 - 0100", "brand": "McDonald's"}, "geometry": {"type": "Point", "coordinates": [103.906084, 1.302229]}},
{"type": "Feature", "id": "aQIUMVhup8IHMHJY1XVaP-2Nqf0=", "properties": {"ref": "848", "@spider": "mcdonalds_sg", "addr:full": "500 Dover Road #01-13 Teaching Block 16 Singapore Polytechnic", "addr:city": "Singapore", "addr:state": "west", "addr:postcode": "139651", "name": "McDonald\u2019s Singapore Polytechnic", "phone": "68723135", "opening_hours": "Main Store : School Term Mon-Fri : 0700 - 1900 Sat,Sun,PH : Closed", "brand": "McDonald's"}, "geometry": {"type": "Point", "coordinates": [103.774772, 1.309483]}},
{"type": "Feature", "id": "3UtBu_Dy0HinEWUKnoumkEtyzUM=", "properties": {"ref": "850", "@spider": "mcdonalds_sg", "addr:full": "11 Rivervale Crescent #01-27 Rivervale Mall", "addr:city": "Singapore", "addr:state": "north", "addr:postcode": "545082", "name": "McDonald\u2019s Rivervale Mall", "phone": "63887320", "opening_hours": "Main Store: Sun-Thu,PH : 0700 - 0200 Fri,Sat,PH Eve : 24 Hours", "brand": "McDonald's"}, "geometry": {"type": "Point", "coordinates": [103.904598, 1.392349]}},
{"type": "Feature", "id": "ALb3jLcm-HDmMPsa1HFRV2L2zrA=", "properties": {"ref": "851", "@spider": "mcdonalds_sg", "addr:full": "80 Punggol Field #01-02", "addr:city": "Singapore", "addr:state": "north", "addr:postcode": "828815", "name": "McDonald\u2019s Punggol 21 Community Centre", "phone": "63154584", "opening_hours": "Main Store: Daily : 0630 - 0000", "brand": "McDonald's"}, "geometry": {"type": "Point", "coordinates": [103.913677, 1.393473]}},
{"type": "Feature", "id": "VqKYOW3MCsSognAHTvyvuTXJ70g=", "properties": {"ref": "852", "@spider": "mcdonalds_sg", "addr:full": "148 Potong Pasir Ave 1 #01-43", "addr:city": "Singapore", "addr:state": "east", "addr:postcode": "350148", "name": "McDonald\u2019s Potong Pasir", "phone": "62814486", "opening_hours": "Main Store: Daily : 0700 - 0000", "brand": "McDonald's"}, "geometry": {"type": "Point", "coordinates": [103.8681333, 1.3328173]}},
{"type": "Feature", "id": "MQSILTrEbiPEhYKGc-f2EjBebv4=", "properties": {"ref": "853", "@spider": "mcdonalds_sg", "addr:full": "1 Park Road #01-69 to #01-75 People's Park Complex", "addr:city": "Singapore", "addr:state": "south", "addr:postcode": "059108", "name": "McDonald\u2019s People\u2019s Park", "phone": "65360410", "opening_hours": "Main Store: Sun-Thu,PH : 0700 - 0200 Fri,Sat,PH Eve : 24 Hours", "brand": "McDonald's"}, "geometry": {"type": "Point", "coordinates": [103.84438, 1.286427]}},
{"type": "Feature", "id": "8GLt8uH1R2F1cj8IOu8SgolwQxg=", "properties": {"ref": "856", "@spider": "mcdonalds_sg", "addr:full": "35 Selegie Road #B1-38 Parklane Shopping Mall", "addr:city": "Singapore", "addr:state": "south", "addr:postcode": "188307", "name": "McDonald\u2019s Parklane", "phone": "63339095", "opening_hours": "Main Store: Sun to Thu : 0800 - 2200 Fri,Sat,PH Eve : 0800 - 2300", "brand": "McDonald's"}, "geometry": {"type": "Point", "coordinates": [103.84956, 1.300626]}},
{"type": "Feature", "id": "dPeanjmcNjlYMsYx0X6GOVDoJWg=", "properties": {"ref": "857", "@spider": "mcdonalds_sg", "addr:full": "76 Nanyang Drive, Block N2.1 #01-08 Nanyang Technological University", "addr:city": "Singapore", "addr:state": "west", "addr:postcode": "637331", "name": "McDonald\u2019s Nanyang Technological University", "phone": "67929917", "opening_hours": "Main Store: Mon to Sat,PH Eve : 0700 - 2200 Sun,PH : 1000 - 2000 Breakfast menu not available on Sun and PH", "brand": "McDonald's"}, "geometry": {"type": "Point", "coordinates": [103.680092, 1.347269]}},
{"type": "Feature", "id": "hLQY_pyYb0n38dCdRua_OMX2tc0=", "properties": {"ref": "860", "@spider": "mcdonalds_sg", "addr:full": "762 Jurong West Street 75 #02-250", "addr:city": "Singapore", "addr:state": "central", "addr:postcode": "640762", "name": "McDonald\u2019s Gek Poh", "phone": "67934649", "opening_hours": "Main Store: Daily : 0600 - 2300", "brand": "McDonald's"}, "geometry": {"type": "Point", "coordinates": [103.6978952, 1.3484335]}},
{"type": "Feature", "id": "SP6xqD-DaC_NKwoISjyhD5uyST4=", "properties": {"ref": "861", "@spider": "mcdonalds_sg", "addr:full": "3 Temasek Boulevard #02-732/733 Suntec City Mall", "addr:city": "Singapore", "addr:state": "central", "addr:postcode": "038983", "name": "McDonald\u2019s Suntec City", "phone": "68873979", "opening_hours": "Main Store: Sun-Thu,PH : 0730 - 2200 Fri,Sat,PH Eve : 0730 - 2300 McCafe: Daily : 0800 - 2200", "brand": "McDonald's"}, "geometry": {"type": "Point", "coordinates": [103.858877, 1.295751]}},
{"type": "Feature", "id": "EvvjaIumOQ9Zx97HZ8UCl-Y3048=", "properties": {"ref": "1526", "@spider": "mcdonalds_sg", "addr:full": "70 Jellicoe Road #01-20 V Hotel Lavender", "addr:city": "Singapore", "addr:state": "east", "addr:postcode": "208767", "name": "McDonald\u2019s V Hotel", "phone": "62913762", "opening_hours": "Main Store: Daily : 0700 - 0100 Dessert Kiosk: Daily : 1000 - 2300", "brand": "McDonald's"}, "geometry": {"type": "Point", "coordinates": [103.86262, 1.308034]}},
{"type": "Feature", "id": "G0Ijnlx_nSqtsNLWv2p1i6ZMHz8=", "properties": {"ref": "4460", "@spider": "mcdonalds_sg", "addr:full": "1 Joo Koon Circle, Provisional Unit #01-27/28/29/30/31", "addr:city": "Singapore", "addr:state": "west", "addr:postcode": "629117", "name": "McDonald\u2019s Fairprice Hub", "phone": "67104678", "opening_hours": "Main Store: Daily : 0700 - 2100", "brand": "McDonald's"}, "geometry": {"type": "Point", "coordinates": [103.678322, 1.327406]}},
{"type": "Feature", "id": "YYD-BHjDCERP-D8MMpQAF3DzeC8=", "properties": {"ref": "4669", "@spider": "mcdonalds_sg", "addr:full": "3 Simei Street 6, #01-34 Eastpoint Mall", "addr:city": "Singapore", "addr:state": "east", "addr:postcode": "528833", "name": "McDonald\u2019s East Point Mall", "phone": "67020605", "opening_hours": "Main Store: Daily : 0600 - 0000", "brand": "McDonald's"}, "geometry": {"type": "Point", "coordinates": [103.952974, 1.342806]}},
{"type": "Feature", "id": "wS-eQ9jeGspqUwAPcCq3bUjXoB0=", "properties": {"ref": "4702", "@spider": "mcdonalds_sg", "addr:full": "18 Marina Gardens Drive #02-04, Garden By The Bay, Visitor Centre", "addr:city": "Singapore", "addr:state": "central", "addr:postcode": "018954", "name": "McDonald\u2019s Gardens By The Bay", "phone": "64432704", "opening_hours": "Main Store: Mon-Fri,PH : 1100 - 2100 Sat,Sun,PH Eve : 0900 - 2100 McCafe: Mon-Fri,PH : 1100 - 2100 Sat,Sun,PH Eve : 0900 - 2100 Dessert Kiosk : Mon-Fri,PH : 1100 - 2100 Sat,Sun,PH Eve : 0900 - 2100 Shakes not available", "brand": "McDonald's"}, "geometry": {"type": "Point", "coordinates": [103.8635596, 1.2816219]}},
{"type": "Feature", "id": "nEfaijWzOzG4dgkOjp4L206fiAo=", "properties": {"ref": "5179", "@spider": "mcdonalds_sg", "addr:full": "1 Pasir Ris Central Street 3 #01-28/29 White Sands", "addr:city": "Singapore", "addr:state": "central", "addr:postcode": "518457", "name": "McDonald\u2019s Pasir Ris Central", "phone": "63853180", "opening_hours": "Main Store: Sun to Thu,PH : 0600 - 0100 Fri,Sat,PH Eve : 0600 - 0200 Dessert Kiosk: Daily : 1100 - 2200", "brand": "McDonald's"}, "geometry": {"type": "Point", "coordinates": [103.9486106, 1.372567]}},
{"type": "Feature", "id": "ta8_KjSIxS9Drr7o_V9bcqWuxNg=", "properties": {"ref": "5218", "@spider": "mcdonalds_sg", "addr:full": "60 Paya Lebar Road, Provisional Unit #01-68/69/74/75/76/K3 Paya Lebar Square", "addr:city": "Singapore", "addr:state": "east", "addr:postcode": "409051", "name": "McDonald\u2019s Paya Lebar Square", "phone": "6341 6809", "opening_hours": "Main Store: Daily : 0600 - 0100 Dessert Kiosk: Daily : 1000 - 2200", "brand": "McDonald's"}, "geometry": {"type": "Point", "coordinates": [103.892637, 1.31878]}},
{"type": "Feature", "id": "ztXA4xyP-odwnmLmrf22xnagQos=", "properties": {"ref": "5243", "@spider": "mcdonalds_sg", "addr:full": "83 Punggol Central, #B2-07 West Wing, Waterway Point", "addr:city": "Singapore", "addr:state": "central", "addr:postcode": "828761", "name": "McDonald\u2019s Waterway Point", "phone": "63857853", "opening_hours": "Main Store: Sun to Thu,PH : 0600 - 0200 Fri,Sat,PH Eve : 24 Hours Dessert Kiosk: Daily : 0800 - 2300 McCafe: Daily : 0600 - 0000", "brand": "McDonald's"}, "geometry": {"type": "Point", "coordinates": [103.902078, 1.4065407]}},
{"type": "Feature", "id": "LXUgt48BKWuMtBcUvRjjJIjrZxk=", "properties": {"ref": "5439", "@spider": "mcdonalds_sg", "addr:full": "302 Tiong Bahru Road #01-145/146/147 Tiong Bahru Plaza", "addr:city": "Singapore", "addr:state": "central", "addr:postcode": "168732", "name": "McDonald\u2019s Tiong Bahru Plaza", "phone": "62762123", "opening_hours": "Main Store: Daily : 0630 - 2330 Dessert Kiosk: Daily : 0630 - 2330", "brand": "McDonald's"}, "geometry": {"type": "Point", "coordinates": [103.8251533, 1.2861504]}},
{"type": "Feature", "id": "u00mKJFSvnJe8x1U0K9Hk-M7XaE=", "properties": {"ref": "5560", "@spider": "mcdonalds_sg", "addr:full": "9 Sentul Crescent, #03-05", "addr:city": "Singapore", "addr:state": "central", "addr:postcode": "828654", "name": "McDonald\u2019s SAFRA Punggol", "phone": "63856275", "opening_hours": "Main Store: Sun to Thurs,PH : 0600 - 0200 Fri,Sat,PH Eve : 24 Hours Drive Thru: Sun to Thu,PH : 0600 - 0200 Fri, Sat, PH Eve: 24 Hours", "brand": "McDonald's"}, "geometry": {"type": "Point", "coordinates": [103.906149, 1.409996]}},
{"type": "Feature", "id": "Yxa254aO73NTmizEdiDhbNnj_ZQ=", "properties": {"ref": "5607", "@spider": "mcdonalds_sg", "addr:full": "Marine Cove,1000 East Coast Parkway East Coast Park #01-05", "addr:city": "Singapore", "addr:state": "central", "addr:postcode": "449876", "name": "McDonald\u2019s Marine Cove", "phone": "62430471", "opening_hours": "Main store: Sun to Thu,PH : 0600 - 2300 Fri,Sat,PH Eve : 0600 - 0200 McCafe: Sun to Thu,PH : 0600 - 2300 Fri,Sat,PH Eve : 0600 \u2013 0200 Dessert Kiosk: Sun to Thu,PH : 0800 - 2300 Fri,Sat,PH Eve : 0800 \u2013 0200", "brand": "McDonald's"}, "geometry": {"type": "Point", "coordinates": [103.9151423, 1.3017584]}},
{"type": "Feature", "id": "eccaIhh_h6UJrTLW2z6_-irL38o=", "properties": {"ref": "5686", "@spider": "mcdonalds_sg", "addr:full": "1 Sengkang Square #B1-13", "addr:city": "Singapore", "addr:state": "central", "addr:postcode": "545078", "name": "McDonald\u2019s Compass 1", "phone": "63863601", "opening_hours": "Main Store: Daily : 0700 - 2300 Dessert Kiosk: Daily : 1000 - 2200", "brand": "McDonald's"}, "geometry": {"type": "Point", "coordinates": [103.8948292, 1.391922]}},
{"type": "Feature", "id": "pFRQ02qVIj8eAu2NPlH7xuWGkhI=", "properties": {"ref": "52015", "@spider": "mcdonalds_sg", "addr:full": "17 Petir Road, # B1 \u2013 25 Hillion Mall", "addr:city": "Singapore", "addr:state": "central", "addr:postcode": "678278", "name": "McDonald\u2019s Hillion Mall", "phone": "6219 9169", "opening_hours": "Main Store: Sun to Thu,PH : 0600 - 0000 Fri,Sat,PH Eve : 0600 - 0200 Dessert Kiosk: Daily : 1000 - 2300", "brand": "McDonald's"}, "geometry": {"type": "Point", "coordinates": [103.763069, 1.378425]}},
{"type": "Feature", "id": "5Nrojl9eUTtDEL7EyDVgw5DV2b8=", "properties": {"ref": "52016", "@spider": "mcdonalds_sg", "addr:full": "1 Pasir Ris Close #01-338 Downtown East", "addr:city": "Singapore", "addr:state": "east", "addr:postcode": "519599", "name": "McDonald\u2019s Downtown East", "phone": "63853065", "opening_hours": "Main store: Sun to Thu,PH : 0700 - 0000 Fri,Sat,PH Eve : 0700 \u2013 0200 McCafe: Mon to Fri,PH : 1100 - 0000 Sat,SunPH Eve : 0800 \u2013 0000", "brand": "McDonald's"}, "geometry": {"type": "Point", "coordinates": [103.955096, 1.377114]}},
{"type": "Feature", "id": "QJ3VPqqfj-S9FAD43Kjg_tDR4YY=", "properties": {"ref": "52043", "@spider": "mcdonalds_sg", "addr:full": "Block 258 Pasir Ris Street 21 #01-25, Loyang Point", "addr:city": "Singapore", "addr:state": "central", "addr:postcode": "510258", "name": "McDonald\u2019s Loyang Point", "phone": "63868963", "opening_hours": "Main Store: Daily : 0700 - 2300 <!--Store will be closed on the following dates for renovation works :30 Nov\u201920 0700 hours to 30 Nov\u201920 0000 hours-->", "brand": "McDonald's"}, "geometry": {"type": "Point", "coordinates": [103.9645008, 1.366840097]}},
{"type": "Feature", "id": "TsLiR6PJueGkMGptWGjkpIHWMSI=", "properties": {"ref": "52187", "@spider": "mcdonalds_sg", "addr:full": "9 Tampines Avenue 2 S 529731", "addr:city": "Singapore", "addr:state": "central", "name": "McDonald\u2019s Shell Tampines", "phone": "64446912", "opening_hours": "Main Store: Sun to Thu,PH : 0600 - 0200 Fri, Sat,PH Eve : 24 Hours Drive Thru: Sun to Thu,PH : 0600 - 0200 Fri, Sat,PH Eve : 24 Hours", "brand": "McDonald's"}, "geometry": {"type": "Point", "coordinates": [103.947722, 1.34905]}},
{"type": "Feature", "id": "Fq2XWTnaGX0iXrGE3r_l3RLWKSg=", "properties": {"ref": "52279", "@spider": "mcdonalds_sg", "addr:full": "818 Choa Chu Kang Avenue 1#01-02", "addr:city": "Singapore", "addr:state": "central", "addr:postcode": "680818", "name": "McDonald\u2019s Keat Hong", "phone": "67602660", "opening_hours": "Main Store: Sun to Thu,PH : 0600 - 0200 Fri, Sat,PH Eve : 24 Hours", "brand": "McDonald's"}, "geometry": {"type": "Point", "coordinates": [103.74881, 1.378318]}},
{"type": "Feature", "id": "VcWIcM54ZV2QxvGLOesJk6eWgkU=", "properties": {"ref": "802", "@spider": "mcdonalds_sg", "addr:full": "22 Boon Keng Road #01-01", "addr:city": "Singapore", "addr:state": "central", "addr:postcode": "330022", "name": "McDonald\u2019s Bendemeer", "phone": "62982250", "opening_hours": "Main Store: Sun-Thu,PH : 0600 - 0200 Fri, Sat,PH Eve : 24 Hours", "brand": "McDonald's"}, "geometry": {"type": "Point", "coordinates": [103.8615321, 1.3179072]}},
{"type": "Feature", "id": "xe8Qzt_zdjdu4fXFJS7jxgsms2g=", "properties": {"ref": "512", "@spider": "mcdonalds_sg", "addr:full": "311 New Upper Changi Road Unit #01-10/11 Bedok Mall", "addr:city": "Singapore", "addr:state": "east", "addr:postcode": "467360", "name": "McDonald\u2019s Bedok Mall", "phone": "68449818", "opening_hours": "Main Store: Sun-Thu,PH : 0600 - 0000 Fri,Sat,PH Eve : 0600 - 0100 Dessert Kiosk: Daily : 0600 - 0000 McCafe: Daily : 0600 - 0000 <!--Store will be closed on the following dates for renovation works :18 Nov\u201920 0600 hours to 19 Nov\u201920 0000 hours.-->", "brand": "McDonald's"}, "geometry": {"type": "Point", "coordinates": [103.929578, 1.325081]}},
{"type": "Feature", "id": "ulWSJYgRSNDD-UhONyaKM4rT_9k=", "properties": {"ref": "52544", "@spider": "mcdonalds_sg", "addr:full": "600 Hougang Avenue 3, #01-01", "addr:city": "Singapore", "addr:state": "central", "addr:postcode": "538846", "name": "McDonald\u2019s Shell Hougang", "phone": "65815339", "opening_hours": "Main Store: Sun to Thu,PH : 0700 - 2300 Fri,Sat,PH Eve : 24 Hours Drive Thru: Sun to Thu,PH : 0700 - 2300 Fri,Sat,PH Eve : 24 Hours", "brand": "McDonald's"}, "geometry": {"type": "Point", "coordinates": [103.8902031, 1.3493017]}},
{"type": "Feature", "id": "lbgxbQuWQ7zdV_dgE6UrTvZhTd8=", "properties": {"ref": "52965", "@spider": "mcdonalds_sg", "addr:full": "681 Punggol Drive, #02-37/38 Oasis Terraces", "addr:city": "Singapore", "addr:state": "central", "addr:postcode": "820681", "name": "McDonald\u2019s Punggol Oasis", "phone": "65132520", "opening_hours": "Main Store: Daily : 0630 - 0000 McCafe: Daily : 0630 \u2013 0000 <!--Store will be closed on the following dates for renovation works :5 Oct\u201920 (2300 hours) to 7 Oct\u201920 (1100 hours)-->", "brand": "McDonald's"}, "geometry": {"type": "Point", "coordinates": [103.9129331, 1.4025682]}},
{"type": "Feature", "id": "FdOSRwFdXruyJm254QNo6u0tC8g=", "properties": {"ref": "53351", "@spider": "mcdonalds_sg", "addr:full": "30 Woodlands Avenue 1, #01-06 The Woodgrove", "addr:city": "Singapore", "addr:state": "north", "addr:postcode": "739065", "name": "McDonald\u2019s WoodGrove", "phone": "68350885", "opening_hours": "Main Store: Daily : 0700 - 0000", "brand": "McDonald's"}, "geometry": {"type": "Point", "coordinates": [103.780865, 1.429129295]}},
{"type": "Feature", "id": "Kf0MblPfTwkMdKaA5DrnbnSDVPc=", "properties": {"ref": "53804", "@spider": "mcdonalds_sg", "addr:full": "12 Kallang Avenue Aperia #01-24", "addr:city": "Singapore", "addr:state": "central", "addr:postcode": "339511", "name": "McDonald\u2019s Aperia Mall", "phone": "62412729", "opening_hours": "Main Store: Mon-Fri : 0730 - 2000 Sat,Sun,PH : Closed", "brand": "McDonald's"}, "geometry": {"type": "Point", "coordinates": [103.864460297, 1.310431991]}},
{"type": "Feature", "id": "IjXLmaQDtEuo92SHL0sZE61NSzI=", "properties": {"ref": "54044", "@spider": "mcdonalds_sg", "addr:full": "Blk 991 Buangkok Link #01-14", "addr:city": "Singapore", "addr:state": "north", "addr:postcode": "530991", "name": "McDonald\u2019s Buangkok Square", "phone": "65703540", "opening_hours": "Main Store: Daily : 0600 - 0000", "brand": "McDonald's"}, "geometry": {"type": "Point", "coordinates": [103.881605, 1.384168]}},
{"type": "Feature", "id": "bzy-eKWrEdGiOZeGWmFJ4bre4AM=", "properties": {"ref": "54288", "@spider": "mcdonalds_sg", "addr:full": "107 North Bridge Road, Funan #01-16/17/21", "addr:city": "Singapore", "addr:state": "central", "addr:postcode": "179105", "name": "McDonald\u2019s Funan Centre", "phone": "69520352", "opening_hours": "Main Store: Daily : 0800 - 2300", "brand": "McDonald's"}, "geometry": {"type": "Point", "coordinates": [103.849785, 1.291519]}},
{"type": "Feature", "id": "begJEI1QYu_i0vos172eTtBfbBs=", "properties": {"ref": "54391", "@spider": "mcdonalds_sg", "addr:full": "461 Yishun Avenue 6 Blossom Spring Yishun #01-03", "addr:city": "Singapore", "addr:state": "central", "addr:postcode": "760461", "name": "McDonald\u2019s Yishun Blossom Spring", "phone": "62193598", "opening_hours": "Main Store: Daily : 0700 - 0000", "brand": "McDonald's"}, "geometry": {"type": "Point", "coordinates": [103.849942, 1.428758]}},
{"type": "Feature", "id": "bG1OOOLYngXV5UKNldShpjdpfI4=", "properties": {"ref": "54682", "@spider": "mcdonalds_sg", "addr:full": "20 Ah Hood Road #01-16 Singapore", "addr:city": "Singapore", "addr:state": "central", "addr:postcode": "329984", "name": "McDonald\u2019s Zhongshan Mall", "phone": "66942568", "opening_hours": "Main Store: Sun to Thu,PH : 0730 - 0000 Fri,Sat,PH Eve : 24 Hours", "brand": "McDonald's"}, "geometry": {"type": "Point", "coordinates": [103.8465423, 1.326810889]}},
{"type": "Feature", "id": "Vjiwb15p2GjB8R6Qz0oR38I03Hk=", "properties": {"ref": "54912", "@spider": "mcdonalds_sg", "addr:full": "McDonald's Vista Point Blk 548 Woodlands Drive 44 #01-20 Vista Point Singapore 730548", "addr:city": "Singapore", "addr:state": "central", "addr:postcode": "730548", "name": "McDonald\u2019s Vista Point", "phone": "6760 0915   ", "opening_hours": "Main Store: Daily : 0700 - 0000", "brand": "McDonald's"}, "geometry": {"type": "Point", "coordinates": [103.7941744, 1.431075383]}},
{"type": "Feature", "id": "HUxO62tsveuyOBw9a5QRVAyXgrU=", "properties": {"ref": "56353", "@spider": "mcdonalds_sg", "addr:city": "Singapore", "addr:state": "east", "addr:postcode": "521512", "name": "McDonald\u2019s Tampines (Kiosk)", "phone": "67851082", "opening_hours": "Main Store: Daily : 0700 - 2300 Dessert Kiosk: Daily : 0700 \u2013 2300 <!--Store will be closed on the following dates for maintenance works :27 Oct\u201920 07000 hours to 27 Oct\u201920 1700 hours.-->", "brand": "McDonald's"}, "geometry": {"type": "Point", "coordinates": [103.942702, 1.354111]}},
{"type": "Feature", "id": "v08pYVLNk3vEmNa2AHk_SVqmG1E=", "properties": {"ref": "56384", "@spider": "mcdonalds_sg", "addr:full": "10 Choa Chu Kang Avenue 4 #01-21 Cold Kiosk at Choa Chu Kang MRT Station", "addr:city": "Singapore", "addr:state": "north", "addr:postcode": "689810", "name": "McDonald\u2019s Choa Chu Kang 4 (Kiosk)", "phone": "67698603", "opening_hours": "Main Store: Daily : 1000 - 2000 Dessert Kiosk: Daily : 1000 - 2000", "brand": "McDonald's"}, "geometry": {"type": "Point", "coordinates": [103.7442814, 1.3853684]}},
{"type": "Feature", "id": "2C9bovB5-6WpBj6uu9mpJc4q4AU=", "properties": {"ref": "56572", "@spider": "mcdonalds_sg", "addr:full": "4 Bukit Batok Street 41 #01-42 to #01-45, #01-50 to #01-54 Singapore 657991", "addr:city": "Singapore", "addr:state": "west", "addr:postcode": "657991", "name": "McDonald\u2019s LeQuest", "phone": "67193100", "opening_hours": "Main Store: Sun to Thu,PH : 0600 - 0200 Fri, Sat,PH Eve : 24 Hours", "brand": "McDonald's"}, "geometry": {"type": "Point", "coordinates": [103.741207428, 1.355609617]}},
{"type": "Feature", "id": "sfiwodxO_GGMk7R96q9wwXsj9lI=", "properties": {"ref": "56616", "@spider": "mcdonalds_sg", "addr:full": "Blk 133 Canberra View, #01-01 to #01-03", "addr:city": "Singapore", "addr:state": "north", "addr:postcode": "750133", "name": "McDonald\u2019s Canberra", "phone": "66839116", "opening_hours": "Main store: Daily : 0700 - 0000 McCafe: Daily : 0700 - 0000", "brand": "McDonald's"}, "geometry": {"type": "Point", "coordinates": [103.830308, 1.443196]}}]}